{
"type": "FeatureCollection",
"name": "HOPELCHENSECCIONES",
"crs": { "type": "name", "properties": { "name": "urn:ogc:def:crs:OGC:1.3:CRS84" } },
"features": [
{ "type": "Feature", "properties": { "ID": 11, "ENTIDAD": 4, "MUNICIPIO": 6, "NOMBRE": "HOPELCHEN", "CONTROL": 21, "GEOMETRY1_": null, "ID_2": 387, "ENTIDAD_2": 4, "DISTRITO_F": 1, "DISTRITO_L": 18, "MUNICIPIO_2": 6, "SECCION": 399, "TIPO": 4, "CONTROL_2": 537, "GEOMETRY1__2": null }, "geometry": { "type": "MultiPolygon", "coordinates": [ [ [ [ -89.945163645869016, 19.518091709174293 ], [ -89.94825226809813, 19.523434452253237 ], [ -89.971599790350467, 19.563810054043969 ], [ -89.979623341693852, 19.577680826866548 ], [ -89.982526850764032, 19.582699707897298 ], [ -89.998940706213418, 19.611066175731771 ], [ -89.978132531014879, 19.611055173429857 ], [ -89.947084125077225, 19.611034277058703 ], [ -89.944990925368003, 19.611032675270568 ], [ -89.923351172437322, 19.611014686868362 ], [ -89.870268543613776, 19.610959524932564 ], [ -89.869257372505501, 19.610958321959874 ], [ -89.865122913671243, 19.610953344094941 ], [ -89.855570772096485, 19.610941479589776 ], [ -89.795550998632422, 19.610855311038268 ], [ -89.788233067060162, 19.610843433736402 ], [ -89.785563377524966, 19.610839026525561 ], [ -89.783646262867961, 19.610835837221053 ], [ -89.781183223489037, 19.610831709697649 ], [ -89.778176394751881, 19.610826625134315 ], [ -89.774346407613962, 19.610820075742115 ], [ -89.76874094735372, 19.610810343062589 ], [ -89.763808843592656, 19.6108016348999 ], [ -89.760408396671536, 19.603549758886508 ], [ -89.758005780904739, 19.601758624224981 ], [ -89.756026906425632, 19.601881137983025 ], [ -89.751720577126335, 19.602118498399953 ], [ -89.750126073544791, 19.600593294697799 ], [ -89.750279838509428, 19.598857814731986 ], [ -89.749977782075518, 19.59669838469453 ], [ -89.750354971916266, 19.595381784738908 ], [ -89.750853706972237, 19.593819428238199 ], [ -89.75195302737302, 19.591359341064329 ], [ -89.752676951231294, 19.590133090655243 ], [ -89.753758348689317, 19.588500613836629 ], [ -89.754718182300437, 19.587113886326563 ], [ -89.755204341393494, 19.586130848762505 ], [ -89.756743271876147, 19.584839516527126 ], [ -89.759224110729249, 19.582989040370304 ], [ -89.760879160921078, 19.581700190150784 ], [ -89.763476086823005, 19.579852166564191 ], [ -89.764895156644059, 19.578723750198918 ], [ -89.765481388376713, 19.578488070686596 ], [ -89.766884425514064, 19.578104512223469 ], [ -89.768171279259903, 19.577718421391676 ], [ -89.76969048457272, 19.577337359585215 ], [ -89.772031811467897, 19.576560088335704 ], [ -89.773899535109635, 19.576186541358261 ], [ -89.775189912459467, 19.575634865970233 ], [ -89.776371198917829, 19.574749605195713 ], [ -89.776498016686702, 19.574255530100658 ], [ -89.778417243022361, 19.572649129189138 ], [ -89.77910175414172, 19.572076176461682 ], [ -89.780263510473361, 19.572101301668134 ], [ -89.780610291360645, 19.572191525784984 ], [ -89.78095702312531, 19.572281903988465 ], [ -89.782055985882479, 19.573033838228469 ], [ -89.782331662095629, 19.573222459710259 ], [ -89.783704548129435, 19.574245772706103 ], [ -89.785313347286973, 19.575108564750078 ], [ -89.787034808040943, 19.576139384687995 ], [ -89.788876007357459, 19.577007166334553 ], [ -89.789687502439577, 19.577107480292693 ], [ -89.791312263445775, 19.577225331460955 ], [ -89.793628820215659, 19.577606493227048 ], [ -89.79493219263631, 19.577420960859417 ], [ -89.795144469936972, 19.577390740789308 ], [ -89.796080975115075, 19.577079696939755 ], [ -89.796904822781627, 19.576600612511523 ], [ -89.797610722500963, 19.576201788965072 ], [ -89.798790151816149, 19.575399131074452 ], [ -89.800087511211856, 19.574516196489519 ], [ -89.802791328965881, 19.573083859490673 ], [ -89.805384200100704, 19.571400676834472 ], [ -89.805660976974977, 19.57123626670456 ], [ -89.807267655992987, 19.570281856127291 ], [ -89.809499618705971, 19.569170491384927 ], [ -89.818985306950466, 19.565813136082493 ], [ -89.836270504311273, 19.56392050336391 ], [ -89.83336729304267, 19.500951200695845 ], [ -89.842499542669714, 19.500937233425198 ], [ -89.935151059221965, 19.500769400044984 ], [ -89.945163645869016, 19.518091709174293 ] ] ] ] } },
{ "type": "Feature", "properties": { "ID": 11, "ENTIDAD": 4, "MUNICIPIO": 6, "NOMBRE": "HOPELCHEN", "CONTROL": 21, "GEOMETRY1_": null, "ID_2": 374, "ENTIDAD_2": 4, "DISTRITO_F": 1, "DISTRITO_L": 18, "MUNICIPIO_2": 6, "SECCION": 386, "TIPO": 4, "CONTROL_2": 543, "GEOMETRY1__2": null }, "geometry": { "type": "MultiPolygon", "coordinates": [ [ [ [ -89.744545504372823, 20.121766669223664 ], [ -89.712562574320188, 20.142967195813597 ], [ -89.621479926372828, 20.11639210456493 ], [ -89.70136144221199, 20.060765825190611 ], [ -89.693739646973356, 20.050586141492303 ], [ -89.721253985604633, 20.050583873058429 ], [ -89.730420437300083, 20.050582163890528 ], [ -89.747821744600444, 20.050577608323405 ], [ -89.752947841295764, 20.050575938894735 ], [ -89.756558372040487, 20.050574673600213 ], [ -89.760056599540107, 20.0505733771476 ], [ -89.761940446586664, 20.050572650239445 ], [ -89.761937415247033, 20.068006999400325 ], [ -89.761928015443303, 20.113859640328357 ], [ -89.761924497236336, 20.128835215196119 ], [ -89.761923952451454, 20.131073427916881 ], [ -89.761923891216327, 20.131323748751822 ], [ -89.761923279100159, 20.133812281714764 ], [ -89.76177237194041, 20.146000724614876 ], [ -89.744545504372823, 20.121766669223664 ] ] ] ] } },
{ "type": "Feature", "properties": { "ID": 11, "ENTIDAD": 4, "MUNICIPIO": 6, "NOMBRE": "HOPELCHEN", "CONTROL": 21, "GEOMETRY1_": null, "ID_2": 375, "ENTIDAD_2": 4, "DISTRITO_F": 1, "DISTRITO_L": 18, "MUNICIPIO_2": 6, "SECCION": 387, "TIPO": 4, "CONTROL_2": 940, "GEOMETRY1__2": null }, "geometry": { "type": "MultiPolygon", "coordinates": [ [ [ [ -89.855532069993359, 20.112752996528027 ], [ -89.850861162121461, 20.150124039738408 ], [ -89.845327725008403, 20.150164806925872 ], [ -89.834851003434139, 20.150241508868593 ], [ -89.7846314026919, 20.150600487821535 ], [ -89.781770926831996, 20.15062050226549 ], [ -89.778977024460943, 20.150640005873143 ], [ -89.76518756103313, 20.150804112816669 ], [ -89.76177237194041, 20.146000724614876 ], [ -89.761923279100159, 20.133812281714764 ], [ -89.761923891216327, 20.131323748751822 ], [ -89.761923952451454, 20.131073427916881 ], [ -89.761924497236336, 20.128835215196119 ], [ -89.761928015443303, 20.113859640328357 ], [ -89.761937415247033, 20.068006999400325 ], [ -89.761940446586664, 20.050572650239445 ], [ -89.770580936441306, 20.0505132840843 ], [ -89.774185717417183, 20.050488391439007 ], [ -89.77618950085224, 20.050474522505652 ], [ -89.780939718038269, 20.050441553408422 ], [ -89.782926029534892, 20.050427729341077 ], [ -89.850670795183319, 20.049942839541661 ], [ -89.850834262659092, 20.080576593536364 ], [ -89.857765164036124, 20.080700950048122 ], [ -89.858061961234355, 20.108177155704791 ], [ -89.8581131618797, 20.112922850355194 ], [ -89.855532069993359, 20.112752996528027 ] ] ] ] } },
{ "type": "Feature", "properties": { "ID": 11, "ENTIDAD": 4, "MUNICIPIO": 6, "NOMBRE": "HOPELCHEN", "CONTROL": 21, "GEOMETRY1_": null, "ID_2": 384, "ENTIDAD_2": 4, "DISTRITO_F": 1, "DISTRITO_L": 18, "MUNICIPIO_2": 6, "SECCION": 396, "TIPO": 4, "CONTROL_2": 504, "GEOMETRY1__2": null }, "geometry": { "type": "MultiPolygon", "coordinates": [ [ [ [ -90.000471868454881, 19.701456194722446 ], [ -90.000581668913114, 19.717682287521498 ], [ -90.000651283856442, 19.727986488207119 ], [ -89.968988180800565, 19.727688383599205 ], [ -89.917318471854514, 19.727189891122421 ], [ -89.917271792667847, 19.700150708005673 ], [ -89.917265353962449, 19.696451793337204 ], [ -89.917232880319489, 19.677904412694492 ], [ -89.917211365178616, 19.665713606276743 ], [ -89.984683216522157, 19.667362454438134 ], [ -90.000243014358588, 19.667739102847193 ], [ -90.000471868454881, 19.701456194722446 ] ] ] ] } },
{ "type": "Feature", "properties": { "ID": 11, "ENTIDAD": 4, "MUNICIPIO": 6, "NOMBRE": "HOPELCHEN", "CONTROL": 21, "GEOMETRY1_": null, "ID_2": 385, "ENTIDAD_2": 4, "DISTRITO_F": 1, "DISTRITO_L": 18, "MUNICIPIO_2": 6, "SECCION": 397, "TIPO": 4, "CONTROL_2": 503, "GEOMETRY1__2": null }, "geometry": { "type": "MultiPolygon", "coordinates": [ [ [ [ -89.863195654903365, 19.700099656656334 ], [ -89.852407120179066, 19.700087519495586 ], [ -89.849663333949266, 19.70008432641097 ], [ -89.842751835379374, 19.700076101979409 ], [ -89.841037240364543, 19.700074020362514 ], [ -89.83035797685578, 19.700060685429055 ], [ -89.830664081776604, 19.668956193583824 ], [ -89.830501322304585, 19.659144041669776 ], [ -89.857744249436706, 19.659665841986751 ], [ -89.860561832840943, 19.659715119125991 ], [ -89.862264731917662, 19.659752152092221 ], [ -89.864468432634666, 19.659869501952937 ], [ -89.888060527731085, 19.660617626901271 ], [ -89.887311637067754, 19.700124442860691 ], [ -89.863195654903365, 19.700099656656334 ] ] ] ] } },
{ "type": "Feature", "properties": { "ID": 11, "ENTIDAD": 4, "MUNICIPIO": 6, "NOMBRE": "HOPELCHEN", "CONTROL": 21, "GEOMETRY1_": null, "ID_2": 386, "ENTIDAD_2": 4, "DISTRITO_F": 1, "DISTRITO_L": 18, "MUNICIPIO_2": 6, "SECCION": 398, "TIPO": 4, "CONTROL_2": 813, "GEOMETRY1__2": null }, "geometry": { "type": "MultiPolygon", "coordinates": [ [ [ [ -90.004585773436162, 19.620831266189224 ], [ -90.031651133034998, 19.667633812856959 ], [ -90.000243014358588, 19.667739102847193 ], [ -89.984683216522157, 19.667362454438134 ], [ -89.917211365178616, 19.665713606276743 ], [ -89.917232880319489, 19.677904412694492 ], [ -89.917265353962449, 19.696451793337204 ], [ -89.917271792667847, 19.700150708005673 ], [ -89.888193895117737, 19.700125285908211 ], [ -89.887311637067754, 19.700124442860691 ], [ -89.888060527731085, 19.660617626901271 ], [ -89.864468432634666, 19.659869501952937 ], [ -89.862264731917662, 19.659752152092221 ], [ -89.860561832840943, 19.659715119125991 ], [ -89.857744249436706, 19.659665841986751 ], [ -89.830501322304585, 19.659144041669776 ], [ -89.830664081776604, 19.668956193583824 ], [ -89.83035797685578, 19.700060685428962 ], [ -89.828865712311725, 19.70005877134238 ], [ -89.782632355681187, 19.699993305918429 ], [ -89.760757926298055, 19.69995817063246 ], [ -89.746121896414365, 19.699933171396697 ], [ -89.746259851693907, 19.683931532285666 ], [ -89.746283488802845, 19.681186563288339 ], [ -89.746396735452763, 19.668021965807313 ], [ -89.716808916508526, 19.667161326826601 ], [ -89.716887055874622, 19.613688446888137 ], [ -89.716891336538112, 19.610712027571807 ], [ -89.763808843592656, 19.610801634899811 ], [ -89.76874094735372, 19.610810343062589 ], [ -89.774346407613962, 19.610820075742115 ], [ -89.778176394751881, 19.610826625134315 ], [ -89.781183223489037, 19.610831709697649 ], [ -89.783646262867961, 19.610835837221053 ], [ -89.785563377524966, 19.610839026525561 ], [ -89.788233067060162, 19.610843433736402 ], [ -89.795550998632422, 19.610855311038268 ], [ -89.855570772096485, 19.610941479589776 ], [ -89.865122913671243, 19.610953344094941 ], [ -89.869257372505501, 19.610958321959874 ], [ -89.870268543613776, 19.610959524932564 ], [ -89.923351172437322, 19.611014686868362 ], [ -89.944990925368003, 19.611032675270568 ], [ -89.947084125077225, 19.611034277058703 ], [ -89.978132531014879, 19.611055173429857 ], [ -89.998940706213418, 19.611066175731771 ], [ -90.004585773436162, 19.620831266189224 ] ] ] ] } },
{ "type": "Feature", "properties": { "ID": 11, "ENTIDAD": 4, "MUNICIPIO": 6, "NOMBRE": "HOPELCHEN", "CONTROL": 21, "GEOMETRY1_": null, "ID_2": 368, "ENTIDAD_2": 4, "DISTRITO_F": 1, "DISTRITO_L": 19, "MUNICIPIO_2": 5, "SECCION": 380, "TIPO": 4, "CONTROL_2": 986, "GEOMETRY1__2": null }, "geometry": { "type": "MultiPolygon", "coordinates": [ [ [ [ -89.857765164036124, 20.080700950048122 ], [ -89.858061961234355, 20.108177155704791 ], [ -89.857765164036124, 20.080700950048122 ], [ -89.850834262659092, 20.080576593536364 ], [ -89.857765164036124, 20.080700950048122 ] ] ] ] } },
{ "type": "Feature", "properties": { "ID": 11, "ENTIDAD": 4, "MUNICIPIO": 6, "NOMBRE": "HOPELCHEN", "CONTROL": 21, "GEOMETRY1_": null, "ID_2": 369, "ENTIDAD_2": 4, "DISTRITO_F": 1, "DISTRITO_L": 18, "MUNICIPIO_2": 6, "SECCION": 381, "TIPO": 3, "CONTROL_2": 608, "GEOMETRY1__2": null }, "geometry": { "type": "MultiPolygon", "coordinates": [ [ [ [ -89.839405895364266, 19.755309138681699 ], [ -89.839709794905772, 19.75447347513126 ], [ -89.840060592962942, 19.753508835818131 ], [ -89.840159473743867, 19.753236926534559 ], [ -89.840227275141942, 19.75305048081508 ], [ -89.84031700844946, 19.752803724103089 ], [ -89.84188010435912, 19.751391876053173 ], [ -89.842195858759069, 19.751106669447761 ], [ -89.842504864338665, 19.750422944151399 ], [ -89.843066477914249, 19.749181473957357 ], [ -89.843755021794919, 19.747739898217791 ], [ -89.844105379375947, 19.747006379937229 ], [ -89.845148017518369, 19.74730050584953 ], [ -89.845332996126416, 19.74735268718598 ], [ -89.845820371843772, 19.747673894040776 ], [ -89.846783798554242, 19.748285756305659 ], [ -89.847581836573525, 19.748467306950175 ], [ -89.848939800012104, 19.74881045528435 ], [ -89.849496572313683, 19.748951144654612 ], [ -89.850684559047068, 19.749540265382841 ], [ -89.850793109160648, 19.749399148603292 ], [ -89.851079165817168, 19.749027268951551 ], [ -89.851515662265882, 19.749314031673265 ], [ -89.852059540598916, 19.749700569649857 ], [ -89.852153679414684, 19.749760891295505 ], [ -89.853865895091872, 19.750858018079736 ], [ -89.854325970844229, 19.753831935189336 ], [ -89.854413701902274, 19.75439903505983 ], [ -89.917118794686886, 19.750139798937251 ], [ -89.91719609737909, 19.759443370527393 ], [ -89.917532450272574, 19.800025349671465 ], [ -89.882037542787415, 19.800437574795438 ], [ -89.872905347870315, 19.800542487227297 ], [ -89.867011266265365, 19.800609950617361 ], [ -89.867044309873094, 19.806491525615336 ], [ -89.86707215659905, 19.811452290282347 ], [ -89.867250833868567, 19.843374955994239 ], [ -89.867290094655786, 19.850410842524724 ], [ -89.824567916168263, 19.850429260772163 ], [ -89.750496902921881, 19.850436870318337 ], [ -89.750183938607506, 19.833922183218537 ], [ -89.751178863326771, 19.799226036729905 ], [ -89.754797173387132, 19.799146891023554 ], [ -89.759209793141778, 19.799193522788052 ], [ -89.761070746100643, 19.799266721542285 ], [ -89.763172587392361, 19.798809684503819 ], [ -89.765577541485825, 19.798145901525963 ], [ -89.767460956480264, 19.79740190398546 ], [ -89.769508052224964, 19.795953472275048 ], [ -89.770907018950226, 19.793290755521166 ], [ -89.771585994517309, 19.789270994282983 ], [ -89.771279527754885, 19.785940790830697 ], [ -89.771178623234889, 19.783533890959639 ], [ -89.770491526670725, 19.780550495460531 ], [ -89.770182218668111, 19.777361716404268 ], [ -89.770144618612662, 19.775657855031863 ], [ -89.770104134229953, 19.773823429083414 ], [ -89.771738521843361, 19.767516457054445 ], [ -89.772668699019462, 19.767346411358506 ], [ -89.774871018829984, 19.765593854612739 ], [ -89.776838429121582, 19.763427305791943 ], [ -89.779619549703256, 19.761091151000461 ], [ -89.781941485909385, 19.760001939476354 ], [ -89.784730163420221, 19.759159619049147 ], [ -89.787404587710711, 19.758732751072152 ], [ -89.790079003794517, 19.758305841019126 ], [ -89.79205517884418, 19.757882015048921 ], [ -89.793333546476518, 19.757544294048422 ], [ -89.795773897753079, 19.756869345662373 ], [ -89.798330604669189, 19.756193835984963 ], [ -89.800420504126237, 19.755271400980789 ], [ -89.802160834451087, 19.754267524120625 ], [ -89.804119870040722, 19.750606640484996 ], [ -89.825895214276542, 19.750522242678475 ], [ -89.827639663497109, 19.750515366524038 ], [ -89.829504667286969, 19.750507996317019 ], [ -89.829829891048988, 19.75021602318332 ], [ -89.829986969456883, 19.750075003699543 ], [ -89.834269986146751, 19.752459196323574 ], [ -89.834687875727056, 19.752740982927552 ], [ -89.832988882070595, 19.755312614478015 ], [ -89.835530617363219, 19.756277230778476 ], [ -89.838529898906032, 19.757415990463418 ], [ -89.838627604704399, 19.757449232021436 ], [ -89.839079492302474, 19.756206669795972 ], [ -89.839405895364266, 19.755309138681699 ] ] ] ] } },
{ "type": "Feature", "properties": { "ID": 11, "ENTIDAD": 4, "MUNICIPIO": 6, "NOMBRE": "HOPELCHEN", "CONTROL": 21, "GEOMETRY1_": null, "ID_2": 370, "ENTIDAD_2": 4, "DISTRITO_F": 1, "DISTRITO_L": 18, "MUNICIPIO_2": 6, "SECCION": 382, "TIPO": 3, "CONTROL_2": 786, "GEOMETRY1__2": null }, "geometry": { "type": "MultiPolygon", "coordinates": [ [ [ [ -89.840041917951382, 19.739695730352377 ], [ -89.840568193365854, 19.740617956248709 ], [ -89.841261643748538, 19.741833117589465 ], [ -89.841929759673718, 19.743003886720256 ], [ -89.842100746726828, 19.743169475861336 ], [ -89.842910968719124, 19.743485586881647 ], [ -89.843359850505095, 19.743660717710242 ], [ -89.843868984439055, 19.743859354123771 ], [ -89.844329014648068, 19.744038831342813 ], [ -89.844980869362232, 19.744293144824329 ], [ -89.844940500500385, 19.744561667079751 ], [ -89.844872863217361, 19.745011568058835 ], [ -89.844814356762939, 19.745400730633079 ], [ -89.844806473783123, 19.745453164979565 ], [ -89.844105379375947, 19.747006379937229 ], [ -89.843755021794919, 19.747739898217791 ], [ -89.843066477914249, 19.749181473957357 ], [ -89.842504864338665, 19.750422944151399 ], [ -89.842195858759069, 19.751106669447761 ], [ -89.84188010435912, 19.751391876053173 ], [ -89.84031700844946, 19.752803724103089 ], [ -89.840227275141942, 19.75305048081508 ], [ -89.840159473743867, 19.753236926534559 ], [ -89.840060592962942, 19.753508835818131 ], [ -89.839709794905772, 19.75447347513126 ], [ -89.839405895364266, 19.755309138681699 ], [ -89.839079492302474, 19.756206669795972 ], [ -89.838627604704399, 19.757449232021436 ], [ -89.838529898906032, 19.757415990463418 ], [ -89.835530617363219, 19.756277230778476 ], [ -89.832988882070595, 19.755312614478015 ], [ -89.834687875727056, 19.752740982927552 ], [ -89.834269986146751, 19.752459196323574 ], [ -89.829986969456883, 19.750075003699543 ], [ -89.829829891048988, 19.75021602318332 ], [ -89.829504667286969, 19.750507996317019 ], [ -89.827639663497109, 19.750515366524038 ], [ -89.825895214276542, 19.750522242678475 ], [ -89.804119870040722, 19.750606640484996 ], [ -89.799498729684657, 19.750609272750786 ], [ -89.798101242410851, 19.75061004522767 ], [ -89.795417089952565, 19.750611498245977 ], [ -89.794143228583309, 19.750612173710319 ], [ -89.589360133246984, 19.750602598889845 ], [ -89.583638420369198, 19.750598955550242 ], [ -89.583486195498253, 19.609458489686116 ], [ -89.631042276350811, 19.609238565110672 ], [ -89.716891336538112, 19.610712027571807 ], [ -89.716887055874622, 19.613688446888137 ], [ -89.716808916508526, 19.667161326826601 ], [ -89.746396735452763, 19.668021965807313 ], [ -89.746283488802845, 19.681186563288339 ], [ -89.746259851693907, 19.683931532285666 ], [ -89.746121896414365, 19.699933171396697 ], [ -89.760757926298055, 19.69995817063246 ], [ -89.782632355681187, 19.699993305918429 ], [ -89.828865712311725, 19.70005877134238 ], [ -89.83035797685578, 19.700060685429055 ], [ -89.841037240364543, 19.700074020362514 ], [ -89.842751835379374, 19.700076101979409 ], [ -89.849663333949266, 19.70008432641097 ], [ -89.852407120179066, 19.700087519495586 ], [ -89.863195654903365, 19.700099656656334 ], [ -89.887311637067754, 19.700124442860691 ], [ -89.888193895117737, 19.700125285908211 ], [ -89.917271792667847, 19.700150708005673 ], [ -89.917318471854514, 19.727189891122421 ], [ -89.917118794686886, 19.750139798937251 ], [ -89.854413701902274, 19.75439903505983 ], [ -89.854325970844229, 19.753831935189336 ], [ -89.853865895091872, 19.750858018079736 ], [ -89.853933474127899, 19.750848652884038 ], [ -89.854106759989065, 19.750812489547016 ], [ -89.859903107672565, 19.749602729770128 ], [ -89.85564221973398, 19.745028774345752 ], [ -89.854058131504075, 19.743328211432445 ], [ -89.846941649922002, 19.736387091785502 ], [ -89.845849162490723, 19.736965392033039 ], [ -89.84350946372912, 19.737789988568789 ], [ -89.840217824267711, 19.738953642772557 ], [ -89.839816595672119, 19.739095508371612 ], [ -89.839719058673651, 19.739129958346336 ], [ -89.840041917951382, 19.739695730352377 ] ] ] ] } },
{ "type": "Feature", "properties": { "ID": 11, "ENTIDAD": 4, "MUNICIPIO": 6, "NOMBRE": "HOPELCHEN", "CONTROL": 21, "GEOMETRY1_": null, "ID_2": 371, "ENTIDAD_2": 4, "DISTRITO_F": 1, "DISTRITO_L": 18, "MUNICIPIO_2": 6, "SECCION": 383, "TIPO": 2, "CONTROL_2": 814, "GEOMETRY1__2": null }, "geometry": { "type": "MultiPolygon", "coordinates": [ [ [ [ -89.844806473783123, 19.745453164979565 ], [ -89.844814356762939, 19.745400730633079 ], [ -89.844872863217361, 19.745011568058835 ], [ -89.844940500500385, 19.744561667079751 ], [ -89.844980869362232, 19.744293144824329 ], [ -89.845073897885911, 19.743977046200513 ], [ -89.845861525411578, 19.744241152693288 ], [ -89.846857511789196, 19.744806489351991 ], [ -89.847254503035302, 19.744231885880918 ], [ -89.84740713542665, 19.743734129773248 ], [ -89.847487436463553, 19.743282438635209 ], [ -89.847835040009443, 19.743403528872133 ], [ -89.848705563288604, 19.743811101505781 ], [ -89.849297760884625, 19.744207007462169 ], [ -89.849566694456342, 19.744333472361145 ], [ -89.850452066370053, 19.744349057326531 ], [ -89.850955032442158, 19.744560792644684 ], [ -89.851485499043193, 19.744827112903838 ], [ -89.851892197093918, 19.745212984695751 ], [ -89.852176668586353, 19.74558469136743 ], [ -89.852786509981385, 19.744860213432087 ], [ -89.854058131504075, 19.743328211432445 ], [ -89.85564221973398, 19.745028774345752 ], [ -89.859903107672565, 19.749602729770128 ], [ -89.854106759989065, 19.750812489547016 ], [ -89.853933474127899, 19.750848652884038 ], [ -89.853865895091872, 19.750858018079736 ], [ -89.852153679414684, 19.749760891295505 ], [ -89.852059540598916, 19.749700569649765 ], [ -89.851515662265882, 19.749314031673265 ], [ -89.851079165817168, 19.749027268951551 ], [ -89.850793109160648, 19.749399148603292 ], [ -89.850684559047068, 19.749540265382841 ], [ -89.849496572313683, 19.748951144654612 ], [ -89.848939800012104, 19.74881045528435 ], [ -89.847581836573525, 19.748467306950175 ], [ -89.846783798554242, 19.748285756305659 ], [ -89.845820371843772, 19.747673894040776 ], [ -89.845332996126416, 19.74735268718598 ], [ -89.845148017518369, 19.74730050584953 ], [ -89.844105379375947, 19.747006379937229 ], [ -89.844806473783123, 19.745453164979565 ] ] ] ] } },
{ "type": "Feature", "properties": { "ID": 11, "ENTIDAD": 4, "MUNICIPIO": 6, "NOMBRE": "HOPELCHEN", "CONTROL": 21, "GEOMETRY1_": null, "ID_2": 372, "ENTIDAD_2": 4, "DISTRITO_F": 1, "DISTRITO_L": 18, "MUNICIPIO_2": 6, "SECCION": 384, "TIPO": 2, "CONTROL_2": 787, "GEOMETRY1__2": null }, "geometry": { "type": "MultiPolygon", "coordinates": [ [ [ [ -89.852786509981385, 19.744860213432087 ], [ -89.852176668586353, 19.74558469136743 ], [ -89.851892197093918, 19.745212984695751 ], [ -89.851485499043193, 19.744827112903838 ], [ -89.850955032442158, 19.744560792644684 ], [ -89.850452066370053, 19.744349057326531 ], [ -89.849566694456342, 19.744333472361145 ], [ -89.849297760884625, 19.744207007462169 ], [ -89.848705563288604, 19.743811101505781 ], [ -89.847835040009443, 19.743403528872133 ], [ -89.847487436463553, 19.743282438635209 ], [ -89.84740713542665, 19.743734129773248 ], [ -89.847254503035302, 19.744231885880918 ], [ -89.846857511789196, 19.744806489351991 ], [ -89.845861525411578, 19.744241152693288 ], [ -89.845073897885911, 19.743977046200513 ], [ -89.844980869362232, 19.744293144824329 ], [ -89.844329014648068, 19.744038831342813 ], [ -89.843868984439055, 19.743859354123771 ], [ -89.843359850505095, 19.743660717710242 ], [ -89.842910968719124, 19.743485586881647 ], [ -89.842100746726828, 19.743169475861336 ], [ -89.841929759673718, 19.743003886720256 ], [ -89.841261643748538, 19.741833117589465 ], [ -89.840568193365854, 19.740617956248709 ], [ -89.840041917951382, 19.739695730352377 ], [ -89.839719058673651, 19.739129958346336 ], [ -89.839816595672119, 19.739095508371612 ], [ -89.840217824267711, 19.738953642772557 ], [ -89.84350946372912, 19.737789988568789 ], [ -89.845849162490723, 19.736965392033039 ], [ -89.846941649922002, 19.736387091785502 ], [ -89.854058131504075, 19.743328211432445 ], [ -89.852786509981385, 19.744860213432087 ] ] ] ] } },
{ "type": "Feature", "properties": { "ID": 11, "ENTIDAD": 4, "MUNICIPIO": 6, "NOMBRE": "HOPELCHEN", "CONTROL": 21, "GEOMETRY1_": null, "ID_2": 373, "ENTIDAD_2": 4, "DISTRITO_F": 1, "DISTRITO_L": 18, "MUNICIPIO_2": 6, "SECCION": 385, "TIPO": 4, "CONTROL_2": 987, "GEOMETRY1__2": null }, "geometry": { "type": "MultiPolygon", "coordinates": [ [ [ [ -89.849882210813902, 20.157952782476801 ], [ -89.847366195102623, 20.164042480637253 ], [ -89.846817035419477, 20.164882661483208 ], [ -89.846267869423301, 20.16572283975681 ], [ -89.840973410617735, 20.173822293685618 ], [ -89.836534786417417, 20.180611616993264 ], [ -89.825339784457185, 20.197731949744956 ], [ -89.797711166219344, 20.196737059507527 ], [ -89.76518756103313, 20.150804112816669 ], [ -89.778977024460943, 20.150640005873143 ], [ -89.781770926831996, 20.15062050226549 ], [ -89.7846314026919, 20.150600487821535 ], [ -89.834851003434139, 20.150241508868593 ], [ -89.845327725008403, 20.150164806925872 ], [ -89.850861162121461, 20.150124039738408 ], [ -89.849882210813902, 20.157952782476801 ] ] ] ] } },
{ "type": "Feature", "properties": { "ID": 11, "ENTIDAD": 4, "MUNICIPIO": 6, "NOMBRE": "HOPELCHEN", "CONTROL": 21, "GEOMETRY1_": null, "ID_2": 376, "ENTIDAD_2": 4, "DISTRITO_F": 1, "DISTRITO_L": 18, "MUNICIPIO_2": 6, "SECCION": 388, "TIPO": 2, "CONTROL_2": 542, "GEOMETRY1__2": null }, "geometry": { "type": "MultiPolygon", "coordinates": [ [ [ [ -89.648259038645989, 19.987583180472001 ], [ -89.757065688542923, 19.987383395107457 ], [ -89.757012530049437, 19.988385506664304 ], [ -89.756745145269704, 19.993471038289233 ], [ -89.756849072045497, 19.996224143099067 ], [ -89.780842384553594, 19.99644651530495 ], [ -89.779505862112103, 19.994561719783118 ], [ -89.80679061287131, 19.994302703157359 ], [ -89.806857501071036, 19.999414566914268 ], [ -89.782906741013321, 19.999357624546427 ], [ -89.756282400536094, 19.998862120645079 ], [ -89.756232320248131, 19.998861184832418 ], [ -89.755516493975918, 19.999407204626511 ], [ -89.754193499554347, 20.000241428183894 ], [ -89.753000166730288, 20.000779237611695 ], [ -89.752387418069617, 20.000994514761121 ], [ -89.750984371470665, 20.001277553509755 ], [ -89.750842437951434, 20.001315680838598 ], [ -89.750457720746184, 20.001447251290688 ], [ -89.750018411041282, 20.001709653925449 ], [ -89.748987786750376, 20.002607502367379 ], [ -89.748776636358272, 20.002756975363869 ], [ -89.748232442662072, 20.003287274114008 ], [ -89.74808334779641, 20.003611044806107 ], [ -89.747972241833708, 20.004166596665371 ], [ -89.747944278598894, 20.004984403269354 ], [ -89.747937278267202, 20.005189129071312 ], [ -89.747980762918161, 20.005419086054928 ], [ -89.748031758889752, 20.005536948214704 ], [ -89.748198682498739, 20.005823381218541 ], [ -89.748286949520008, 20.00616170850132 ], [ -89.748284760864138, 20.006576860427675 ], [ -89.748296826287742, 20.006881973133751 ], [ -89.748178558091624, 20.007316517160341 ], [ -89.748180318315576, 20.007385788381864 ], [ -89.748186355193766, 20.007623362468941 ], [ -89.748171080102821, 20.008023127921994 ], [ -89.748108259334643, 20.008505362613906 ], [ -89.748026050769894, 20.008738357988328 ], [ -89.747833570036448, 20.008703699397238 ], [ -89.747470889180008, 20.008563461337534 ], [ -89.747048613518331, 20.008328250223656 ], [ -89.746637955799613, 20.007971614243115 ], [ -89.746315608244615, 20.007525637934002 ], [ -89.746193948422857, 20.007166736323068 ], [ -89.745729051200598, 20.007504945773654 ], [ -89.745043187478799, 20.008799396592956 ], [ -89.745135519592694, 20.008940130043925 ], [ -89.74513042122507, 20.009110980600219 ], [ -89.745182603520846, 20.010115486649035 ], [ -89.745142884741469, 20.010527980978672 ], [ -89.745180049958194, 20.010745115729886 ], [ -89.745318227779364, 20.011111688801428 ], [ -89.74551964661093, 20.011241424473518 ], [ -89.745671342718623, 20.011410899986235 ], [ -89.745623547459189, 20.011676717767727 ], [ -89.745513937543848, 20.011861389529798 ], [ -89.745277405399477, 20.012043726579801 ], [ -89.745154652929145, 20.012181484357011 ], [ -89.745080899525604, 20.012680183935128 ], [ -89.745122710412829, 20.013047661035703 ], [ -89.745377432031901, 20.013352380547868 ], [ -89.745728075029135, 20.01345217409478 ], [ -89.746167038313629, 20.013373570868435 ], [ -89.746504484583639, 20.013086409639605 ], [ -89.746636757177086, 20.012828812273355 ], [ -89.746751167423724, 20.01241086810689 ], [ -89.74695792861823, 20.01196128452397 ], [ -89.747289690379233, 20.011607342424266 ], [ -89.747800805675936, 20.011450051548429 ], [ -89.748099424304399, 20.011335525999456 ], [ -89.748342592531998, 20.011173308879215 ], [ -89.748667511624532, 20.010930427431528 ], [ -89.749220580405861, 20.01066938066139 ], [ -89.749786867742785, 20.010573103943663 ], [ -89.750107472445549, 20.010855718374096 ], [ -89.750458914500499, 20.011165514394634 ], [ -89.751076396273888, 20.012697031151589 ], [ -89.750929994738698, 20.012748403304606 ], [ -89.733043868201079, 20.020327531699362 ], [ -89.73217668168104, 20.019327577732906 ], [ -89.730517406426827, 20.019227990547602 ], [ -89.728445031030304, 20.018983709893416 ], [ -89.726901811043874, 20.018359980940158 ], [ -89.725261940360255, 20.018066144102672 ], [ -89.723501186776474, 20.017609067497411 ], [ -89.722303077526306, 20.01688048098389 ], [ -89.721248126513942, 20.016167186847522 ], [ -89.719483030080085, 20.015544133829334 ], [ -89.720045833598647, 20.014783830880845 ], [ -89.719764628027733, 20.012963908091638 ], [ -89.71961964473617, 20.011888005790016 ], [ -89.717623790482605, 20.011353339824552 ], [ -89.715614819908893, 20.010320831709787 ], [ -89.715118178667367, 20.009170094009828 ], [ -89.714654370525821, 20.009263908732802 ], [ -89.712924383491384, 20.009968325252284 ], [ -89.711998948164279, 20.010238910865208 ], [ -89.710620628373121, 20.011018144051803 ], [ -89.708710774931291, 20.011807307081522 ], [ -89.707853028065273, 20.012161723461809 ], [ -89.706232937225877, 20.012614450486371 ], [ -89.705628597925255, 20.011798278547705 ], [ -89.704076988510622, 20.010422951480574 ], [ -89.703270224098731, 20.010773754453368 ], [ -89.700260870737921, 20.011590737141169 ], [ -89.699810135016492, 20.012182326155841 ], [ -89.69864077521629, 20.012043392302111 ], [ -89.696915066627199, 20.012913575584925 ], [ -89.695875276775723, 20.013269738114957 ], [ -89.694617724390099, 20.014212070987465 ], [ -89.690238540470219, 20.016139818573585 ], [ -89.689229161813174, 20.017657496615264 ], [ -89.689145273616617, 20.018904718295055 ], [ -89.687313807939134, 20.020192324218964 ], [ -89.686517828861383, 20.020957879899296 ], [ -89.685583613566678, 20.020896438049402 ], [ -89.683618223446572, 20.021522942907257 ], [ -89.682369219884947, 20.022797040558999 ], [ -89.681238872919721, 20.024151407144984 ], [ -89.680231521430301, 20.025751981036208 ], [ -89.67786529839023, 20.028601099317189 ], [ -89.648259038645989, 19.987583180472001 ] ] ] ] } },
{ "type": "Feature", "properties": { "ID": 11, "ENTIDAD": 4, "MUNICIPIO": 6, "NOMBRE": "HOPELCHEN", "CONTROL": 21, "GEOMETRY1_": null, "ID_2": 377, "ENTIDAD_2": 4, "DISTRITO_F": 1, "DISTRITO_L": 18, "MUNICIPIO_2": 6, "SECCION": 389, "TIPO": 3, "CONTROL_2": 755, "GEOMETRY1__2": null }, "geometry": { "type": "MultiPolygon", "coordinates": [ [ [ [ -89.67786529839023, 20.028601099317189 ], [ -89.680231521430301, 20.025751981036208 ], [ -89.681238872919721, 20.024151407144984 ], [ -89.682369219884947, 20.022797040558999 ], [ -89.683618223446572, 20.021522942907257 ], [ -89.685583613566678, 20.020896438049402 ], [ -89.686517828861383, 20.020957879899296 ], [ -89.687313807939134, 20.020192324218964 ], [ -89.689145273616617, 20.018904718295055 ], [ -89.689229161813174, 20.017657496615264 ], [ -89.690238540470219, 20.016139818573585 ], [ -89.694617724390099, 20.014212070987465 ], [ -89.695875276775723, 20.013269738114957 ], [ -89.696915066627199, 20.012913575584925 ], [ -89.69864077521629, 20.012043392302111 ], [ -89.699810135016492, 20.012182326155841 ], [ -89.700260870737921, 20.011590737141169 ], [ -89.703270224098731, 20.010773754453368 ], [ -89.704076988510622, 20.010422951480574 ], [ -89.705628597925255, 20.011798278547705 ], [ -89.706232937225877, 20.012614450486371 ], [ -89.707853028065273, 20.012161723461809 ], [ -89.708710774931291, 20.011807307081522 ], [ -89.710620628373121, 20.011018144051803 ], [ -89.711998948164279, 20.010238910865208 ], [ -89.712924383491384, 20.009968325252284 ], [ -89.714654370525821, 20.009263908732802 ], [ -89.715118178667367, 20.009170094009828 ], [ -89.715614819908893, 20.010320831709787 ], [ -89.717623790482605, 20.011353339824552 ], [ -89.71961964473617, 20.011888005790016 ], [ -89.719764628027733, 20.012963908091638 ], [ -89.720045833598647, 20.014783830880845 ], [ -89.719483030080085, 20.015544133829334 ], [ -89.721248126513942, 20.016167186847522 ], [ -89.722303077526306, 20.01688048098389 ], [ -89.723501186776474, 20.017609067497411 ], [ -89.725261940360255, 20.018066144102672 ], [ -89.726901811043874, 20.018359980940158 ], [ -89.728445031030304, 20.018983709893416 ], [ -89.730517406426827, 20.019227990547602 ], [ -89.73217668168104, 20.019327577732906 ], [ -89.733043868201079, 20.020327531699362 ], [ -89.750929994738698, 20.012748403304606 ], [ -89.751076396273888, 20.012697031151589 ], [ -89.750458914500499, 20.011165514394634 ], [ -89.750107472445549, 20.010855718374096 ], [ -89.749786867742785, 20.010573103943663 ], [ -89.749220580405861, 20.01066938066139 ], [ -89.748667511624532, 20.010930427431528 ], [ -89.748342592531998, 20.011173308879215 ], [ -89.748099424304399, 20.011335525999456 ], [ -89.747800805675936, 20.011450051548429 ], [ -89.747289690379233, 20.011607342424266 ], [ -89.74695792861823, 20.01196128452397 ], [ -89.746751167423724, 20.01241086810689 ], [ -89.746636757177086, 20.012828812273355 ], [ -89.746504484583639, 20.013086409639605 ], [ -89.746167038313629, 20.013373570868435 ], [ -89.745728075029135, 20.01345217409478 ], [ -89.745377432031901, 20.013352380547868 ], [ -89.745122710412829, 20.013047661035703 ], [ -89.745080899525604, 20.012680183935128 ], [ -89.745154652929145, 20.012181484357011 ], [ -89.745277405399477, 20.012043726579801 ], [ -89.745513937543848, 20.011861389529798 ], [ -89.745623547459189, 20.011676717767727 ], [ -89.745671342718623, 20.011410899986235 ], [ -89.74551964661093, 20.011241424473518 ], [ -89.745318227779364, 20.011111688801428 ], [ -89.745180049958194, 20.010745115729886 ], [ -89.745142884741469, 20.010527980978672 ], [ -89.745182603520846, 20.010115486649035 ], [ -89.74513042122507, 20.009110980600219 ], [ -89.745135519592694, 20.008940130043925 ], [ -89.745043187478799, 20.008799396592956 ], [ -89.745729051200598, 20.007504945773654 ], [ -89.746193948422857, 20.007166736323068 ], [ -89.746315608244615, 20.007525637934002 ], [ -89.746637955799613, 20.007971614243115 ], [ -89.747048613518331, 20.008328250223656 ], [ -89.747470889180008, 20.008563461337534 ], [ -89.747833570036448, 20.008703699397238 ], [ -89.748026050769894, 20.008738357988328 ], [ -89.748108259334643, 20.008505362613906 ], [ -89.748171080102821, 20.008023127921994 ], [ -89.748186355193766, 20.007623362468941 ], [ -89.748180318315576, 20.007385788381864 ], [ -89.748178558091624, 20.007316517160341 ], [ -89.748296826287742, 20.006881973133751 ], [ -89.748284760864138, 20.006576860427675 ], [ -89.748286949520008, 20.00616170850132 ], [ -89.748198682498739, 20.005823381218541 ], [ -89.748031758889752, 20.005536948214704 ], [ -89.747980762918161, 20.005419086054928 ], [ -89.747937278267202, 20.005189129071312 ], [ -89.747944278598894, 20.004984403269354 ], [ -89.747972241833708, 20.004166596665371 ], [ -89.74808334779641, 20.003611044806107 ], [ -89.748232442662072, 20.003287274114008 ], [ -89.748776636358272, 20.002756975363869 ], [ -89.748987786750376, 20.002607502367379 ], [ -89.750018411041282, 20.001709653925449 ], [ -89.750457720746184, 20.001447251290688 ], [ -89.750842437951434, 20.001315680838598 ], [ -89.750984371470665, 20.001277553509755 ], [ -89.752387418069617, 20.000994514761121 ], [ -89.753000166730288, 20.000779237611695 ], [ -89.754193499554347, 20.000241428183894 ], [ -89.755516493975918, 19.999407204626511 ], [ -89.756232320248131, 19.998861184832418 ], [ -89.756282400536094, 19.998862120645079 ], [ -89.782906741013321, 19.999357624546427 ], [ -89.806857501071036, 19.999414566914268 ], [ -89.80679061287131, 19.994302703157359 ], [ -89.779505862112103, 19.994561719783118 ], [ -89.780842384553594, 19.99644651530495 ], [ -89.756849072045497, 19.996224143099067 ], [ -89.756745145269704, 19.993471038289233 ], [ -89.757012530049437, 19.988385506664304 ], [ -89.757065688542923, 19.987383395107457 ], [ -89.648259038645989, 19.987583180472001 ], [ -89.625724207049402, 19.956149902404444 ], [ -89.617748675626572, 19.934172613926066 ], [ -89.717113635207568, 19.933879636753655 ], [ -89.76115329686381, 19.933731954633 ], [ -89.767897172958342, 19.933708372883611 ], [ -89.787124265997008, 19.933639730504428 ], [ -89.808681278852887, 19.933560288043875 ], [ -89.809543448413578, 19.933557056186071 ], [ -89.80996335558342, 19.933555480636858 ], [ -89.833962679762976, 19.933463777448161 ], [ -89.867283474683902, 19.933331064449497 ], [ -89.867612723677993, 19.950843093609294 ], [ -89.947096928446101, 19.951198688628462 ], [ -89.899303110037721, 19.983748205214912 ], [ -89.850493862926427, 20.016959966742288 ], [ -89.85057563373492, 20.032180971562475 ], [ -89.850670795183319, 20.049942839541661 ], [ -89.782926029534892, 20.050427729341077 ], [ -89.780939718038269, 20.050441553408422 ], [ -89.77618950085224, 20.050474522505652 ], [ -89.774185717417183, 20.050488391439007 ], [ -89.770580936441306, 20.0505132840843 ], [ -89.761940446586664, 20.050572650239445 ], [ -89.760056599540107, 20.0505733771476 ], [ -89.756558372040487, 20.050574673600213 ], [ -89.752947841295764, 20.050575938894735 ], [ -89.747821744600444, 20.050577608323405 ], [ -89.730420437300083, 20.050582163890528 ], [ -89.721253985604633, 20.050583873058429 ], [ -89.693739646973356, 20.050586141492303 ], [ -89.67786529839023, 20.028601099317189 ] ] ] ] } },
{ "type": "Feature", "properties": { "ID": 11, "ENTIDAD": 4, "MUNICIPIO": 6, "NOMBRE": "HOPELCHEN", "CONTROL": 21, "GEOMETRY1_": null, "ID_2": 378, "ENTIDAD_2": 4, "DISTRITO_F": 1, "DISTRITO_L": 18, "MUNICIPIO_2": 6, "SECCION": 390, "TIPO": 4, "CONTROL_2": 539, "GEOMETRY1__2": null }, "geometry": { "type": "MultiPolygon", "coordinates": [ [ [ [ -89.833962679762976, 19.933463777448161 ], [ -89.834066523132577, 19.913307596394244 ], [ -89.834100775760362, 19.906641317702647 ], [ -89.834134670588227, 19.900035934057556 ], [ -89.835760112933698, 19.900040623503958 ], [ -89.844735573987734, 19.900066250011491 ], [ -89.867449799844337, 19.900129076051261 ], [ -89.867283474683902, 19.933331064449497 ], [ -89.833962679762976, 19.933463777448161 ] ] ] ] } },
{ "type": "Feature", "properties": { "ID": 11, "ENTIDAD": 4, "MUNICIPIO": 6, "NOMBRE": "HOPELCHEN", "CONTROL": 21, "GEOMETRY1_": null, "ID_2": 379, "ENTIDAD_2": 4, "DISTRITO_F": 1, "DISTRITO_L": 18, "MUNICIPIO_2": 6, "SECCION": 391, "TIPO": 4, "CONTROL_2": 506, "GEOMETRY1__2": null }, "geometry": { "type": "MultiPolygon", "coordinates": [ [ [ [ -90.02368175281633, 19.898982256102922 ], [ -89.960022659489155, 19.942390873397724 ], [ -89.958263234373064, 19.943589897763108 ], [ -89.958129599084245, 19.943680966831813 ], [ -89.947096928446101, 19.951198688628462 ], [ -89.867612723677993, 19.950843093609294 ], [ -89.867283474683902, 19.933331064449497 ], [ -89.867449799844337, 19.900129076051261 ], [ -89.867290094655786, 19.850410842524724 ], [ -89.867250833868567, 19.843374955994239 ], [ -89.86707215659905, 19.811452290282347 ], [ -89.867044309873094, 19.806491525615336 ], [ -89.867011266265365, 19.800609950617361 ], [ -89.872905347870315, 19.800542487227297 ], [ -89.882037542787415, 19.800437574795438 ], [ -89.917532450272574, 19.800025349671465 ], [ -89.999958360180827, 19.799831530135105 ], [ -90.000057891208314, 19.83336836576575 ], [ -90.025790171810016, 19.833531293617281 ], [ -90.066498715699936, 19.833781455801489 ], [ -90.02368175281633, 19.898982256102922 ] ] ] ] } },
{ "type": "Feature", "properties": { "ID": 11, "ENTIDAD": 4, "MUNICIPIO": 6, "NOMBRE": "HOPELCHEN", "CONTROL": 21, "GEOMETRY1_": null, "ID_2": 380, "ENTIDAD_2": 4, "DISTRITO_F": 1, "DISTRITO_L": 18, "MUNICIPIO_2": 6, "SECCION": 392, "TIPO": 4, "CONTROL_2": 538, "GEOMETRY1__2": null }, "geometry": { "type": "MultiPolygon", "coordinates": [ [ [ [ -89.867449799844337, 19.900129076051261 ], [ -89.844735573987734, 19.900066250011491 ], [ -89.835760112933698, 19.900040623503958 ], [ -89.834134670588227, 19.900035934057556 ], [ -89.834100775760362, 19.906641317702647 ], [ -89.834066523132577, 19.913307596394244 ], [ -89.833962679762976, 19.933463777448161 ], [ -89.80996335558342, 19.933555480636858 ], [ -89.809543448413578, 19.933557056186071 ], [ -89.808681278852887, 19.933560288043875 ], [ -89.787124265997008, 19.933639730504428 ], [ -89.767897172958342, 19.933708372883611 ], [ -89.76115329686381, 19.933731954633 ], [ -89.717113635207568, 19.933879636753655 ], [ -89.717085545326498, 19.921289285240096 ], [ -89.716960134144514, 19.865893657786248 ], [ -89.716954252982759, 19.863327445553431 ], [ -89.716886142018922, 19.83380899335619 ], [ -89.750183938607506, 19.833922183218537 ], [ -89.750496902921881, 19.850436870318337 ], [ -89.824567916168263, 19.850429260772163 ], [ -89.867290094655786, 19.850410842524724 ], [ -89.867449799844337, 19.900129076051261 ] ] ] ] } },
{ "type": "Feature", "properties": { "ID": 11, "ENTIDAD": 4, "MUNICIPIO": 6, "NOMBRE": "HOPELCHEN", "CONTROL": 21, "GEOMETRY1_": null, "ID_2": 381, "ENTIDAD_2": 4, "DISTRITO_F": 1, "DISTRITO_L": 18, "MUNICIPIO_2": 6, "SECCION": 393, "TIPO": 4, "CONTROL_2": 541, "GEOMETRY1__2": null }, "geometry": { "type": "MultiPolygon", "coordinates": [ [ [ [ -89.604263764123971, 19.900136564491092 ], [ -89.602986307018725, 19.896493628642578 ], [ -89.567913874435519, 19.875581610425339 ], [ -89.507704324713259, 19.791561268613897 ], [ -89.506737239445485, 19.79087666012629 ], [ -89.507308138779351, 19.787638953578846 ], [ -89.506952596435852, 19.78573150873164 ], [ -89.506482099243044, 19.784239273942546 ], [ -89.50670893115209, 19.782496121972024 ], [ -89.506820238108673, 19.781002227953579 ], [ -89.506816025021735, 19.779757592775482 ], [ -89.506698819559134, 19.779508997562068 ], [ -89.505534675608828, 19.779346365216416 ], [ -89.504720728556507, 19.779514635045139 ], [ -89.503091715120661, 19.779519261181409 ], [ -89.502160294323375, 19.779355947346307 ], [ -89.501460761094918, 19.778943045968692 ], [ -89.501110854773103, 19.778695106593354 ], [ -89.500060309889221, 19.777702359776754 ], [ -89.500059754692643, 19.777536409423305 ], [ -89.499125024773775, 19.776377380624162 ], [ -89.498424124308698, 19.775549594613512 ], [ -89.497256433150056, 19.774308239094271 ], [ -89.497021791688894, 19.773728067511524 ], [ -89.496319808507693, 19.77256837676466 ], [ -89.495968544415931, 19.771905555988699 ], [ -89.495733909965935, 19.771325383832135 ], [ -89.495615351832527, 19.77066191075437 ], [ -89.495379892317445, 19.769832813929469 ], [ -89.495026706355205, 19.768589168689122 ], [ -89.49478711477586, 19.766515449184496 ], [ -89.494317038504889, 19.765106180361045 ], [ -89.493497656824971, 19.763614913136095 ], [ -89.492909876208074, 19.761791095104108 ], [ -89.493021538891256, 19.760380199055476 ], [ -89.492784447082741, 19.759053253906284 ], [ -89.492428262502855, 19.756896886944471 ], [ -89.491956019300275, 19.754823820448767 ], [ -89.490312966484552, 19.750513685917259 ], [ -89.583638420369198, 19.750598955550242 ], [ -89.589360133246984, 19.750602598889845 ], [ -89.794143228583309, 19.750612173710319 ], [ -89.795417089952565, 19.750611498245977 ], [ -89.798101242410851, 19.75061004522767 ], [ -89.799498729684657, 19.750609272750786 ], [ -89.804119870040722, 19.750606640484996 ], [ -89.802160834451087, 19.754267524120625 ], [ -89.800420504126237, 19.755271400980789 ], [ -89.798330604669189, 19.756193835984963 ], [ -89.795773897753079, 19.756869345662373 ], [ -89.793333546476518, 19.757544294048422 ], [ -89.79205517884418, 19.757882015048921 ], [ -89.790079003794517, 19.758305841019126 ], [ -89.787404587710711, 19.758732751072152 ], [ -89.784730163420221, 19.759159619049147 ], [ -89.781941485909385, 19.760001939476354 ], [ -89.779619549703256, 19.761091151000461 ], [ -89.776838429121582, 19.763427305791943 ], [ -89.774871018829984, 19.765593854612739 ], [ -89.772668699019462, 19.767346411358506 ], [ -89.771738521843361, 19.767516457054445 ], [ -89.770104134229953, 19.773823429083414 ], [ -89.770144618612662, 19.775657855031863 ], [ -89.770182218668111, 19.777361716404268 ], [ -89.770491526670725, 19.780550495460531 ], [ -89.771178623234889, 19.783533890959639 ], [ -89.771279527754885, 19.785940790830697 ], [ -89.771585994517309, 19.789270994282983 ], [ -89.770907018950226, 19.793290755521166 ], [ -89.769508052224964, 19.795953472275048 ], [ -89.767460956480264, 19.79740190398546 ], [ -89.765577541485825, 19.798145901525963 ], [ -89.763172587392361, 19.798809684503819 ], [ -89.761070746100643, 19.799266721542285 ], [ -89.759209793141778, 19.799193522788052 ], [ -89.754797173387132, 19.799146891023554 ], [ -89.751178863326771, 19.799226036729905 ], [ -89.750183938607506, 19.833922183218537 ], [ -89.716886142018922, 19.83380899335619 ], [ -89.716954252982759, 19.863327445553431 ], [ -89.716960134144514, 19.865893657786248 ], [ -89.717085545326498, 19.921289285240096 ], [ -89.717113635207568, 19.933879636753655 ], [ -89.617748675626572, 19.934172613926066 ], [ -89.604263764123971, 19.900136564491092 ] ] ] ] } },
{ "type": "Feature", "properties": { "ID": 11, "ENTIDAD": 4, "MUNICIPIO": 6, "NOMBRE": "HOPELCHEN", "CONTROL": 21, "GEOMETRY1_": null, "ID_2": 382, "ENTIDAD_2": 4, "DISTRITO_F": 1, "DISTRITO_L": 18, "MUNICIPIO_2": 6, "SECCION": 394, "TIPO": 4, "CONTROL_2": 505, "GEOMETRY1__2": null }, "geometry": { "type": "MultiPolygon", "coordinates": [ [ [ [ -90.000797043633881, 19.749603506100303 ], [ -89.999958360180827, 19.799831530135105 ], [ -89.917532450272574, 19.800025349671465 ], [ -89.91719609737909, 19.759443370527393 ], [ -89.917118794686886, 19.750139798937251 ], [ -89.917318471854514, 19.727189891122421 ], [ -89.968988180800565, 19.727688383599205 ], [ -90.000651283856442, 19.727986488207119 ], [ -90.000797043633881, 19.749603506100303 ] ] ] ] } },
{ "type": "Feature", "properties": { "ID": 11, "ENTIDAD": 4, "MUNICIPIO": 6, "NOMBRE": "HOPELCHEN", "CONTROL": 21, "GEOMETRY1_": null, "ID_2": 383, "ENTIDAD_2": 4, "DISTRITO_F": 1, "DISTRITO_L": 18, "MUNICIPIO_2": 6, "SECCION": 395, "TIPO": 4, "CONTROL_2": 357, "GEOMETRY1__2": null }, "geometry": { "type": "MultiPolygon", "coordinates": [ [ [ [ -90.050990907945632, 19.713625661430495 ], [ -90.057828484633319, 19.729880473738277 ], [ -90.098875473034227, 19.784432250581478 ], [ -90.094066230031416, 19.791765183867252 ], [ -90.066498715699936, 19.833781455801489 ], [ -90.025790171810016, 19.833531293617281 ], [ -90.000057891208314, 19.83336836576575 ], [ -89.999958360180827, 19.799831530135105 ], [ -90.000797043633881, 19.749603506100303 ], [ -90.000651283856442, 19.727986488207119 ], [ -90.000581668913114, 19.717682287521498 ], [ -90.000471868454881, 19.701456194722446 ], [ -90.000243014358588, 19.667739102847193 ], [ -90.031651133034998, 19.667633812856959 ], [ -90.050990907945632, 19.713625661430495 ] ] ] ] } },
{ "type": "Feature", "properties": { "ID": 11, "ENTIDAD": 4, "MUNICIPIO": 6, "NOMBRE": "HOPELCHEN", "CONTROL": 21, "GEOMETRY1_": null, "ID_2": 388, "ENTIDAD_2": 4, "DISTRITO_F": 1, "DISTRITO_L": 18, "MUNICIPIO_2": 6, "SECCION": 400, "TIPO": 3, "CONTROL_2": 577, "GEOMETRY1__2": null }, "geometry": { "type": "MultiPolygon", "coordinates": [ [ [ [ -89.489768988010042, 19.743437505715072 ], [ -89.490814031874905, 19.741044546156857 ], [ -89.457087272009389, 19.681931026831776 ], [ -89.455491287218834, 19.679132679329875 ], [ -89.402177928205106, 19.642304055452914 ], [ -89.294154625460877, 19.500823176563266 ], [ -89.333349299567999, 19.500864674965808 ], [ -89.371449337547389, 19.50089684711017 ], [ -89.525258456744666, 19.500944903480427 ], [ -89.528119250049286, 19.50094448539858 ], [ -89.532815835049746, 19.500943882012166 ], [ -89.616159047622403, 19.501034601567909 ], [ -89.629021283933795, 19.501045437036183 ], [ -89.633287223932015, 19.501055801743082 ], [ -89.678964626037043, 19.501160465227134 ], [ -89.67894375053254, 19.506435886225084 ], [ -89.678860017990175, 19.527503979395171 ], [ -89.716326551046748, 19.527853475476181 ], [ -89.716891336538112, 19.610712027571807 ], [ -89.631042276350811, 19.609238565110672 ], [ -89.583486195498253, 19.609458489686116 ], [ -89.583638420369198, 19.750598955550242 ], [ -89.490312966484552, 19.750513685917259 ], [ -89.489768988010042, 19.743437505715072 ] ], [ [ -89.607608375154058, 19.578680211799849 ], [ -89.607892473591704, 19.577646218881856 ], [ -89.606844464691463, 19.577394426559486 ], [ -89.607139177682669, 19.576322893000103 ], [ -89.607532215500711, 19.576409298926901 ], [ -89.607749920905334, 19.575386295142096 ], [ -89.607969498720834, 19.574343874866951 ], [ -89.608185878391538, 19.573316618502638 ], [ -89.606932006937711, 19.572986652815693 ], [ -89.607140959352293, 19.572019501662233 ], [ -89.606227538799445, 19.57174487849452 ], [ -89.606898646042623, 19.569560378767818 ], [ -89.607632389572117, 19.569823794225908 ], [ -89.608626627105323, 19.568536886372566 ], [ -89.607112526911081, 19.568105721474318 ], [ -89.604097045991836, 19.567190006744553 ], [ -89.603728932765506, 19.568620513004571 ], [ -89.602879560927079, 19.568045591250453 ], [ -89.601917669723207, 19.567538675030011 ], [ -89.601152983642507, 19.569386701776985 ], [ -89.600923382291896, 19.570463537773978 ], [ -89.600635476562061, 19.571509511518972 ], [ -89.599539364538273, 19.571263083838037 ], [ -89.59923845550594, 19.572295855355364 ], [ -89.598930900598432, 19.573337895894898 ], [ -89.598644559912699, 19.574326582226032 ], [ -89.598329119664243, 19.575381741565842 ], [ -89.597284093628318, 19.57510810311474 ], [ -89.596723580798027, 19.577246098564782 ], [ -89.597742787843714, 19.577475620661389 ], [ -89.598786411782882, 19.577719249145176 ], [ -89.59988747560476, 19.57796941158924 ], [ -89.600910042884294, 19.578193861945351 ], [ -89.601975063551379, 19.578440258378784 ], [ -89.603012905667555, 19.578683750287496 ], [ -89.604073586686127, 19.578938593990468 ], [ -89.605157406368932, 19.579188401960902 ], [ -89.606235366027178, 19.579443557157319 ], [ -89.607278379957592, 19.579686814895787 ], [ -89.607608375154058, 19.578680211799849 ] ] ] ] } },
{ "type": "Feature", "properties": { "ID": 11, "ENTIDAD": 4, "MUNICIPIO": 6, "NOMBRE": "HOPELCHEN", "CONTROL": 21, "GEOMETRY1_": null, "ID_2": 389, "ENTIDAD_2": 4, "DISTRITO_F": 1, "DISTRITO_L": 18, "MUNICIPIO_2": 6, "SECCION": 401, "TIPO": 2, "CONTROL_2": 785, "GEOMETRY1__2": null }, "geometry": { "type": "MultiPolygon", "coordinates": [ [ [ [ -89.606235366027178, 19.579443557157319 ], [ -89.605157406368932, 19.579188401960902 ], [ -89.604073586686127, 19.578938593990468 ], [ -89.603012905667555, 19.578683750287496 ], [ -89.601975063551379, 19.578440258378784 ], [ -89.600910042884294, 19.578193861945351 ], [ -89.59988747560476, 19.57796941158924 ], [ -89.598786411782882, 19.577719249145176 ], [ -89.597742787843714, 19.577475620661389 ], [ -89.596723580798027, 19.577246098564782 ], [ -89.597284093628318, 19.57510810311474 ], [ -89.598329119664243, 19.575381741565842 ], [ -89.598644559912699, 19.574326582226032 ], [ -89.598930900598432, 19.573337895894898 ], [ -89.59923845550594, 19.572295855355364 ], [ -89.599539364538273, 19.571263083838037 ], [ -89.600635476562061, 19.571509511518972 ], [ -89.600923382291896, 19.570463537773978 ], [ -89.601152983642507, 19.569386701776985 ], [ -89.601917669723207, 19.567538675030011 ], [ -89.602879560927079, 19.568045591250453 ], [ -89.603728932765506, 19.568620513004571 ], [ -89.604097045991836, 19.567190006744553 ], [ -89.607112526911081, 19.568105721474318 ], [ -89.608626627105323, 19.568536886372566 ], [ -89.607632389572117, 19.569823794225908 ], [ -89.606898646042623, 19.569560378767818 ], [ -89.606227538799445, 19.57174487849452 ], [ -89.607140959352293, 19.572019501662233 ], [ -89.606932006937711, 19.572986652815693 ], [ -89.608185878391538, 19.573316618502638 ], [ -89.607969498720834, 19.574343874866951 ], [ -89.607749920905334, 19.575386295142096 ], [ -89.607532215500683, 19.576409298926901 ], [ -89.607139177682669, 19.576322893000103 ], [ -89.606844464691463, 19.577394426559486 ], [ -89.607892473591704, 19.577646218881856 ], [ -89.607608375154058, 19.578680211799849 ], [ -89.607278379957592, 19.579686814895787 ], [ -89.606235366027178, 19.579443557157319 ] ] ] ] } },
{ "type": "Feature", "properties": { "ID": 11, "ENTIDAD": 4, "MUNICIPIO": 6, "NOMBRE": "HOPELCHEN", "CONTROL": 21, "GEOMETRY1_": null, "ID_2": 390, "ENTIDAD_2": 4, "DISTRITO_F": 1, "DISTRITO_L": 18, "MUNICIPIO_2": 6, "SECCION": 402, "TIPO": 4, "CONTROL_2": 536, "GEOMETRY1__2": null }, "geometry": { "type": "MultiPolygon", "coordinates": [ [ [ [ -89.836270504311273, 19.56392050336391 ], [ -89.818985306950466, 19.565813136082493 ], [ -89.809499618705971, 19.569170491384927 ], [ -89.807267655992987, 19.570281856127291 ], [ -89.805660976974977, 19.57123626670456 ], [ -89.805384200100704, 19.571400676834472 ], [ -89.802791328965881, 19.573083859490673 ], [ -89.800087511211856, 19.574516196489519 ], [ -89.798790151816149, 19.575399131074452 ], [ -89.797610722500963, 19.576201788965072 ], [ -89.796904822781627, 19.576600612511523 ], [ -89.796080975115075, 19.577079696939755 ], [ -89.795144469936972, 19.577390740789308 ], [ -89.79493219263631, 19.577420960859417 ], [ -89.793628820215659, 19.577606493227048 ], [ -89.791312263445775, 19.577225331460955 ], [ -89.789687502439577, 19.577107480292693 ], [ -89.788876007357459, 19.577007166334553 ], [ -89.787034808040943, 19.576139384687995 ], [ -89.785313347286973, 19.575108564750078 ], [ -89.783704548129435, 19.574245772706103 ], [ -89.782331662095629, 19.573222459710259 ], [ -89.782055985882479, 19.573033838228469 ], [ -89.78095702312531, 19.572281903988465 ], [ -89.780610291360645, 19.572191525784984 ], [ -89.780263510473361, 19.572101301668134 ], [ -89.77910175414172, 19.572076176461682 ], [ -89.778417243022361, 19.572649129189138 ], [ -89.776498016686702, 19.574255530100658 ], [ -89.776371198917829, 19.574749605195713 ], [ -89.775189912459467, 19.575634865970233 ], [ -89.773899535109635, 19.576186541358261 ], [ -89.772031811467897, 19.576560088335704 ], [ -89.76969048457272, 19.577337359585215 ], [ -89.768171279259903, 19.577718421391676 ], [ -89.766884425514064, 19.578104512223469 ], [ -89.765481388376713, 19.578488070686596 ], [ -89.764895156644059, 19.578723750198918 ], [ -89.763476086823005, 19.579852166564191 ], [ -89.760879160921078, 19.581700190150784 ], [ -89.759224110729249, 19.582989040370304 ], [ -89.756743271876147, 19.584839516527126 ], [ -89.755204341393494, 19.586130848762505 ], [ -89.754718182300437, 19.587113886326563 ], [ -89.753758348689317, 19.588500613836629 ], [ -89.752676951231294, 19.590133090655243 ], [ -89.75195302737302, 19.591359341064329 ], [ -89.750853706972237, 19.593819428238199 ], [ -89.750354971916266, 19.595381784738908 ], [ -89.749977782075518, 19.59669838469453 ], [ -89.750279838509428, 19.598857814731986 ], [ -89.750126073544791, 19.600593294697799 ], [ -89.751720577126335, 19.602118498399953 ], [ -89.756026906425632, 19.601881137983025 ], [ -89.758005780904739, 19.601758624224981 ], [ -89.760408396671536, 19.603549758886508 ], [ -89.763808843592656, 19.6108016348999 ], [ -89.716891336538097, 19.610712027571807 ], [ -89.716326551046748, 19.527853475476181 ], [ -89.733366135313872, 19.528320326299699 ], [ -89.733081156251828, 19.517798090097362 ], [ -89.727372830825189, 19.517601670727093 ], [ -89.726263288792282, 19.517597414233709 ], [ -89.716828681147533, 19.51756094495861 ], [ -89.716730940699421, 19.500667590310066 ], [ -89.726236168324775, 19.500693523024498 ], [ -89.734874095342519, 19.500716659275572 ], [ -89.758977793454903, 19.500779019970178 ], [ -89.764872155560909, 19.500793780998617 ], [ -89.764960500211771, 19.500794000773386 ], [ -89.765304256854492, 19.500794855524358 ], [ -89.77828742784375, 19.500826659085053 ], [ -89.793933066664948, 19.500863744182791 ], [ -89.83336729304267, 19.500951200695845 ], [ -89.836270504311273, 19.56392050336391 ] ] ] ] } },
{ "type": "Feature", "properties": { "ID": 11, "ENTIDAD": 4, "MUNICIPIO": 6, "NOMBRE": "HOPELCHEN", "CONTROL": 21, "GEOMETRY1_": null, "ID_2": 391, "ENTIDAD_2": 4, "DISTRITO_F": 1, "DISTRITO_L": 18, "MUNICIPIO_2": 6, "SECCION": 403, "TIPO": 3, "CONTROL_2": 941, "GEOMETRY1__2": null }, "geometry": { "type": "MultiPolygon", "coordinates": [ [ [ [ -89.693973938721399, 19.06313258380203 ], [ -89.719885478113525, 19.063698394487798 ], [ -89.772274462603889, 19.064831248855519 ], [ -89.777548976247388, 19.031832917423742 ], [ -89.889666073164705, 19.026645533659096 ], [ -89.929821725538687, 19.024767267250166 ], [ -89.929661375195849, 19.028661218354024 ], [ -89.92267194364662, 19.201175408988753 ], [ -89.762551985614309, 19.201199231963777 ], [ -89.769945557959545, 19.213959441677432 ], [ -89.773379211992918, 19.219884730655355 ], [ -89.773984611397864, 19.220929177365925 ], [ -89.79125603085015, 19.250720706932185 ], [ -89.783367241769923, 19.250637431829091 ], [ -89.783259307638559, 19.35212889548853 ], [ -89.783228143293613, 19.379774410430961 ], [ -89.783203308589947, 19.401339531542085 ], [ -89.76091982550416, 19.400859503612136 ], [ -89.75024448073097, 19.400628568494884 ], [ -89.750162889561054, 19.421458444282397 ], [ -89.750147373392196, 19.425406751854744 ], [ -89.750049813697501, 19.45013891030591 ], [ -89.750048624482844, 19.450439400115414 ], [ -89.750033408724732, 19.454282025562978 ], [ -89.750013367142145, 19.459337503541761 ], [ -89.749987836467298, 19.465767969825738 ], [ -89.749981890184429, 19.467264128436931 ], [ -89.74996963626748, 19.470345530949288 ], [ -89.749956467708529, 19.473654182571593 ], [ -89.75105528443963, 19.476576127786835 ], [ -89.751350277191776, 19.479066605235303 ], [ -89.751302283074082, 19.481301227445488 ], [ -89.752994142976377, 19.483656430516554 ], [ -89.755507707625227, 19.485615440566058 ], [ -89.75721564705394, 19.487225740668261 ], [ -89.758344826773026, 19.488740677219145 ], [ -89.760288604307362, 19.490190463337409 ], [ -89.761907121143395, 19.490556747091741 ], [ -89.763868678203977, 19.491178855090507 ], [ -89.764999719994663, 19.492610997511367 ], [ -89.765537788168444, 19.494609922055858 ], [ -89.765304256854492, 19.500794855524358 ], [ -89.764960500211771, 19.500794000773386 ], [ -89.764872155560909, 19.500793780998617 ], [ -89.758977793454903, 19.500779019970178 ], [ -89.734874095342519, 19.500716659275572 ], [ -89.726236168324775, 19.500693523024498 ], [ -89.716730940699421, 19.500667590310066 ], [ -89.716828681147533, 19.51756094495861 ], [ -89.726263288792282, 19.517597414233709 ], [ -89.727372830825189, 19.517601670727093 ], [ -89.733081156251828, 19.517798090097362 ], [ -89.733366135313872, 19.528320326299699 ], [ -89.716326551046748, 19.527853475476181 ], [ -89.678860017990175, 19.527503979395171 ], [ -89.67894375053254, 19.506435886225084 ], [ -89.678964626037043, 19.501160465227134 ], [ -89.684946258403841, 19.498560418242334 ], [ -89.68648470802043, 19.497269636304914 ], [ -89.68814467735001, 19.495733126003078 ], [ -89.689086427045581, 19.494786475237781 ], [ -89.69040145011023, 19.493464578818017 ], [ -89.692306219663408, 19.491353830637014 ], [ -89.693264009373479, 19.490050169666798 ], [ -89.694105676894395, 19.488743942360404 ], [ -89.695542307818371, 19.486788426759919 ], [ -89.697329018113038, 19.484757804675542 ], [ -89.699222763358193, 19.483143509987613 ], [ -89.701237982552186, 19.481283464570595 ], [ -89.704312470599618, 19.478784276222616 ], [ -89.708310258849778, 19.476553692098044 ], [ -89.710187622897621, 19.475684094689477 ], [ -89.711246890261336, 19.475044932886078 ], [ -89.723227057602799, 19.47598936730456 ], [ -89.729717298659097, 19.476500673501416 ], [ -89.731870332299621, 19.47667024127831 ], [ -89.731737477152436, 19.466693711108821 ], [ -89.731930992892771, 19.465811136528664 ], [ -89.731880980179724, 19.46482541358025 ], [ -89.731862454878708, 19.464460291895247 ], [ -89.731758145324832, 19.462404435964004 ], [ -89.731737805553465, 19.461952117937255 ], [ -89.731681113765006, 19.461259219309863 ], [ -89.731633673857303, 19.460683492021928 ], [ -89.731554850868037, 19.45992898608284 ], [ -89.731462555778251, 19.459838046286599 ], [ -89.731413032294611, 19.45877924490949 ], [ -89.731376098966891, 19.457989624780996 ], [ -89.73126218571916, 19.457803441020253 ], [ -89.731212206498157, 19.456775885111927 ], [ -89.731153263019252, 19.455608676393002 ], [ -89.731079477654674, 19.454301709230553 ], [ -89.731032914328367, 19.453683865179286 ], [ -89.731049258101379, 19.453507790890111 ], [ -89.731063670751183, 19.452620067215523 ], [ -89.730858341309926, 19.449186787635881 ], [ -89.711251997849388, 19.448052250022876 ], [ -89.710846916729651, 19.445310971421321 ], [ -89.710561506424284, 19.442406715350202 ], [ -89.710849285055531, 19.439846218754518 ], [ -89.711583396117604, 19.438123498241453 ], [ -89.712292382473635, 19.437559425106322 ], [ -89.712906808569244, 19.435999675298916 ], [ -89.711537278336252, 19.434893282310128 ], [ -89.709696314749877, 19.434107752356919 ], [ -89.708558960096326, 19.433006428201676 ], [ -89.707659140619114, 19.431661906041167 ], [ -89.706870014393374, 19.430568207650495 ], [ -89.705979199399778, 19.4288098784941 ], [ -89.704745599876176, 19.426795629734823 ], [ -89.703631682908807, 19.424618402218677 ], [ -89.702642836141507, 19.422029917114838 ], [ -89.701991406103929, 19.41994563202973 ], [ -89.701555928429983, 19.418611281930197 ], [ -89.700890141645687, 19.417189077487009 ], [ -89.699876200568426, 19.415759229704026 ], [ -89.698856882056631, 19.414577658654437 ], [ -89.69794463861156, 19.413812432141778 ], [ -89.697157450099354, 19.412635951984395 ], [ -89.696426501590736, 19.411543504924431 ], [ -89.695695562161958, 19.410451056245154 ], [ -89.694347948262774, 19.408351462134618 ], [ -89.692993170948895, 19.406582901961848 ], [ -89.691984758956949, 19.404904749957225 ], [ -89.690997976766795, 19.402233481882863 ], [ -89.690225294425488, 19.400394910760369 ], [ -89.689793546029776, 19.398895033074698 ], [ -89.689310646340076, 19.397647621159788 ], [ -89.689243961737006, 19.397475362253143 ], [ -89.688607168773501, 19.394728989451711 ], [ -89.688077419544356, 19.392398965985286 ], [ -89.687549481697758, 19.389986183441646 ], [ -89.68702155386211, 19.387573401130862 ], [ -89.686470215391537, 19.386236488822668 ], [ -89.686033113885486, 19.384984888414216 ], [ -89.68528937104729, 19.381822167280234 ], [ -89.684525826002059, 19.379569796631657 ], [ -89.684001556757494, 19.376991496629699 ], [ -89.682616464329328, 19.376629811599653 ], [ -89.682938325593057, 19.336049687229519 ], [ -89.682943828250785, 19.335353917943138 ], [ -89.682949330375223, 19.334658148605474 ], [ -89.685911914129306, 19.334592026592837 ], [ -89.688638418236195, 19.334531130775606 ], [ -89.690786085570451, 19.334483134204628 ], [ -89.701642673575236, 19.334240118410101 ], [ -89.709799984500847, 19.321915512876128 ], [ -89.711094043199097, 19.317507385831487 ], [ -89.71318114308545, 19.310397142954596 ], [ -89.71623904629422, 19.30309446621547 ], [ -89.716977590648199, 19.301123316301553 ], [ -89.684100825236825, 19.301168464668208 ], [ -89.667084215050238, 19.301189500240785 ], [ -89.666550582816356, 19.251084823692604 ], [ -89.666438625861048, 19.201146192271182 ], [ -89.666666631989784, 19.061919875589084 ], [ -89.693973938721399, 19.06313258380203 ] ] ] ] } },
{ "type": "Feature", "properties": { "ID": 11, "ENTIDAD": 4, "MUNICIPIO": 6, "NOMBRE": "HOPELCHEN", "CONTROL": 21, "GEOMETRY1_": null, "ID_2": 392, "ENTIDAD_2": 4, "DISTRITO_F": 1, "DISTRITO_L": 18, "MUNICIPIO_2": 6, "SECCION": 404, "TIPO": 3, "CONTROL_2": 502, "GEOMETRY1__2": null }, "geometry": { "type": "MultiPolygon", "coordinates": [ [ [ [ -89.616159047622403, 19.501034601567909 ], [ -89.532815835049746, 19.500943882012166 ], [ -89.532312017821511, 19.412550141759958 ], [ -89.599875100101229, 19.411559864007128 ], [ -89.599863288674115, 19.369152370864782 ], [ -89.599862609880773, 19.345319598944105 ], [ -89.599862111304077, 19.33455139098719 ], [ -89.608993548407071, 19.334564981377458 ], [ -89.663888363677046, 19.334637014202627 ], [ -89.671798249278581, 19.334646027122357 ], [ -89.674588986496516, 19.334649124891147 ], [ -89.675236067900244, 19.334649837044701 ], [ -89.676436436870944, 19.334651152026041 ], [ -89.679216976784446, 19.334654167609571 ], [ -89.682949330375223, 19.334658148605474 ], [ -89.682943828250785, 19.335353917943138 ], [ -89.682938325593057, 19.336049687229519 ], [ -89.682616464329328, 19.376629811599653 ], [ -89.684001556757494, 19.376991496629699 ], [ -89.684525826002059, 19.379569796631657 ], [ -89.68528937104729, 19.381822167280234 ], [ -89.686033113885486, 19.384984888414216 ], [ -89.686470215391537, 19.386236488822668 ], [ -89.68702155386211, 19.387573401130862 ], [ -89.687549481697758, 19.389986183441646 ], [ -89.688077419544356, 19.392398965985286 ], [ -89.688607168773501, 19.394728989451711 ], [ -89.689243961737006, 19.397475362253143 ], [ -89.689310646340076, 19.397647621159788 ], [ -89.689793546029776, 19.398895033074698 ], [ -89.690225294425488, 19.400394910760369 ], [ -89.690997976766795, 19.402233481882863 ], [ -89.691984758956949, 19.404904749957225 ], [ -89.692993170948895, 19.406582901961848 ], [ -89.694347948262774, 19.408351462134618 ], [ -89.695695562161958, 19.410451056245154 ], [ -89.696426501590736, 19.411543504924431 ], [ -89.697157450099354, 19.412635951984395 ], [ -89.69794463861156, 19.413812432141778 ], [ -89.698856882056631, 19.414577658654437 ], [ -89.699876200568426, 19.415759229704026 ], [ -89.700890141645687, 19.417189077487009 ], [ -89.701555928429983, 19.418611281930197 ], [ -89.701991406103929, 19.41994563202973 ], [ -89.702642836141507, 19.422029917114838 ], [ -89.703631682908807, 19.424618402218677 ], [ -89.704745599876176, 19.426795629734823 ], [ -89.705979199399778, 19.4288098784941 ], [ -89.706870014393374, 19.430568207650495 ], [ -89.707659140619114, 19.431661906041167 ], [ -89.708558960096326, 19.433006428201676 ], [ -89.709696314749877, 19.434107752356919 ], [ -89.711537278336252, 19.434893282310128 ], [ -89.712906808569244, 19.435999675298916 ], [ -89.712292382473635, 19.437559425106322 ], [ -89.711583396117604, 19.438123498241453 ], [ -89.710849285055531, 19.439846218754518 ], [ -89.710561506424284, 19.442406715350202 ], [ -89.710846916729651, 19.445310971421321 ], [ -89.711251997849388, 19.448052250022876 ], [ -89.730858341309926, 19.449186787635881 ], [ -89.731063670751183, 19.452620067215523 ], [ -89.731049258101379, 19.453507790890111 ], [ -89.731032914328367, 19.453683865179286 ], [ -89.731079477654674, 19.454301709230553 ], [ -89.731153263019252, 19.455608676393002 ], [ -89.731212206498157, 19.456775885111927 ], [ -89.73126218571916, 19.457803441020253 ], [ -89.731376098966891, 19.457989624780996 ], [ -89.731413032294611, 19.45877924490949 ], [ -89.731462555778251, 19.459838046286599 ], [ -89.731554850868037, 19.45992898608284 ], [ -89.731633673857303, 19.460683492021928 ], [ -89.731681113765006, 19.461259219309863 ], [ -89.731737805553465, 19.461952117937255 ], [ -89.731758145324832, 19.462404435964004 ], [ -89.731862454878708, 19.464460291895247 ], [ -89.731880980179724, 19.46482541358025 ], [ -89.731930992892771, 19.465811136528664 ], [ -89.731737477152436, 19.466693711108821 ], [ -89.731870332299621, 19.47667024127831 ], [ -89.729717298659097, 19.476500673501416 ], [ -89.723227057602799, 19.47598936730456 ], [ -89.711246890261336, 19.475044932886078 ], [ -89.710187622897621, 19.475684094689477 ], [ -89.708310258849778, 19.476553692098044 ], [ -89.704312470599618, 19.478784276222616 ], [ -89.701237982552172, 19.481283464570595 ], [ -89.699222763358193, 19.483143509987613 ], [ -89.697329018113038, 19.484757804675542 ], [ -89.695542307818357, 19.486788426760011 ], [ -89.694105676894409, 19.488743942360404 ], [ -89.693264009373479, 19.490050169666798 ], [ -89.692306219663408, 19.491353830637014 ], [ -89.69040145011023, 19.493464578818017 ], [ -89.689086427045581, 19.494786475237781 ], [ -89.68814467735001, 19.495733126003078 ], [ -89.68648470802043, 19.497269636304914 ], [ -89.684946258403841, 19.498560418242334 ], [ -89.678964626037043, 19.501160465227134 ], [ -89.633287223932015, 19.501055801743082 ], [ -89.629021283933795, 19.501045437036183 ], [ -89.616159047622403, 19.501034601567909 ] ] ] ] } },
{ "type": "Feature", "properties": { "ID": 11, "ENTIDAD": 4, "MUNICIPIO": 6, "NOMBRE": "HOPELCHEN", "CONTROL": 21, "GEOMETRY1_": null, "ID_2": 393, "ENTIDAD_2": 4, "DISTRITO_F": 1, "DISTRITO_L": 18, "MUNICIPIO_2": 6, "SECCION": 405, "TIPO": 4, "CONTROL_2": 836, "GEOMETRY1__2": null }, "geometry": { "type": "MultiPolygon", "coordinates": [ [ [ [ -89.194004857580495, 19.367111200062418 ], [ -89.331975681156635, 19.367464563269575 ], [ -89.332022018181249, 19.3674920734674 ], [ -89.332022234355421, 19.367464662917417 ], [ -89.532230524908471, 19.367782735723782 ], [ -89.532244843610798, 19.375567262177825 ], [ -89.532312017821511, 19.412550141759958 ], [ -89.53281583504976, 19.500943882012166 ], [ -89.528119250049286, 19.50094448539858 ], [ -89.525258456744666, 19.500944903480427 ], [ -89.371449337547389, 19.50089684711017 ], [ -89.333349299567999, 19.500864674965808 ], [ -89.294154625460877, 19.500823176563266 ], [ -89.194004857580495, 19.367111200062418 ] ] ] ] } },
{ "type": "Feature", "properties": { "ID": 11, "ENTIDAD": 4, "MUNICIPIO": 6, "NOMBRE": "HOPELCHEN", "CONTROL": 21, "GEOMETRY1_": null, "ID_2": 394, "ENTIDAD_2": 4, "DISTRITO_F": 1, "DISTRITO_L": 18, "MUNICIPIO_2": 6, "SECCION": 406, "TIPO": 4, "CONTROL_2": 533, "GEOMETRY1__2": null }, "geometry": { "type": "MultiPolygon", "coordinates": [ [ [ [ -89.799631730368631, 19.265302154934485 ], [ -89.813183456669137, 19.288878422168377 ], [ -89.820153511505666, 19.301001840873965 ], [ -89.820791134828212, 19.302112827674051 ], [ -89.839282169666276, 19.334264341142532 ], [ -89.844875800374723, 19.343988525112671 ], [ -89.865082563492976, 19.375590527068354 ], [ -89.865519144925486, 19.376273336959596 ], [ -89.865574317104503, 19.376369728129934 ], [ -89.865628523042389, 19.376464767159813 ], [ -89.866024667469475, 19.377159322139931 ], [ -89.870219491189715, 19.384513698799577 ], [ -89.87175635449654, 19.387207969710612 ], [ -89.871811743261105, 19.387305069980393 ], [ -89.888615880151676, 19.416758644243565 ], [ -89.888819714790827, 19.417233542549592 ], [ -89.894063005076205, 19.429448634041567 ], [ -89.927343010307496, 19.487220912123274 ], [ -89.931246886882718, 19.493995178337698 ], [ -89.935151059221965, 19.500769400044984 ], [ -89.842499542669714, 19.500937233425198 ], [ -89.83336729304267, 19.500951200695845 ], [ -89.793933066664948, 19.500863744182791 ], [ -89.77828742784375, 19.500826659085053 ], [ -89.765304256854492, 19.500794855524358 ], [ -89.765537788168444, 19.494609922055858 ], [ -89.764999719994663, 19.492610997511367 ], [ -89.763868678203977, 19.491178855090507 ], [ -89.761907121143395, 19.490556747091741 ], [ -89.760288604307362, 19.490190463337409 ], [ -89.758344826773026, 19.488740677219145 ], [ -89.75721564705394, 19.487225740668261 ], [ -89.755507707625227, 19.485615440566058 ], [ -89.752994142976377, 19.483656430516554 ], [ -89.751302283074082, 19.481301227445488 ], [ -89.751350277191776, 19.479066605235303 ], [ -89.75105528443963, 19.476576127786835 ], [ -89.749956467708529, 19.473654182571593 ], [ -89.74996963626748, 19.470345530949288 ], [ -89.749981890184429, 19.467264128436931 ], [ -89.749987836467298, 19.465767969825738 ], [ -89.750013367142145, 19.459337503541761 ], [ -89.750033408724732, 19.454282025562978 ], [ -89.750048624482844, 19.450439400115414 ], [ -89.750049813697501, 19.45013891030591 ], [ -89.750147373392196, 19.425406751854744 ], [ -89.750162889561054, 19.421458444282397 ], [ -89.75024448073097, 19.400628568494884 ], [ -89.76091982550416, 19.400859503612136 ], [ -89.783203308589947, 19.401339531542085 ], [ -89.783228143293613, 19.379774410430961 ], [ -89.783259307638559, 19.35212889548853 ], [ -89.783367241769923, 19.250637431829091 ], [ -89.79125603085015, 19.250720706932185 ], [ -89.799631730368631, 19.265302154934485 ] ] ] ] } },
{ "type": "Feature", "properties": { "ID": 11, "ENTIDAD": 4, "MUNICIPIO": 6, "NOMBRE": "HOPELCHEN", "CONTROL": 21, "GEOMETRY1_": null, "ID_2": 395, "ENTIDAD_2": 4, "DISTRITO_F": 1, "DISTRITO_L": 18, "MUNICIPIO_2": 6, "SECCION": 407, "TIPO": 4, "CONTROL_2": 835, "GEOMETRY1__2": null }, "geometry": { "type": "MultiPolygon", "coordinates": [ [ [ [ -89.532244843610798, 19.375567262177825 ], [ -89.532230524908471, 19.367782735723782 ], [ -89.332022234355421, 19.367464662917417 ], [ -89.33240840506123, 19.318313585970003 ], [ -89.434820154075354, 19.317836946757613 ], [ -89.493349027797223, 19.317538614117247 ], [ -89.494509215208183, 19.316880465615473 ], [ -89.498697245505696, 19.321269607274491 ], [ -89.501256089521561, 19.323589206234026 ], [ -89.503581178388018, 19.324999369226351 ], [ -89.505091079649404, 19.325085598263826 ], [ -89.506832969730823, 19.325007119841882 ], [ -89.507994326301556, 19.325009873832609 ], [ -89.509619938560419, 19.324848469637956 ], [ -89.511594248932994, 19.324853116454349 ], [ -89.514033255016273, 19.324941451065179 ], [ -89.514962935318493, 19.325274114317622 ], [ -89.51635775997994, 19.325938349728645 ], [ -89.518683191094865, 19.327430969100913 ], [ -89.519729336057281, 19.327929128902273 ], [ -89.521241247513544, 19.329089348347125 ], [ -89.522753030388643, 19.330166933780642 ], [ -89.523916105744121, 19.331078463860965 ], [ -89.525194274043145, 19.331411879507549 ], [ -89.52658813385105, 19.331497676093147 ], [ -89.527517273523813, 19.331499784665336 ], [ -89.529026973476292, 19.331420575846778 ], [ -89.530652662218287, 19.331258990299265 ], [ -89.533322699384215, 19.330603975638148 ], [ -89.534831769149477, 19.330194214543003 ], [ -89.537502415032137, 19.329869636310697 ], [ -89.539128251849718, 19.32979059716093 ], [ -89.540638266507202, 19.329876540632508 ], [ -89.541451426812841, 19.329960947912479 ], [ -89.54424112393761, 19.331123795747175 ], [ -89.545868441246014, 19.331788335576686 ], [ -89.547844046866274, 19.332370987778098 ], [ -89.549121646985654, 19.332373737519355 ], [ -89.552259070097293, 19.333124091003842 ], [ -89.553886284561031, 19.333705939977445 ], [ -89.555398199446429, 19.334700666083577 ], [ -89.583738489781268, 19.334271655800737 ], [ -89.599862111304077, 19.33455139098719 ], [ -89.599862609880773, 19.345319598944105 ], [ -89.599863288674115, 19.369152370864782 ], [ -89.599875100101229, 19.411559864007128 ], [ -89.532312017821511, 19.412550141759958 ], [ -89.532244843610798, 19.375567262177825 ] ] ] ] } },
{ "type": "Feature", "properties": { "ID": 11, "ENTIDAD": 4, "MUNICIPIO": 6, "NOMBRE": "HOPELCHEN", "CONTROL": 21, "GEOMETRY1_": null, "ID_2": 396, "ENTIDAD_2": 4, "DISTRITO_F": 1, "DISTRITO_L": 18, "MUNICIPIO_2": 6, "SECCION": 408, "TIPO": 4, "CONTROL_2": 942, "GEOMETRY1__2": null }, "geometry": { "type": "MultiPolygon", "coordinates": [ [ [ [ -89.575712241014585, 19.1620225296722 ], [ -89.584352131095216, 19.098156120743131 ], [ -89.588109897164443, 19.059997191680772 ], [ -89.614281592375946, 19.05990290442374 ], [ -89.666666631989784, 19.061919875589084 ], [ -89.666438625861048, 19.201146192271182 ], [ -89.666550582816356, 19.251084823692604 ], [ -89.667084215050238, 19.301189500240785 ], [ -89.684100825236825, 19.301168464668208 ], [ -89.716977590648199, 19.301123316301553 ], [ -89.71623904629422, 19.30309446621547 ], [ -89.71318114308545, 19.310397142954596 ], [ -89.711094043199097, 19.317507385831487 ], [ -89.709799984500847, 19.321915512876128 ], [ -89.701642673575236, 19.334240118410101 ], [ -89.690786085570451, 19.334483134204628 ], [ -89.688638418236195, 19.334531130775606 ], [ -89.685911914129306, 19.334592026592837 ], [ -89.682949330375223, 19.334658148605474 ], [ -89.679216976784446, 19.334654167609571 ], [ -89.676436436870944, 19.334651152026041 ], [ -89.675236067900244, 19.334649837044701 ], [ -89.674588986496516, 19.334649124891147 ], [ -89.671798249278581, 19.334646027122357 ], [ -89.663888363677046, 19.334637014202627 ], [ -89.608993548407071, 19.334564981377458 ], [ -89.599862111304077, 19.33455139098719 ], [ -89.583738489781268, 19.334271655800737 ], [ -89.555398199446429, 19.334700666083577 ], [ -89.553886284561031, 19.333705939977445 ], [ -89.552259070097293, 19.333124091003842 ], [ -89.549121646985654, 19.332373737519355 ], [ -89.547844046866274, 19.332370987778098 ], [ -89.545868441246014, 19.331788335576686 ], [ -89.54424112393761, 19.331123795747175 ], [ -89.541451426812841, 19.329960947912479 ], [ -89.540638266507202, 19.329876540632508 ], [ -89.539128251849718, 19.32979059716093 ], [ -89.537502415032137, 19.329869636310697 ], [ -89.534831769149477, 19.330194214543003 ], [ -89.533322699384215, 19.330603975638148 ], [ -89.530652662218287, 19.331258990299265 ], [ -89.529026973476292, 19.331420575846778 ], [ -89.527517273523813, 19.331499784665336 ], [ -89.52658813385105, 19.331497676093147 ], [ -89.525194274043145, 19.331411879507549 ], [ -89.523916105744121, 19.331078463860965 ], [ -89.522753030388643, 19.330166933780642 ], [ -89.521241247513544, 19.329089348347125 ], [ -89.519729336057281, 19.327929128902273 ], [ -89.518683191094865, 19.327430969100913 ], [ -89.51635775997994, 19.325938349728737 ], [ -89.514962935318493, 19.325274114317622 ], [ -89.514033255016273, 19.324941451065179 ], [ -89.511594248932994, 19.324853116454349 ], [ -89.509619938560419, 19.324848469637956 ], [ -89.507994326301556, 19.325009873832609 ], [ -89.506832969730823, 19.325007119841882 ], [ -89.505091079649404, 19.325085598263826 ], [ -89.503581178388018, 19.324999369226351 ], [ -89.501256089521561, 19.323589206234026 ], [ -89.498697245505696, 19.321269607274491 ], [ -89.499050706396318, 19.256824710080949 ], [ -89.49881809825574, 19.256576293661709 ], [ -89.49777158709999, 19.255582352260742 ], [ -89.496259310164703, 19.253761077271434 ], [ -89.495213406269187, 19.253097618417968 ], [ -89.494048995983647, 19.251029288474939 ], [ -89.494530743270843, 19.244015440661158 ], [ -89.494186496792736, 19.242939366846059 ], [ -89.494072324176074, 19.242442809263625 ], [ -89.493495595953476, 19.241366257305483 ], [ -89.493265528477124, 19.240786740805827 ], [ -89.492804014802005, 19.239958586408925 ], [ -89.492574988213818, 19.239130910607102 ], [ -89.492463241222239, 19.238055315258229 ], [ -89.492123854445822, 19.235821165703427 ], [ -89.492595027263505, 19.234333167751998 ], [ -89.492367731155085, 19.233091894111457 ], [ -89.493545263308121, 19.229454607473787 ], [ -89.495063874019209, 19.227637853000196 ], [ -89.495999573198517, 19.226233502521193 ], [ -89.497284635046526, 19.224664409171034 ], [ -89.49729044890158, 19.223258166043443 ], [ -89.497177637549697, 19.222430729470538 ], [ -89.497181398088927, 19.221520807375818 ], [ -89.497071321177131, 19.220031609330999 ], [ -89.496957143347601, 19.219535053678054 ], [ -89.49719882128926, 19.217302076618076 ], [ -89.496039291679054, 19.216637970868941 ], [ -89.494996682492058, 19.215808654461842 ], [ -89.495232213466466, 19.215064644234502 ], [ -89.496521614008145, 19.212420179454938 ], [ -89.496755425063782, 19.21208976635268 ], [ -89.495713177956048, 19.211177737520693 ], [ -89.496192739717571, 19.207621705504977 ], [ -89.491315302974016, 19.206701908586748 ], [ -89.489807217083893, 19.206037068109538 ], [ -89.486672451112966, 19.20528615239288 ], [ -89.484931277084129, 19.204786236363258 ], [ -89.484239873528239, 19.203378564335118 ], [ -89.483662266319129, 19.20255016711662 ], [ -89.483084664501874, 19.201721768932174 ], [ -89.482285021668801, 19.200903413493496 ], [ -89.4805494626805, 19.152645581262949 ], [ -89.575712241014585, 19.1620225296722 ] ] ] ] } },
{ "type": "Feature", "properties": { "ID": 11, "ENTIDAD": 4, "MUNICIPIO": 6, "NOMBRE": "HOPELCHEN", "CONTROL": 21, "GEOMETRY1_": null, "ID_2": 397, "ENTIDAD_2": 4, "DISTRITO_F": 1, "DISTRITO_L": 18, "MUNICIPIO_2": 6, "SECCION": 409, "TIPO": 4, "CONTROL_2": 837, "GEOMETRY1__2": null }, "geometry": { "type": "MultiPolygon", "coordinates": [ [ [ [ -89.147436462922812, 19.306320868643162 ], [ -89.147446987974064, 19.291917431553706 ], [ -89.14771669108552, 19.250044066801635 ], [ -89.147886763245552, 19.223628221950431 ], [ -89.288756956895043, 19.223570197999312 ], [ -89.292110452399257, 19.223642847340063 ], [ -89.316006605175957, 19.223634257711041 ], [ -89.318063896910203, 19.223633377633849 ], [ -89.32926858304296, 19.223628148647538 ], [ -89.329150336328752, 19.234217216383328 ], [ -89.329073432849441, 19.235759933223495 ], [ -89.328945270344363, 19.238330745071053 ], [ -89.328927774699153, 19.238681672487132 ], [ -89.328886202384879, 19.239515512304997 ], [ -89.327919720301765, 19.258894017027512 ], [ -89.327676847934939, 19.263761699733955 ], [ -89.326974377786982, 19.277836089994501 ], [ -89.326501789212131, 19.287300813270413 ], [ -89.325012055374032, 19.317116028370435 ], [ -89.325002322272155, 19.317310723385223 ], [ -89.33240840506123, 19.318313585970003 ], [ -89.332022234355421, 19.367464662917417 ], [ -89.332022018181249, 19.3674920734674 ], [ -89.331975681156635, 19.367464563269575 ], [ -89.194004857580495, 19.367111200062418 ], [ -89.147436462922812, 19.306320868643162 ] ] ] ] } },
{ "type": "Feature", "properties": { "ID": 11, "ENTIDAD": 4, "MUNICIPIO": 6, "NOMBRE": "HOPELCHEN", "CONTROL": 21, "GEOMETRY1_": null, "ID_2": 398, "ENTIDAD_2": 4, "DISTRITO_F": 1, "DISTRITO_L": 18, "MUNICIPIO_2": 6, "SECCION": 410, "TIPO": 4, "CONTROL_2": 496, "GEOMETRY1__2": null }, "geometry": { "type": "MultiPolygon", "coordinates": [ [ [ [ -89.326501789212131, 19.287300813270413 ], [ -89.326974377786982, 19.277836089994501 ], [ -89.327676847934939, 19.263761699733955 ], [ -89.327919720301765, 19.258894017027512 ], [ -89.328886202384879, 19.239515512304997 ], [ -89.328927774699153, 19.238681672487132 ], [ -89.328945270344363, 19.238330745071053 ], [ -89.329073432849441, 19.235759933223495 ], [ -89.329150336328752, 19.234217216383328 ], [ -89.334058408710774, 19.234021165655225 ], [ -89.360506429705723, 19.233875483954694 ], [ -89.364638738002697, 19.233852375567555 ], [ -89.37271216537286, 19.233806957596929 ], [ -89.492367731155085, 19.233091894111457 ], [ -89.492595027263505, 19.234333167751998 ], [ -89.492123854445822, 19.235821165703427 ], [ -89.492463241222239, 19.238055315258229 ], [ -89.492574988213818, 19.239130910607102 ], [ -89.492804014802005, 19.239958586408925 ], [ -89.493265528477124, 19.240786740805827 ], [ -89.493495595953476, 19.241366257305483 ], [ -89.494072324176074, 19.242442809263625 ], [ -89.494186496792736, 19.242939366846059 ], [ -89.494530743270843, 19.244015440661158 ], [ -89.494048995983647, 19.251029288474939 ], [ -89.495213406269187, 19.253097618417968 ], [ -89.496259310164703, 19.253761077271434 ], [ -89.49777158709999, 19.255582352260742 ], [ -89.49881809825574, 19.256576293661709 ], [ -89.499050706396318, 19.256824710080949 ], [ -89.498697245505696, 19.321269607274491 ], [ -89.494509215208183, 19.316880465615473 ], [ -89.493349027797223, 19.317538614117247 ], [ -89.434820154075339, 19.317836946757712 ], [ -89.33240840506123, 19.318313585970003 ], [ -89.325002322272155, 19.317310723385223 ], [ -89.325012055374032, 19.317116028370435 ], [ -89.326501789212131, 19.287300813270413 ] ] ] ] } },
{ "type": "Feature", "properties": { "ID": 11, "ENTIDAD": 4, "MUNICIPIO": 6, "NOMBRE": "HOPELCHEN", "CONTROL": 21, "GEOMETRY1_": null, "ID_2": 399, "ENTIDAD_2": 4, "DISTRITO_F": 1, "DISTRITO_L": 18, "MUNICIPIO_2": 6, "SECCION": 411, "TIPO": 4, "CONTROL_2": 943, "GEOMETRY1__2": null }, "geometry": { "type": "MultiPolygon", "coordinates": [ [ [ [ -89.147806745098237, 19.200000700123901 ], [ -89.147580881278543, 19.134284330433026 ], [ -89.147799648442884, 19.000523311294824 ], [ -89.188833982901386, 19.000779978316615 ], [ -89.249983553683663, 19.001145528606013 ], [ -89.249983709970977, 19.001054487953326 ], [ -89.24998386882254, 19.00095778467135 ], [ -89.249984058915388, 19.000842054149889 ], [ -89.249984864190054, 19.000351689769456 ], [ -89.250016895191493, 18.980707455691153 ], [ -89.25002745024355, 18.974173521391165 ], [ -89.250044945429821, 18.963275432232354 ], [ -89.250047301734725, 18.961801076867154 ], [ -89.250057032406787, 18.955695796244274 ], [ -89.301083677194782, 18.953269982788619 ], [ -89.301429505193411, 18.953289450897561 ], [ -89.369032529076193, 18.957082543014319 ], [ -89.414282557036344, 18.955227099628321 ], [ -89.477120748453871, 18.952231453011375 ], [ -89.47711205838722, 18.954892056375961 ], [ -89.476963533272112, 19.0000001739654 ], [ -89.479335877024383, 19.11306644361709 ], [ -89.47968474498127, 19.134468438345337 ], [ -89.482133095953429, 19.134513028702532 ], [ -89.4805494626805, 19.152645581262949 ], [ -89.482285021668801, 19.200903413493496 ], [ -89.329237612720718, 19.200560489243859 ], [ -89.32926858304296, 19.223628148647538 ], [ -89.318063896910203, 19.223633377633849 ], [ -89.316006605175957, 19.223634257711041 ], [ -89.292110452399257, 19.223642847340063 ], [ -89.288756956895043, 19.223570197999312 ], [ -89.147886763245552, 19.223628221950431 ], [ -89.147806745098237, 19.200000700123901 ] ] ] ] } },
{ "type": "Feature", "properties": { "ID": 11, "ENTIDAD": 4, "MUNICIPIO": 6, "NOMBRE": "HOPELCHEN", "CONTROL": 21, "GEOMETRY1_": null, "ID_2": 400, "ENTIDAD_2": 4, "DISTRITO_F": 1, "DISTRITO_L": 18, "MUNICIPIO_2": 6, "SECCION": 412, "TIPO": 4, "CONTROL_2": 906, "GEOMETRY1__2": null }, "geometry": { "type": "MultiPolygon", "coordinates": [ [ [ [ -89.329150336328752, 19.234217216383328 ], [ -89.32926858304296, 19.223628148647538 ], [ -89.329237612720718, 19.200560489243859 ], [ -89.482285021668801, 19.200903413493496 ], [ -89.483084664501874, 19.201721768932174 ], [ -89.483662266319129, 19.20255016711662 ], [ -89.484239873528239, 19.203378564335118 ], [ -89.484931277084129, 19.204786236363258 ], [ -89.486672451112966, 19.20528615239288 ], [ -89.489807217083893, 19.206037068109538 ], [ -89.491315302974016, 19.206701908586748 ], [ -89.496192739717571, 19.207621705504977 ], [ -89.495713177956048, 19.211177737520693 ], [ -89.496755425063782, 19.21208976635268 ], [ -89.496521614008145, 19.212420179454938 ], [ -89.495232213466466, 19.215064644234502 ], [ -89.494996682492058, 19.215808654461842 ], [ -89.496039291679054, 19.216637970868941 ], [ -89.49719882128926, 19.217302076618076 ], [ -89.496957143347601, 19.219535053678054 ], [ -89.497071321177131, 19.220031609330999 ], [ -89.497181398088927, 19.221520807375818 ], [ -89.497177637549697, 19.222430729470538 ], [ -89.49729044890158, 19.223258166043443 ], [ -89.497284635046526, 19.224664409171034 ], [ -89.495999573198517, 19.226233502521193 ], [ -89.495063874019209, 19.227637853000196 ], [ -89.493545263308121, 19.229454607473787 ], [ -89.492367731155085, 19.233091894111457 ], [ -89.37271216537286, 19.233806957596929 ], [ -89.364638738002697, 19.233852375567555 ], [ -89.360506429705723, 19.233875483954694 ], [ -89.334058408710774, 19.234021165655225 ], [ -89.329150336328752, 19.234217216383328 ] ] ] ] } }
]
}
