{
"type": "FeatureCollection",
"name": "PABELLONARTEAGASECCIONES",
"crs": { "type": "name", "properties": { "name": "urn:ogc:def:crs:OGC:1.3:CRS84" } },
"features": [
{ "type": "Feature", "properties": { "ID": 5, "ENTIDAD": 1, "MUNICIPIO": 6, "NOMBRE": "PABELLON DE ARTEAGA", "CONTROL": 6, "GEOMETRY1_": null, "ID_2": 329, "ENTIDAD_2": 1, "DISTRITO_F": 1, "DISTRITO_L": 2, "MUNICIPIO_2": 2, "SECCION": 345, "TIPO": 4, "CONTROL_2": 41, "GEOMETRY1__2": null }, "geometry": { "type": "MultiPolygon", "coordinates": [ [ [ [ -102.229201881268239, 22.160762726491338 ], [ -102.231404352507269, 22.153590723034476 ], [ -102.229201881268224, 22.160762726491424 ], [ -102.228469350428739, 22.163344876331436 ], [ -102.229201881268239, 22.160762726491338 ] ] ], [ [ [ -102.216923016210615, 22.103214492616189 ], [ -102.2169230162106, 22.103214492616189 ], [ -102.217182292773657, 22.103194774103244 ], [ -102.216923016210615, 22.103214492616189 ] ] ], [ [ [ -102.216399117412678, 22.10422682875322 ], [ -102.216399117412664, 22.104226828753294 ], [ -102.216278355594596, 22.103923183938857 ], [ -102.216399117412678, 22.10422682875322 ] ] ] ] } },
{ "type": "Feature", "properties": { "ID": 5, "ENTIDAD": 1, "MUNICIPIO": 6, "NOMBRE": "PABELLON DE ARTEAGA", "CONTROL": 6, "GEOMETRY1_": null, "ID_2": 396, "ENTIDAD_2": 1, "DISTRITO_F": 1, "DISTRITO_L": 3, "MUNICIPIO_2": 6, "SECCION": 415, "TIPO": 3, "CONTROL_2": 71, "GEOMETRY1__2": null }, "geometry": { "type": "MultiPolygon", "coordinates": [ [ [ [ -102.297609764560363, 22.149289169572761 ], [ -102.296861328428022, 22.149730306572696 ], [ -102.296529469301092, 22.149925906124572 ], [ -102.296405793217332, 22.152697739692044 ], [ -102.296375254291121, 22.153444980681712 ], [ -102.296315358183861, 22.155477323043453 ], [ -102.29631082636395, 22.15613617788928 ], [ -102.296309524328123, 22.156490459117517 ], [ -102.296172075367238, 22.159526025484951 ], [ -102.296034124667685, 22.162021182228248 ], [ -102.295804391886804, 22.165036523260433 ], [ -102.287340978096566, 22.165058608356812 ], [ -102.285743027324898, 22.16506253440285 ], [ -102.28563009522064, 22.165063019365871 ], [ -102.285516929437378, 22.165063310496208 ], [ -102.281262517389578, 22.165013720515329 ], [ -102.27618419930451, 22.165031539314015 ], [ -102.276095781900779, 22.164658736469356 ], [ -102.276034846844453, 22.163399191645738 ], [ -102.27591445153449, 22.160498799574619 ], [ -102.275830265290992, 22.158987266131934 ], [ -102.275624359020412, 22.153547876082648 ], [ -102.275436133454164, 22.153564160115252 ], [ -102.275280435069888, 22.153464815287009 ], [ -102.275129664052486, 22.151962090865993 ], [ -102.275173235758189, 22.151954813017348 ], [ -102.275084454021211, 22.150797175905033 ], [ -102.274925019753709, 22.149180176199124 ], [ -102.274883159805213, 22.14867808821516 ], [ -102.274803028411782, 22.147938831545076 ], [ -102.275103753315847, 22.147769988930598 ], [ -102.275874271929666, 22.147703558803318 ], [ -102.276685754503603, 22.147633422039299 ], [ -102.277795302023065, 22.14753751667735 ], [ -102.2779654350187, 22.147353656236273 ], [ -102.278078775408872, 22.147180343524923 ], [ -102.278421859360037, 22.147083175602678 ], [ -102.278897430041212, 22.147062738277768 ], [ -102.278960908241402, 22.147060010239503 ], [ -102.279028008061374, 22.147487777201682 ], [ -102.280260629528328, 22.147387667069093 ], [ -102.281052052656889, 22.147302906237478 ], [ -102.281635650779862, 22.147274230548756 ], [ -102.281771900659905, 22.147261046606747 ], [ -102.282045627666378, 22.147256787773681 ], [ -102.282932663190408, 22.147174990779742 ], [ -102.283866968055861, 22.147112248981216 ], [ -102.28497784552809, 22.147037413773514 ], [ -102.285553805987618, 22.147007561738185 ], [ -102.287202450422768, 22.146899951177744 ], [ -102.288901809778991, 22.146793295451992 ], [ -102.28949780986305, 22.146756376210313 ], [ -102.290568427381459, 22.146665725512097 ], [ -102.292796848299744, 22.146490779859541 ], [ -102.292439792676561, 22.14565686842932 ], [ -102.293872538467909, 22.145575291644398 ], [ -102.294540795469445, 22.145701969380955 ], [ -102.29515089832708, 22.145377670924351 ], [ -102.295463342789844, 22.145218813675818 ], [ -102.295535223717522, 22.145181644378468 ], [ -102.29605389021124, 22.144716546271976 ], [ -102.296484580353152, 22.144141707983398 ], [ -102.298984302773292, 22.14600439144531 ], [ -102.298016613023648, 22.146106953709353 ], [ -102.300253750029029, 22.147730704924438 ], [ -102.297609764560363, 22.149289169572761 ] ] ] ] } },
{ "type": "Feature", "properties": { "ID": 5, "ENTIDAD": 1, "MUNICIPIO": 6, "NOMBRE": "PABELLON DE ARTEAGA", "CONTROL": 6, "GEOMETRY1_": null, "ID_2": 397, "ENTIDAD_2": 1, "DISTRITO_F": 1, "DISTRITO_L": 3, "MUNICIPIO_2": 6, "SECCION": 416, "TIPO": 3, "CONTROL_2": 66, "GEOMETRY1__2": null }, "geometry": { "type": "MultiPolygon", "coordinates": [ [ [ [ -102.275864978940717, 22.165033732891409 ], [ -102.275663986604329, 22.165037044894152 ], [ -102.275578038728838, 22.166054989024886 ], [ -102.269660198326207, 22.166884065931317 ], [ -102.263982820740992, 22.167497365550489 ], [ -102.263310481685608, 22.167570428781975 ], [ -102.2616698413688, 22.170912397612437 ], [ -102.259924782933084, 22.173128363536712 ], [ -102.259429382311183, 22.173709048789568 ], [ -102.258459233223505, 22.174921285316326 ], [ -102.258204513293805, 22.175383006359485 ], [ -102.258132763968831, 22.175796967465484 ], [ -102.25816971346346, 22.176233249829256 ], [ -102.259376062726602, 22.1806729070824 ], [ -102.259673347336488, 22.18177090714434 ], [ -102.259745390327964, 22.182280492450822 ], [ -102.259739487820354, 22.182572208512138 ], [ -102.259681669884301, 22.183206699125947 ], [ -102.259585301266881, 22.183950697055501 ], [ -102.259467940089408, 22.184838366938877 ], [ -102.259325089553087, 22.185632412877368 ], [ -102.259183895124082, 22.186269374490912 ], [ -102.256274348966642, 22.186093271559564 ], [ -102.253397867037862, 22.185918874592637 ], [ -102.253260894629449, 22.18590858383703 ], [ -102.25300222713021, 22.185889149796672 ], [ -102.253093416481804, 22.185711052202045 ], [ -102.253151999082746, 22.185498093853212 ], [ -102.253155393135572, 22.185323616876456 ], [ -102.253049944432703, 22.185147302542575 ], [ -102.252906022980397, 22.185082942033997 ], [ -102.252785194461509, 22.185075273059041 ], [ -102.252628415214801, 22.185050106998109 ], [ -102.252453712532414, 22.185013378096521 ], [ -102.252259556126731, 22.185043881942235 ], [ -102.252095305086087, 22.18509178062709 ], [ -102.251853789825532, 22.185191237591379 ], [ -102.251756688821729, 22.185054537382523 ], [ -102.251719915601527, 22.184823425414706 ], [ -102.251824268852943, 22.18472124623068 ], [ -102.251938895411072, 22.184633098534963 ], [ -102.252086036063289, 22.184635582110481 ], [ -102.252183113509219, 22.184620330285714 ], [ -102.25225600422354, 22.184604669290916 ], [ -102.252329661500482, 22.184549611364176 ], [ -102.25233746088584, 22.18445966040375 ], [ -102.252351087421488, 22.184381067995485 ], [ -102.252328870988123, 22.184279350252353 ], [ -102.252234939355603, 22.184177326666166 ], [ -102.252192320538995, 22.18402831814592 ], [ -102.252178292422471, 22.183848649202325 ], [ -102.252092809170975, 22.1837384570421 ], [ -102.251963792692635, 22.183613935495405 ], [ -102.251862652053688, 22.183557853657216 ], [ -102.251703113854489, 22.183500785111026 ], [ -102.251544368241497, 22.183402949688116 ], [ -102.251472692185004, 22.183333771351979 ], [ -102.251329605762152, 22.183181824514556 ], [ -102.251215718346714, 22.183030371443074 ], [ -102.251161287550289, 22.182825546556209 ], [ -102.251135791009062, 22.182634803831903 ], [ -102.251093578650313, 22.182552529140114 ], [ -102.25103729656162, 22.182442828654668 ], [ -102.2509226173934, 22.182332143078746 ], [ -102.250719810806785, 22.182247155819976 ], [ -102.250487804977212, 22.182161676151029 ], [ -102.250344455216108, 22.182023317835572 ], [ -102.250273045979469, 22.181940549913733 ], [ -102.250247286096439, 22.181763396364865 ], [ -102.250279660398405, 22.181600819146123 ], [ -102.250296904826328, 22.181465173732782 ], [ -102.250445016080562, 22.181358924685217 ], [ -102.250637454180648, 22.181226236629854 ], [ -102.250799371015702, 22.181161002229956 ], [ -102.250874747921216, 22.181039930979257 ], [ -102.250893315145888, 22.180836339429813 ], [ -102.250895431192149, 22.180727624900701 ], [ -102.250825343759161, 22.180576910310265 ], [ -102.250666867398181, 22.180465485211894 ], [ -102.250349913530442, 22.180242633689442 ], [ -102.250148169447414, 22.180103290173882 ], [ -102.250063484538103, 22.179952328823138 ], [ -102.249979063405902, 22.179787778233468 ], [ -102.249966580543287, 22.179678818113441 ], [ -102.249970284635936, 22.179488568484853 ], [ -102.249982897530955, 22.179262936575931 ], [ -102.250005156064134, 22.179012510780691 ], [ -102.250069756824203, 22.178819432319422 ], [ -102.250158849210521, 22.178707671329548 ], [ -102.250327399845105, 22.178532528849921 ], [ -102.250493116386238, 22.178502965412541 ], [ -102.250718551659958, 22.178531043275903 ], [ -102.250908603032727, 22.178590884168894 ], [ -102.25119328744718, 22.178700864709242 ], [ -102.251374491843066, 22.178768646601704 ], [ -102.251564544843731, 22.178828487706468 ], [ -102.251790453092227, 22.178832300471502 ], [ -102.25192184073714, 22.178782491174896 ], [ -102.251974334802981, 22.178762590537378 ], [ -102.252098180248581, 22.178651414824749 ], [ -102.252127235952017, 22.178498187027593 ], [ -102.252130539925105, 22.178328344771238 ], [ -102.252109508259622, 22.178069096978533 ], [ -102.25209590606265, 22.177874697775849 ], [ -102.252100311260307, 22.177648241722569 ], [ -102.252105031070684, 22.177405609262049 ], [ -102.252134401948638, 22.17723620683654 ], [ -102.252232843454493, 22.177090019973647 ], [ -102.252410550505033, 22.17689075865113 ], [ -102.252845261914032, 22.17643693965513 ], [ -102.25243638519224, 22.176009340737298 ], [ -102.252309044593403, 22.17585347505138 ], [ -102.25221425575586, 22.175811423285971 ], [ -102.252153436136425, 22.175810397102975 ], [ -102.252092142631398, 22.175833634566839 ], [ -102.252012371952304, 22.175913192607847 ], [ -102.251878738871824, 22.176080835693583 ], [ -102.251737046827358, 22.176215981029614 ], [ -102.251570234589408, 22.176365728530843 ], [ -102.251289833344345, 22.176418783849872 ], [ -102.251195990658715, 22.176328205958388 ], [ -102.251189347496549, 22.176222919080772 ], [ -102.251191865391675, 22.176093515179559 ], [ -102.251247459119682, 22.175916464718043 ], [ -102.251459604827531, 22.175733965569016 ], [ -102.251706032644336, 22.175576317182092 ], [ -102.251996218148733, 22.175403225010665 ], [ -102.252146126050604, 22.175292488734296 ], [ -102.252226840079473, 22.175164404067729 ], [ -102.252437882400585, 22.175038518107563 ], [ -102.252595693030983, 22.174968367162791 ], [ -102.252790253903186, 22.174894203334969 ], [ -102.252964969236046, 22.174848608833866 ], [ -102.253122621233757, 22.17478654461874 ], [ -102.253253421268269, 22.174764478977764 ], [ -102.253367945111378, 22.174685506305636 ], [ -102.25362417820034, 22.174633263539111 ], [ -102.25375071359862, 22.174667690306023 ], [ -102.25387109536112, 22.174734443481594 ], [ -102.254095584730379, 22.174811041849548 ], [ -102.254216281170855, 22.174861619266512 ], [ -102.254320543966372, 22.174863377051174 ], [ -102.254417689616005, 22.174784110618805 ], [ -102.254612295882751, 22.174609402023577 ], [ -102.254869293226534, 22.174354841488228 ], [ -102.255038618425061, 22.174139253607919 ], [ -102.255172560193515, 22.173955431775006 ], [ -102.255963105640632, 22.173751426356539 ], [ -102.256057886170765, 22.172573756877465 ], [ -102.257372600597904, 22.172514337035818 ], [ -102.256985175805966, 22.171420296551936 ], [ -102.256958105787632, 22.171311089049169 ], [ -102.256501244892533, 22.170786824406729 ], [ -102.256745605981209, 22.168724659235686 ], [ -102.256513749615578, 22.168639190753318 ], [ -102.25806021118207, 22.166392741165591 ], [ -102.259712506782463, 22.166838780257294 ], [ -102.260038747945472, 22.165603973415973 ], [ -102.258353066451292, 22.165223304378799 ], [ -102.258585684467903, 22.162889330757693 ], [ -102.260584055680013, 22.163305609521871 ], [ -102.261169937463123, 22.160425537621624 ], [ -102.259734767680882, 22.160067397528326 ], [ -102.259742646113764, 22.159660908139774 ], [ -102.260204913285179, 22.158332637513617 ], [ -102.262705682845208, 22.158810331170471 ], [ -102.263321530610114, 22.156794821986825 ], [ -102.268903079342252, 22.157026977892993 ], [ -102.269474207659698, 22.155542054766062 ], [ -102.269693652491938, 22.154890552009221 ], [ -102.269777478870935, 22.154596483266783 ], [ -102.269884034453312, 22.154315641842054 ], [ -102.27008443190195, 22.153698076853519 ], [ -102.270285570906907, 22.153041983873067 ], [ -102.270539911556128, 22.152370066020328 ], [ -102.270740757095226, 22.151638145685268 ], [ -102.271501032579707, 22.151598278164386 ], [ -102.272417317459855, 22.151536157400688 ], [ -102.273285404400241, 22.15144961608355 ], [ -102.274181356773212, 22.151394260100588 ], [ -102.274231305948007, 22.152054894617496 ], [ -102.275011333286812, 22.151974315170591 ], [ -102.275129664052486, 22.151962090865993 ], [ -102.275280435069888, 22.153464815287009 ], [ -102.275436133454164, 22.153564160115252 ], [ -102.275624359020412, 22.153547876082648 ], [ -102.275830265290992, 22.158987266131934 ], [ -102.27591445153449, 22.160498799574619 ], [ -102.276034846844453, 22.163399191645738 ], [ -102.276095781900779, 22.164658736469356 ], [ -102.27618419930451, 22.165031539314015 ], [ -102.275864978940717, 22.165033732891409 ] ] ] ] } },
{ "type": "Feature", "properties": { "ID": 5, "ENTIDAD": 1, "MUNICIPIO": 6, "NOMBRE": "PABELLON DE ARTEAGA", "CONTROL": 6, "GEOMETRY1_": null, "ID_2": 398, "ENTIDAD_2": 1, "DISTRITO_F": 1, "DISTRITO_L": 3, "MUNICIPIO_2": 6, "SECCION": 417, "TIPO": 2, "CONTROL_2": 67, "GEOMETRY1__2": null }, "geometry": { "type": "MultiPolygon", "coordinates": [ [ [ [ -102.274181356773212, 22.151394260100588 ], [ -102.273285404400241, 22.15144961608355 ], [ -102.272417317459855, 22.151536157400688 ], [ -102.271501032579707, 22.151598278164386 ], [ -102.27074075709524, 22.151638145685268 ], [ -102.270819438079599, 22.151438413360903 ], [ -102.270549241980845, 22.151351670648868 ], [ -102.270335124384403, 22.151230715547847 ], [ -102.270091360371353, 22.151139358413428 ], [ -102.270066707058248, 22.150910225528474 ], [ -102.270161765488083, 22.150337008046815 ], [ -102.270220362510472, 22.149694343930197 ], [ -102.269750713686889, 22.149707162625894 ], [ -102.26970733495385, 22.149053235771078 ], [ -102.269113809218055, 22.149073376691831 ], [ -102.269044573960002, 22.148423580947284 ], [ -102.270309371534438, 22.148338054056616 ], [ -102.271189338334509, 22.148300873290417 ], [ -102.272119435995634, 22.148232801696683 ], [ -102.272997530543719, 22.148132129850463 ], [ -102.273888470140619, 22.148072298854149 ], [ -102.274666890991057, 22.147999031980991 ], [ -102.274749307471268, 22.147964379481152 ], [ -102.274803028411782, 22.147938831545076 ], [ -102.274883159805213, 22.14867808821516 ], [ -102.274925019753709, 22.149180176199124 ], [ -102.275084454021211, 22.150797175905033 ], [ -102.275173235758189, 22.151954813017348 ], [ -102.275129664052486, 22.151962090865993 ], [ -102.275011333286812, 22.151974315170591 ], [ -102.274231305948007, 22.152054894617496 ], [ -102.274181356773212, 22.151394260100588 ] ] ] ] } },
{ "type": "Feature", "properties": { "ID": 5, "ENTIDAD": 1, "MUNICIPIO": 6, "NOMBRE": "PABELLON DE ARTEAGA", "CONTROL": 6, "GEOMETRY1_": null, "ID_2": 399, "ENTIDAD_2": 1, "DISTRITO_F": 1, "DISTRITO_L": 3, "MUNICIPIO_2": 6, "SECCION": 418, "TIPO": 3, "CONTROL_2": 68, "GEOMETRY1__2": null }, "geometry": { "type": "MultiPolygon", "coordinates": [ [ [ [ -102.255264787676211, 22.173681911727972 ], [ -102.255260969418885, 22.173431044754995 ], [ -102.255213394865919, 22.17319562123021 ], [ -102.25511353258257, 22.172967406481948 ], [ -102.254844301772096, 22.17250980631276 ], [ -102.254599408274061, 22.17214160930709 ], [ -102.254260200442914, 22.171707099719367 ], [ -102.253981185639802, 22.171305966044585 ], [ -102.253795700222497, 22.171011583880482 ], [ -102.253632026065461, 22.170802252162016 ], [ -102.253437077535736, 22.17068192149102 ], [ -102.253255880838282, 22.17061414277779 ], [ -102.253118125474515, 22.170547096462133 ], [ -102.252945931225682, 22.170463288417491 ], [ -102.252822665715271, 22.170356430913319 ], [ -102.252710817446001, 22.170297912081907 ], [ -102.252607030859565, 22.170271889897617 ], [ -102.252442267881321, 22.17025292999644 ], [ -102.251590973491133, 22.170230477591893 ], [ -102.251560152613649, 22.1700276978431 ], [ -102.251875251566517, 22.169466686502265 ], [ -102.252000976251821, 22.169258456871965 ], [ -102.252116123935821, 22.169147133605797 ], [ -102.252332483962022, 22.169033518537482 ], [ -102.252677044184807, 22.168905792446225 ], [ -102.252948422121179, 22.16880519417932 ], [ -102.25328093073152, 22.168689444459748 ], [ -102.25336891316023, 22.168634294588937 ], [ -102.253423243731177, 22.168521944811705 ], [ -102.253469356274394, 22.168385185650301 ], [ -102.25349872142543, 22.168215782437997 ], [ -102.250432871718843, 22.167662458664559 ], [ -102.248632201423419, 22.167300350514285 ], [ -102.245966244796008, 22.166787947853756 ], [ -102.24068630096005, 22.165806011835521 ], [ -102.239638641600507, 22.165526097757272 ], [ -102.236878273498675, 22.164977091061111 ], [ -102.23341513558556, 22.164336259889964 ], [ -102.231931089158252, 22.164054262040068 ], [ -102.230007857974968, 22.163662068439194 ], [ -102.228469350428739, 22.163344876331436 ], [ -102.229201881268224, 22.160762726491424 ], [ -102.231404352507269, 22.153590723034476 ], [ -102.229352843753475, 22.153595444076462 ], [ -102.229423824180444, 22.148886351214554 ], [ -102.23268199802915, 22.149439608255964 ], [ -102.233080614813403, 22.148091915399128 ], [ -102.234408236286114, 22.143292375912825 ], [ -102.239922832310995, 22.144456414045603 ], [ -102.240272664852455, 22.142167519789815 ], [ -102.243966999435429, 22.142758019759377 ], [ -102.244041469343443, 22.142292190935294 ], [ -102.245853775533931, 22.142593334146028 ], [ -102.24572383035887, 22.143437185388031 ], [ -102.247688144052503, 22.143853842166639 ], [ -102.248973809008731, 22.144144217244037 ], [ -102.250311400125312, 22.144439984903439 ], [ -102.251507100372464, 22.144692485363514 ], [ -102.256056014891769, 22.139951620204524 ], [ -102.258040321567151, 22.140414479578805 ], [ -102.257496372240368, 22.141373101064595 ], [ -102.258578067250895, 22.141624890741451 ], [ -102.257715742955682, 22.144224479354502 ], [ -102.261571447640975, 22.145824371917982 ], [ -102.262322718283016, 22.145875922780977 ], [ -102.265166124314391, 22.146107189451577 ], [ -102.266767655718397, 22.146220236991326 ], [ -102.268868110592152, 22.146100848393175 ], [ -102.26891218394735, 22.146736783385379 ], [ -102.27015552834547, 22.146646308201497 ], [ -102.271051516220552, 22.146589291490699 ], [ -102.271954781998119, 22.146519297460753 ], [ -102.272851063863854, 22.146446999153405 ], [ -102.273754076764064, 22.146390084858513 ], [ -102.274536541365165, 22.146335956602663 ], [ -102.274598849545811, 22.146319628542262 ], [ -102.274669176081233, 22.146313315054044 ], [ -102.274736577892099, 22.146880863507388 ], [ -102.274803028411782, 22.147938831545076 ], [ -102.274749307471268, 22.147964379481152 ], [ -102.274666890991057, 22.147999031980991 ], [ -102.273888470140619, 22.148072298854149 ], [ -102.272997530543719, 22.148132129850463 ], [ -102.272119435995634, 22.148232801696683 ], [ -102.271189338334509, 22.148300873290417 ], [ -102.270309371534438, 22.148338054056616 ], [ -102.269044573960002, 22.148423580947284 ], [ -102.269113809218055, 22.149073376691831 ], [ -102.26970733495385, 22.149053235771078 ], [ -102.269750713686889, 22.149707162625894 ], [ -102.270220362510472, 22.149694343930197 ], [ -102.270161765488083, 22.150337008046815 ], [ -102.270066707058248, 22.150910225528474 ], [ -102.270091360371353, 22.151139358413428 ], [ -102.270335124384403, 22.151230715547847 ], [ -102.270549241980845, 22.151351670648868 ], [ -102.270819438079599, 22.151438413360903 ], [ -102.270740757095226, 22.151638145685268 ], [ -102.270539911556128, 22.152370066020328 ], [ -102.270285570906907, 22.153041983873067 ], [ -102.27008443190195, 22.153698076853519 ], [ -102.269884034453312, 22.154315641842054 ], [ -102.269777478870935, 22.154596483266783 ], [ -102.269693652491938, 22.154890552009221 ], [ -102.269474207659698, 22.155542054766062 ], [ -102.268903079342252, 22.157026977892993 ], [ -102.263321530610114, 22.156794821986825 ], [ -102.262705682845208, 22.158810331170471 ], [ -102.260204913285179, 22.158332637513617 ], [ -102.259742646113764, 22.159660908139774 ], [ -102.259734767680882, 22.160067397528326 ], [ -102.261169937463123, 22.160425537621624 ], [ -102.260584055680013, 22.163305609521871 ], [ -102.258585684467903, 22.162889330757693 ], [ -102.258353066451292, 22.165223304378799 ], [ -102.260038747945472, 22.165603973415973 ], [ -102.259712506782463, 22.166838780257294 ], [ -102.25806021118207, 22.166392741165591 ], [ -102.256513749615578, 22.168639190753318 ], [ -102.256745605981209, 22.168724659235686 ], [ -102.256501244892533, 22.170786824406729 ], [ -102.256958105787632, 22.171311089049169 ], [ -102.256985175805966, 22.171420296551936 ], [ -102.257372600597904, 22.172514337035818 ], [ -102.256057886170765, 22.172573756877465 ], [ -102.255963105640632, 22.173751426356539 ], [ -102.255172560193515, 22.173955431775006 ], [ -102.255264787676211, 22.173681911727972 ] ] ] ] } },
{ "type": "Feature", "properties": { "ID": 5, "ENTIDAD": 1, "MUNICIPIO": 6, "NOMBRE": "PABELLON DE ARTEAGA", "CONTROL": 6, "GEOMETRY1_": null, "ID_2": 400, "ENTIDAD_2": 1, "DISTRITO_F": 1, "DISTRITO_L": 3, "MUNICIPIO_2": 6, "SECCION": 419, "TIPO": 2, "CONTROL_2": 72, "GEOMETRY1__2": null }, "geometry": { "type": "MultiPolygon", "coordinates": [ [ [ [ -102.274736577892099, 22.146880863507388 ], [ -102.274669176081233, 22.146313315054044 ], [ -102.274546913025972, 22.144957227637807 ], [ -102.274617500840776, 22.144348745547379 ], [ -102.274533288773853, 22.143362678714034 ], [ -102.274460417746369, 22.142711651851666 ], [ -102.274443853506767, 22.142021649647859 ], [ -102.274623755523265, 22.142027732311295 ], [ -102.275383753271996, 22.14196895221961 ], [ -102.275935900260478, 22.141926245540589 ], [ -102.277058664669553, 22.14183939765168 ], [ -102.27748197164631, 22.141806652024169 ], [ -102.278008200959576, 22.141765943095976 ], [ -102.278102247282831, 22.142979625981795 ], [ -102.278158675461967, 22.143751961802565 ], [ -102.278252314051642, 22.144593658054024 ], [ -102.278320447753316, 22.145434916310698 ], [ -102.278612977301279, 22.145397615860553 ], [ -102.279084516730904, 22.145501156827422 ], [ -102.279228450008631, 22.145570365314413 ], [ -102.279415465506872, 22.145660289060952 ], [ -102.279743332172927, 22.145934918646496 ], [ -102.279918286332716, 22.146100467805109 ], [ -102.280088698627111, 22.146432716897309 ], [ -102.280186038837741, 22.146707803502807 ], [ -102.280260629528328, 22.147387667069093 ], [ -102.279028008061374, 22.147487777201682 ], [ -102.278960908241402, 22.147060010239503 ], [ -102.278897430041212, 22.147062738277768 ], [ -102.278421859360037, 22.147083175602678 ], [ -102.278078775408872, 22.147180343524923 ], [ -102.2779654350187, 22.147353656236273 ], [ -102.277795302023065, 22.14753751667735 ], [ -102.276685754503603, 22.147633422039299 ], [ -102.275874271929666, 22.147703558803318 ], [ -102.275103753315847, 22.147769988930598 ], [ -102.274803028411782, 22.147938831545076 ], [ -102.274736577892099, 22.146880863507388 ] ] ] ] } },
{ "type": "Feature", "properties": { "ID": 5, "ENTIDAD": 1, "MUNICIPIO": 6, "NOMBRE": "PABELLON DE ARTEAGA", "CONTROL": 6, "GEOMETRY1_": null, "ID_2": 401, "ENTIDAD_2": 1, "DISTRITO_F": 1, "DISTRITO_L": 3, "MUNICIPIO_2": 6, "SECCION": 420, "TIPO": 2, "CONTROL_2": 73, "GEOMETRY1__2": null }, "geometry": { "type": "MultiPolygon", "coordinates": [ [ [ [ -102.280186038837741, 22.146707803502807 ], [ -102.280088698627111, 22.146432716897309 ], [ -102.279918286332716, 22.146100467805109 ], [ -102.279743332172927, 22.145934918646496 ], [ -102.279415465506872, 22.145660289060952 ], [ -102.279228450008631, 22.145570365314413 ], [ -102.279084516730904, 22.145501156827422 ], [ -102.278612977301279, 22.145397615860553 ], [ -102.278320447753316, 22.145434916310698 ], [ -102.278252314051642, 22.144593658054024 ], [ -102.278158675461967, 22.143751961802565 ], [ -102.278102247282831, 22.142979625981795 ], [ -102.278008200959576, 22.141765943095976 ], [ -102.278586311690361, 22.141719592974727 ], [ -102.278922045362449, 22.141692674508441 ], [ -102.279508887712566, 22.141645620938998 ], [ -102.280426376259655, 22.141627590495503 ], [ -102.2806018508455, 22.141630983303457 ], [ -102.28069150816296, 22.142760547811804 ], [ -102.280754785132387, 22.143557751599655 ], [ -102.280820961427949, 22.144391480330164 ], [ -102.280900635958332, 22.145395264371363 ], [ -102.281020466266867, 22.146652361376379 ], [ -102.281052052656889, 22.147302906237478 ], [ -102.280260629528328, 22.147387667069093 ], [ -102.280186038837741, 22.146707803502807 ] ] ] ] } },
{ "type": "Feature", "properties": { "ID": 5, "ENTIDAD": 1, "MUNICIPIO": 6, "NOMBRE": "PABELLON DE ARTEAGA", "CONTROL": 6, "GEOMETRY1_": null, "ID_2": 402, "ENTIDAD_2": 1, "DISTRITO_F": 1, "DISTRITO_L": 3, "MUNICIPIO_2": 6, "SECCION": 421, "TIPO": 2, "CONTROL_2": 74, "GEOMETRY1__2": null }, "geometry": { "type": "MultiPolygon", "coordinates": [ [ [ [ -102.290568427381459, 22.146665725512097 ], [ -102.28949780986305, 22.146756376210313 ], [ -102.288901809778991, 22.146793295451992 ], [ -102.287202450422768, 22.146899951177744 ], [ -102.285553805987618, 22.147007561738185 ], [ -102.28497784552809, 22.147037413773514 ], [ -102.283866968055861, 22.147112248981216 ], [ -102.282932663190408, 22.147174990779742 ], [ -102.282045627666378, 22.147256787773681 ], [ -102.281771900659905, 22.147261046606747 ], [ -102.281635650779862, 22.147274230548756 ], [ -102.281052052656889, 22.147302906237478 ], [ -102.281020466266867, 22.146652361376379 ], [ -102.280900635958332, 22.145395264371363 ], [ -102.280820961427949, 22.144391480330164 ], [ -102.280754785132387, 22.143557751599655 ], [ -102.28069150816296, 22.142760547811804 ], [ -102.2806018508455, 22.141630983303457 ], [ -102.281457786527582, 22.141539079702422 ], [ -102.281596713065269, 22.141524162428997 ], [ -102.282493636689978, 22.141437922555692 ], [ -102.283416498494191, 22.141385430887951 ], [ -102.284266424838577, 22.141345802476074 ], [ -102.284632140399125, 22.141339800605074 ], [ -102.285221174746368, 22.141327829309883 ], [ -102.286756468336804, 22.14118099784573 ], [ -102.288733457681658, 22.141109458564479 ], [ -102.290389995683014, 22.140983423113344 ], [ -102.292439792676561, 22.14565686842932 ], [ -102.292796848299744, 22.146490779859541 ], [ -102.290568427381459, 22.146665725512097 ] ] ] ] } },
{ "type": "Feature", "properties": { "ID": 5, "ENTIDAD": 1, "MUNICIPIO": 6, "NOMBRE": "PABELLON DE ARTEAGA", "CONTROL": 6, "GEOMETRY1_": null, "ID_2": 403, "ENTIDAD_2": 1, "DISTRITO_F": 1, "DISTRITO_L": 3, "MUNICIPIO_2": 6, "SECCION": 422, "TIPO": 2, "CONTROL_2": 69, "GEOMETRY1__2": null }, "geometry": { "type": "MultiPolygon", "coordinates": [ [ [ [ -102.268868110592166, 22.146100848393175 ], [ -102.268779322877663, 22.145197318413189 ], [ -102.268750562206733, 22.144737533612687 ], [ -102.269985976403476, 22.144688102511857 ], [ -102.270882708536874, 22.144636499132215 ], [ -102.271814756100852, 22.144553667033691 ], [ -102.27266986386401, 22.144470061340289 ], [ -102.273577950050736, 22.144415126680769 ], [ -102.274353085622721, 22.144353282775228 ], [ -102.274487387939217, 22.144346008196944 ], [ -102.274617500840776, 22.144348745547379 ], [ -102.274546913025972, 22.144957227637807 ], [ -102.274669176081233, 22.146313315054044 ], [ -102.274598849545811, 22.146319628542262 ], [ -102.274536541365165, 22.146335956602663 ], [ -102.273754076764064, 22.146390084858513 ], [ -102.272851063863854, 22.146446999153405 ], [ -102.271954781998119, 22.146519297460753 ], [ -102.271051516220552, 22.146589291490699 ], [ -102.27015552834547, 22.146646308201497 ], [ -102.26891218394735, 22.146736783385379 ], [ -102.268868110592166, 22.146100848393175 ] ] ] ] } },
{ "type": "Feature", "properties": { "ID": 5, "ENTIDAD": 1, "MUNICIPIO": 6, "NOMBRE": "PABELLON DE ARTEAGA", "CONTROL": 6, "GEOMETRY1_": null, "ID_2": 404, "ENTIDAD_2": 1, "DISTRITO_F": 1, "DISTRITO_L": 3, "MUNICIPIO_2": 6, "SECCION": 423, "TIPO": 2, "CONTROL_2": 70, "GEOMETRY1__2": null }, "geometry": { "type": "MultiPolygon", "coordinates": [ [ [ [ -102.269652892253148, 22.140807506278552 ], [ -102.269992920253429, 22.140912092543779 ], [ -102.270509650240299, 22.14105065447826 ], [ -102.271512014691851, 22.141277635260408 ], [ -102.271623119834047, 22.139614079232373 ], [ -102.272023759299458, 22.138744247530212 ], [ -102.274148865267634, 22.138996392056477 ], [ -102.274329699096015, 22.14201778987244 ], [ -102.274443853506767, 22.142021649647859 ], [ -102.274460417746369, 22.142711651851666 ], [ -102.274533288773853, 22.143362678714034 ], [ -102.274617500840776, 22.144348745547379 ], [ -102.274487387939217, 22.144346008196944 ], [ -102.274353085622721, 22.144353282775228 ], [ -102.273577950050736, 22.144415126680769 ], [ -102.27266986386401, 22.144470061340289 ], [ -102.271814756100852, 22.144553667033691 ], [ -102.270882708536874, 22.144636499132215 ], [ -102.269985976403476, 22.144688102511857 ], [ -102.269652892253148, 22.140807506278552 ] ] ] ] } },
{ "type": "Feature", "properties": { "ID": 5, "ENTIDAD": 1, "MUNICIPIO": 6, "NOMBRE": "PABELLON DE ARTEAGA", "CONTROL": 6, "GEOMETRY1_": null, "ID_2": 405, "ENTIDAD_2": 1, "DISTRITO_F": 1, "DISTRITO_L": 3, "MUNICIPIO_2": 6, "SECCION": 424, "TIPO": 2, "CONTROL_2": 494, "GEOMETRY1__2": null }, "geometry": { "type": "MultiPolygon", "coordinates": [ [ [ [ -102.281726200353944, 22.139754398243468 ], [ -102.281205779612321, 22.140475821149927 ], [ -102.281174834795266, 22.140683736430002 ], [ -102.281283251454539, 22.141085752272346 ], [ -102.281457786527582, 22.141539079702422 ], [ -102.2806018508455, 22.141630983303457 ], [ -102.280426376259655, 22.141627590495503 ], [ -102.279508887712566, 22.141645620938998 ], [ -102.278922045362449, 22.141692674508441 ], [ -102.278586311690361, 22.141719592974727 ], [ -102.278008200959576, 22.141765943095976 ], [ -102.27748197164631, 22.141806652024169 ], [ -102.277058664669553, 22.14183939765168 ], [ -102.275935900260478, 22.141926245540589 ], [ -102.275383753271996, 22.14196895221961 ], [ -102.274623755523265, 22.142027732311295 ], [ -102.274443853506767, 22.142021649647859 ], [ -102.274329699096015, 22.14201778987244 ], [ -102.274148865267648, 22.138996392056477 ], [ -102.274094118909062, 22.138592107880651 ], [ -102.274309804006222, 22.138566194358408 ], [ -102.275676070555178, 22.138469563295356 ], [ -102.276777203117376, 22.138380822294597 ], [ -102.277728033021489, 22.138307904489139 ], [ -102.277677739322485, 22.13787334386171 ], [ -102.277695118671801, 22.137414175057671 ], [ -102.277605935021938, 22.136528887780003 ], [ -102.278082453105483, 22.136464384865828 ], [ -102.279047830965325, 22.136367783679486 ], [ -102.280286893575052, 22.136257384644011 ], [ -102.282775907872633, 22.136062237639809 ], [ -102.282905151785329, 22.137879208259534 ], [ -102.282900473880005, 22.1380211120014 ], [ -102.282819791594164, 22.138254583534355 ], [ -102.28262288673281, 22.138639021679843 ], [ -102.282488600903349, 22.138739778105663 ], [ -102.281726200353944, 22.139754398243468 ] ] ] ] } },
{ "type": "Feature", "properties": { "ID": 5, "ENTIDAD": 1, "MUNICIPIO": 6, "NOMBRE": "PABELLON DE ARTEAGA", "CONTROL": 6, "GEOMETRY1_": null, "ID_2": 406, "ENTIDAD_2": 1, "DISTRITO_F": 1, "DISTRITO_L": 3, "MUNICIPIO_2": 6, "SECCION": 425, "TIPO": 2, "CONTROL_2": 491, "GEOMETRY1__2": null }, "geometry": { "type": "MultiPolygon", "coordinates": [ [ [ [ -102.273957694940947, 22.136697310386666 ], [ -102.274153725309375, 22.136658296484409 ], [ -102.274351055420894, 22.136656093735539 ], [ -102.275548577587671, 22.136897210776741 ], [ -102.2755501524057, 22.137065984571542 ], [ -102.276685357952729, 22.137057635364229 ], [ -102.277695118671801, 22.137414175057671 ], [ -102.277677739322485, 22.13787334386171 ], [ -102.277728033021489, 22.138307904489139 ], [ -102.276777203117376, 22.138380822294597 ], [ -102.275676070555178, 22.138469563295356 ], [ -102.274309804006222, 22.138566194358408 ], [ -102.274094118909076, 22.138592107880651 ], [ -102.273957694940947, 22.136697310386666 ] ] ] ] } },
{ "type": "Feature", "properties": { "ID": 5, "ENTIDAD": 1, "MUNICIPIO": 6, "NOMBRE": "PABELLON DE ARTEAGA", "CONTROL": 6, "GEOMETRY1_": null, "ID_2": 407, "ENTIDAD_2": 1, "DISTRITO_F": 1, "DISTRITO_L": 3, "MUNICIPIO_2": 6, "SECCION": 426, "TIPO": 4, "CONTROL_2": 493, "GEOMETRY1__2": null }, "geometry": { "type": "MultiPolygon", "coordinates": [ [ [ [ -102.318249783131094, 22.141848458689161 ], [ -102.316697002392587, 22.141587511325483 ], [ -102.309131290542837, 22.140755531008629 ], [ -102.306057652843748, 22.1405776409011 ], [ -102.305590911390922, 22.14059756908642 ], [ -102.305542123696398, 22.140968506487738 ], [ -102.305597103081936, 22.141351049347168 ], [ -102.305466567205087, 22.141626280938006 ], [ -102.305183036080351, 22.142224094516667 ], [ -102.30409371649894, 22.143500768415048 ], [ -102.302225862246786, 22.145696201102307 ], [ -102.300736271505201, 22.147432372015203 ], [ -102.300376400255217, 22.147658408278055 ], [ -102.300253750029029, 22.147730704924438 ], [ -102.298016613023648, 22.146106953709353 ], [ -102.298984302773292, 22.14600439144531 ], [ -102.296484580353152, 22.144141707983398 ], [ -102.29605389021124, 22.144716546271976 ], [ -102.295535223717522, 22.145181644378468 ], [ -102.295463342789844, 22.145218813675818 ], [ -102.29515089832708, 22.145377670924351 ], [ -102.294540795469445, 22.145701969380955 ], [ -102.293872538467909, 22.145575291644398 ], [ -102.292439792676561, 22.14565686842932 ], [ -102.290389995683014, 22.140983423113344 ], [ -102.288733457681658, 22.141109458564479 ], [ -102.286756468336804, 22.14118099784573 ], [ -102.285221174746368, 22.141327829309883 ], [ -102.284632140399125, 22.141339800605074 ], [ -102.284266424838577, 22.141345802476074 ], [ -102.283416498494191, 22.141385430887951 ], [ -102.282493636689978, 22.141437922555692 ], [ -102.281596713065269, 22.141524162428997 ], [ -102.281457786527582, 22.141539079702422 ], [ -102.281283251454539, 22.141085752272346 ], [ -102.281174834795266, 22.140683736430002 ], [ -102.281205779612321, 22.140475821149927 ], [ -102.281726200353944, 22.139754398243468 ], [ -102.282488600903349, 22.138739778105663 ], [ -102.28262288673281, 22.138639021679843 ], [ -102.282819791594164, 22.138254583534355 ], [ -102.282900473880005, 22.1380211120014 ], [ -102.282905151785329, 22.137879208259534 ], [ -102.282775907872633, 22.136062237639809 ], [ -102.280286893575052, 22.136257384644011 ], [ -102.279047830965325, 22.136367783679486 ], [ -102.278082453105483, 22.136464384865828 ], [ -102.277605935021938, 22.136528887780003 ], [ -102.277695118671801, 22.137414175057671 ], [ -102.276685357952729, 22.137057635364229 ], [ -102.2755501524057, 22.137065984571542 ], [ -102.275548577587671, 22.136897210776741 ], [ -102.274351055420894, 22.136656093735539 ], [ -102.274153725309375, 22.136658296484409 ], [ -102.273957694940947, 22.136697310386666 ], [ -102.274094118909062, 22.138592107880562 ], [ -102.274148865267634, 22.138996392056477 ], [ -102.272023759299458, 22.138744247530212 ], [ -102.271623119834047, 22.139614079232373 ], [ -102.271512014691851, 22.141277635260408 ], [ -102.270509650240299, 22.14105065447826 ], [ -102.269992920253429, 22.140912092543779 ], [ -102.269652892253148, 22.140807506278552 ], [ -102.269429582538237, 22.140738819923335 ], [ -102.26850551047238, 22.140454586880551 ], [ -102.268591613837074, 22.140017827079188 ], [ -102.268492404584933, 22.139758900210989 ], [ -102.268213984534157, 22.139336787292638 ], [ -102.267889063299066, 22.138894478711983 ], [ -102.267523131093412, 22.138417504067444 ], [ -102.267187890514748, 22.13797016744455 ], [ -102.266934958084079, 22.13757760432788 ], [ -102.2669022461438, 22.137382893954602 ], [ -102.267041884429929, 22.137166801720412 ], [ -102.267286535985093, 22.136908782551249 ], [ -102.267696360596702, 22.136731195239779 ], [ -102.267951146283238, 22.136487906852448 ], [ -102.268299965159173, 22.136231630908181 ], [ -102.268439787382604, 22.136005832135659 ], [ -102.26846929444487, 22.135826726176191 ], [ -102.268229400306495, 22.135298469756908 ], [ -102.268154305405389, 22.134870054773543 ], [ -102.268227914635972, 22.134565482034144 ], [ -102.268356943598931, 22.134358918622436 ], [ -102.268363778765803, 22.134004686775601 ], [ -102.268332937703477, 22.133712926674189 ], [ -102.268225094242808, 22.133361628170402 ], [ -102.268197998750338, 22.132875768421606 ], [ -102.268380045934691, 22.13262155220545 ], [ -102.268469746145328, 22.132292978328746 ], [ -102.268432479411274, 22.132064213390013 ], [ -102.268073980708195, 22.131742695413276 ], [ -102.267760579429506, 22.131514159304853 ], [ -102.267230490163072, 22.131175203221407 ], [ -102.266960688056585, 22.131117288197967 ], [ -102.266570907736821, 22.131067070346504 ], [ -102.266146449829066, 22.130924043351541 ], [ -102.265989489954919, 22.130688418012252 ], [ -102.261946363313143, 22.127334192748485 ], [ -102.263778047762017, 22.127374625816344 ], [ -102.264992082253812, 22.127588997696797 ], [ -102.26662895841892, 22.12776311453236 ], [ -102.267148535439944, 22.125403322165024 ], [ -102.267235650008871, 22.124760349463635 ], [ -102.267503516946334, 22.122783231614537 ], [ -102.265744747629157, 22.122612493806074 ], [ -102.266344852351992, 22.119395587690253 ], [ -102.261452171605583, 22.119138606977771 ], [ -102.261823176429161, 22.114981756917317 ], [ -102.263400129330705, 22.1140099798757 ], [ -102.263494347015879, 22.113939115841873 ], [ -102.26408167624804, 22.113734679792348 ], [ -102.264727123474302, 22.113654230650504 ], [ -102.265255805132256, 22.113449600717374 ], [ -102.265960070833728, 22.113328068966013 ], [ -102.266605865271259, 22.113165078731921 ], [ -102.267193013516263, 22.113001897366729 ], [ -102.267662312101464, 22.11296214043767 ], [ -102.268476935542935, 22.114491640066319 ], [ -102.269059912453102, 22.115318854209498 ], [ -102.269583032269892, 22.11643474647618 ], [ -102.269458433090222, 22.11816757433871 ], [ -102.270040385663208, 22.119242387296932 ], [ -102.269977390661822, 22.120273868383617 ], [ -102.270677867542304, 22.121060188264174 ], [ -102.271674024696026, 22.121269706955797 ], [ -102.272407488979553, 22.121385660310501 ], [ -102.273127105717435, 22.121499591902328 ], [ -102.273386004840688, 22.121540440621448 ], [ -102.273469558781329, 22.120577657497069 ], [ -102.278429241824654, 22.121030771162946 ], [ -102.278713048284715, 22.121003148561204 ], [ -102.282118068336672, 22.122147376658791 ], [ -102.282123001404358, 22.120521270571491 ], [ -102.284868465590861, 22.121682675714599 ], [ -102.285292938761572, 22.118300058798162 ], [ -102.28987942002567, 22.118872819092278 ], [ -102.299185799372268, 22.120034603807312 ], [ -102.299306554447739, 22.119009015824894 ], [ -102.307189097318755, 22.119141305950276 ], [ -102.307276700875775, 22.116682334897728 ], [ -102.314061510286862, 22.119234464295744 ], [ -102.314584367639156, 22.119412181871038 ], [ -102.318771927640185, 22.120835446338493 ], [ -102.327823538686488, 22.12333953126009 ], [ -102.329197050898586, 22.123347359080391 ], [ -102.330050052893483, 22.123393480585584 ], [ -102.330352624807176, 22.122977091876336 ], [ -102.330988929971383, 22.123496826226443 ], [ -102.331335917405326, 22.123634549192229 ], [ -102.323396616543477, 22.1329758326277 ], [ -102.321779110895918, 22.134520104960597 ], [ -102.32180996638759, 22.134874876539499 ], [ -102.321894555845617, 22.135847469623286 ], [ -102.322068146495667, 22.136016486115956 ], [ -102.320633062590758, 22.141083921987768 ], [ -102.320740120397616, 22.142039816407447 ], [ -102.318249783131094, 22.141848458689161 ] ] ] ] } },
{ "type": "Feature", "properties": { "ID": 5, "ENTIDAD": 1, "MUNICIPIO": 6, "NOMBRE": "PABELLON DE ARTEAGA", "CONTROL": 6, "GEOMETRY1_": null, "ID_2": 408, "ENTIDAD_2": 1, "DISTRITO_F": 1, "DISTRITO_L": 3, "MUNICIPIO_2": 6, "SECCION": 427, "TIPO": 4, "CONTROL_2": 64, "GEOMETRY1__2": null }, "geometry": { "type": "MultiPolygon", "coordinates": [ [ [ [ -102.236241369747219, 22.136751523039383 ], [ -102.236949907689294, 22.134527962546159 ], [ -102.237077992350123, 22.133781052812054 ], [ -102.237087906596514, 22.133732963093415 ], [ -102.237633462536351, 22.131086640579461 ], [ -102.23866844817357, 22.126262460126444 ], [ -102.230735687567943, 22.124899820723869 ], [ -102.226209717519808, 22.12408278816299 ], [ -102.2245285940473, 22.123782310363346 ], [ -102.223476338904845, 22.123673777570993 ], [ -102.221853014694062, 22.123388516397235 ], [ -102.221017509762362, 22.123241689373714 ], [ -102.217875583514555, 22.122713404234585 ], [ -102.218230449742904, 22.118667330342451 ], [ -102.218398086623466, 22.11675585054045 ], [ -102.21856368483239, 22.114949265352497 ], [ -102.218671435935519, 22.113591653524789 ], [ -102.219042291920744, 22.109570564850685 ], [ -102.219232438659276, 22.106492378885793 ], [ -102.219284718752462, 22.104654729620279 ], [ -102.219345607435287, 22.103774747816445 ], [ -102.219158598557073, 22.103409478554319 ], [ -102.218954403048912, 22.103261174183043 ], [ -102.218696309609342, 22.103220571329071 ], [ -102.218294109480951, 22.103267167482677 ], [ -102.218049528495527, 22.103197483722742 ], [ -102.217894479473969, 22.10318277302045 ], [ -102.21766061356891, 22.103227063421009 ], [ -102.217377346968064, 22.103149822960535 ], [ -102.217182292773657, 22.103194774103244 ], [ -102.216923016210615, 22.103214492616189 ], [ -102.216743513931092, 22.103126950874877 ], [ -102.216537417218404, 22.103075162155136 ], [ -102.216492747154504, 22.103086234796024 ], [ -102.21635151035558, 22.103313369885473 ], [ -102.216297619666662, 22.103421079813216 ], [ -102.216270077344873, 22.103505092207705 ], [ -102.216249562000769, 22.103594324551661 ], [ -102.216278355594596, 22.103923183938857 ], [ -102.216399117412678, 22.10422682875322 ], [ -102.216357045829341, 22.104644793225994 ], [ -102.193888476554633, 22.100912236620683 ], [ -102.192267574420498, 22.100642841811464 ], [ -102.195412341961543, 22.095139278523277 ], [ -102.196185807393675, 22.090137253519003 ], [ -102.196732569223158, 22.089757378210258 ], [ -102.196770518796768, 22.086510350775011 ], [ -102.197318648070322, 22.08271808584275 ], [ -102.197649133717988, 22.080557485243478 ], [ -102.19809256044698, 22.077658406143176 ], [ -102.198467095487928, 22.075131301042326 ], [ -102.198897253221546, 22.072375968579788 ], [ -102.199037984772744, 22.071474493844764 ], [ -102.199494373865463, 22.068971956151088 ], [ -102.19978632023205, 22.0673007611956 ], [ -102.200360416281441, 22.064014282651438 ], [ -102.20069703023654, 22.064032602266753 ], [ -102.204771977510347, 22.063813514203158 ], [ -102.205468533709833, 22.063781369989723 ], [ -102.205602422305077, 22.063928231329093 ], [ -102.205755199397331, 22.064041393405457 ], [ -102.205980243067017, 22.064189812269866 ], [ -102.206190396555826, 22.064340025514049 ], [ -102.206294242892895, 22.064542709263584 ], [ -102.206423066136239, 22.064846278915446 ], [ -102.206599091408194, 22.065178358198768 ], [ -102.206777389913341, 22.065385509235877 ], [ -102.20699515598838, 22.065440257934565 ], [ -102.20706298220523, 22.065413337646138 ], [ -102.207344380123885, 22.065301650123242 ], [ -102.207616413920576, 22.06491510197991 ], [ -102.20806113690756, 22.064484996051227 ], [ -102.20838920276735, 22.064252019248823 ], [ -102.208596015439241, 22.064016962641997 ], [ -102.21050667489034, 22.064185099342144 ], [ -102.211795654006679, 22.064105334701797 ], [ -102.214026971392499, 22.06381776241474 ], [ -102.215154726056141, 22.063462387248968 ], [ -102.215820822359674, 22.063319254222733 ], [ -102.217565916694809, 22.063117240178467 ], [ -102.21898225669517, 22.063295087526019 ], [ -102.220649526854174, 22.063504427660035 ], [ -102.220898870343049, 22.063555072997168 ], [ -102.221727165628138, 22.063915411166473 ], [ -102.222133338085712, 22.064128368861823 ], [ -102.223141655193018, 22.06515132629573 ], [ -102.223392166420069, 22.065393637817664 ], [ -102.22352965950212, 22.065482531557052 ], [ -102.223783967567996, 22.065530133864502 ], [ -102.225727836928343, 22.065801177826692 ], [ -102.226118215338801, 22.065892202982653 ], [ -102.226302694102969, 22.066070626179965 ], [ -102.226414872213226, 22.066267293711697 ], [ -102.226796075820744, 22.067175921525777 ], [ -102.227239079775259, 22.067935320841897 ], [ -102.227985874982807, 22.068999067816652 ], [ -102.228142761443976, 22.069283060673015 ], [ -102.228347317790508, 22.069502940112262 ], [ -102.229264441280449, 22.070208603735235 ], [ -102.231637063737963, 22.072613377646253 ], [ -102.235242694539608, 22.077420771358767 ], [ -102.235423182021492, 22.077496374135329 ], [ -102.223362034533579, 22.086037340713325 ], [ -102.225027107200845, 22.087069656650208 ], [ -102.22543456266952, 22.087731321812313 ], [ -102.225547556770024, 22.088680833432605 ], [ -102.226012909473496, 22.089507762257242 ], [ -102.226420375492324, 22.090169425984953 ], [ -102.226946040108729, 22.090625165236258 ], [ -102.227529786589699, 22.091204901587837 ], [ -102.228137487768947, 22.091831961752401 ], [ -102.228874122482011, 22.092158645451462 ], [ -102.229808954397313, 22.092904645216084 ], [ -102.23015928826446, 22.093235976043353 ], [ -102.230681288024016, 22.094517018558044 ], [ -102.231555850713022, 22.095634200949732 ], [ -102.232021442653519, 22.096419852313613 ], [ -102.232545676322303, 22.097205703039162 ], [ -102.232717539972342, 22.09811414897213 ], [ -102.233535706299207, 22.098735935400612 ], [ -102.234934940535894, 22.100556420909882 ], [ -102.235808288644421, 22.101962447504597 ], [ -102.236507747631208, 22.102913950215342 ], [ -102.236737181523225, 22.104070188519106 ], [ -102.237028003021919, 22.104607638694958 ], [ -102.237612577093714, 22.105022285016538 ], [ -102.238432082186918, 22.105355191858798 ], [ -102.239659707636164, 22.106225938013392 ], [ -102.240361578995731, 22.106640971963685 ], [ -102.240693034710688, 22.106716378766389 ], [ -102.241650413670655, 22.106934180162032 ], [ -102.242403764954005, 22.107172077169022 ], [ -102.242680154634186, 22.107223657657283 ], [ -102.243407662372718, 22.107394017228899 ], [ -102.243554363864504, 22.107407418717088 ], [ -102.243876614357688, 22.107436856506482 ], [ -102.24452203450484, 22.107356485535462 ], [ -102.24546084308507, 22.107235826149438 ], [ -102.246106622944666, 22.107072916575046 ], [ -102.246590124360907, 22.106870758863582 ], [ -102.246694120473649, 22.106827276573348 ], [ -102.246571248845171, 22.108106134090889 ], [ -102.246626104617334, 22.108972917434336 ], [ -102.250966545830394, 22.108781007037418 ], [ -102.250173893168153, 22.112039743860553 ], [ -102.251648388886494, 22.111974560105033 ], [ -102.2522769912418, 22.111940134279759 ], [ -102.25480552117142, 22.112320246938591 ], [ -102.258254141377193, 22.112580752295621 ], [ -102.25814320296297, 22.113321538007302 ], [ -102.259493952351633, 22.113411736938787 ], [ -102.262251523417802, 22.11068995130675 ], [ -102.26202966355055, 22.111483005696456 ], [ -102.261957144815483, 22.112448130827847 ], [ -102.261878321777075, 22.113739447080299 ], [ -102.261823176429161, 22.114981756917317 ], [ -102.261452171605583, 22.119138606977771 ], [ -102.266344852351992, 22.119395587690253 ], [ -102.265744747629157, 22.122612493806074 ], [ -102.267503516946334, 22.122783231614537 ], [ -102.267235650008871, 22.124760349463635 ], [ -102.267148535439944, 22.125403322165024 ], [ -102.26662895841892, 22.12776311453236 ], [ -102.264992082253812, 22.127588997696797 ], [ -102.263778047762017, 22.127374625816344 ], [ -102.261946363313143, 22.127334192748485 ], [ -102.265989489954919, 22.130688418012252 ], [ -102.266146449829066, 22.130924043351541 ], [ -102.266570907736821, 22.131067070346504 ], [ -102.266960688056585, 22.131117288197967 ], [ -102.267230490163072, 22.131175203221407 ], [ -102.267760579429506, 22.131514159304853 ], [ -102.268073980708195, 22.131742695413276 ], [ -102.268432479411274, 22.132064213390013 ], [ -102.268469746145328, 22.132292978328746 ], [ -102.268380045934691, 22.13262155220545 ], [ -102.268197998750338, 22.132875768421606 ], [ -102.268225094242808, 22.133361628170402 ], [ -102.268332937703477, 22.133712926674189 ], [ -102.268363778765803, 22.134004686775601 ], [ -102.268356943598931, 22.134358918622436 ], [ -102.268227914635972, 22.134565482034144 ], [ -102.268154305405389, 22.134870054773543 ], [ -102.268229400306495, 22.135298469756908 ], [ -102.26846929444487, 22.135826726176191 ], [ -102.268439787382604, 22.136005832135659 ], [ -102.268299965159173, 22.136231630908181 ], [ -102.267951146283238, 22.136487906852448 ], [ -102.267696360596702, 22.136731195239779 ], [ -102.267286535985093, 22.136908782551249 ], [ -102.267041884429929, 22.137166801720412 ], [ -102.2669022461438, 22.137382893954602 ], [ -102.266934958084079, 22.13757760432788 ], [ -102.267187890514748, 22.13797016744455 ], [ -102.267523131093412, 22.138417504067444 ], [ -102.267889063299066, 22.138894478711983 ], [ -102.268213984534157, 22.139336787292638 ], [ -102.268492404584933, 22.139758900210989 ], [ -102.268591613837074, 22.140017827079188 ], [ -102.26850551047238, 22.140454586880551 ], [ -102.269429582538237, 22.140738819923335 ], [ -102.269652892253148, 22.140807506278552 ], [ -102.269985976403476, 22.144688102511857 ], [ -102.268750562206733, 22.144737533612687 ], [ -102.268779322877663, 22.145197318413189 ], [ -102.268868110592152, 22.146100848393175 ], [ -102.266767655718397, 22.146220236991326 ], [ -102.265166124314391, 22.146107189451577 ], [ -102.262322718283016, 22.145875922780977 ], [ -102.261571447640975, 22.145824371917982 ], [ -102.257715742955682, 22.144224479354502 ], [ -102.258578067250895, 22.141624890741451 ], [ -102.257496372240368, 22.141373101064595 ], [ -102.258040321567151, 22.140414479578805 ], [ -102.256056014891769, 22.139951620204524 ], [ -102.251507100372464, 22.144692485363514 ], [ -102.250311400125312, 22.144439984903439 ], [ -102.248973809008731, 22.144144217244037 ], [ -102.247688144052503, 22.143853842166639 ], [ -102.24572383035887, 22.143437185388031 ], [ -102.245853775533931, 22.142593334146028 ], [ -102.244041469343443, 22.142292190935294 ], [ -102.243966999435429, 22.142758019759377 ], [ -102.240272664852455, 22.142167519789815 ], [ -102.239922832310995, 22.144456414045603 ], [ -102.234408236286114, 22.143292375912825 ], [ -102.236241369747219, 22.136751523039383 ] ] ] ] } },
{ "type": "Feature", "properties": { "ID": 5, "ENTIDAD": 1, "MUNICIPIO": 6, "NOMBRE": "PABELLON DE ARTEAGA", "CONTROL": 6, "GEOMETRY1_": null, "ID_2": 409, "ENTIDAD_2": 1, "DISTRITO_F": 1, "DISTRITO_L": 3, "MUNICIPIO_2": 6, "SECCION": 428, "TIPO": 4, "CONTROL_2": 549, "GEOMETRY1__2": null }, "geometry": { "type": "MultiPolygon", "coordinates": [ [ [ [ -102.235603669714777, 22.077571976731651 ], [ -102.237597045575285, 22.077773836693542 ], [ -102.239276455044077, 22.077910917706607 ], [ -102.24081053443507, 22.078041447890797 ], [ -102.241899933064758, 22.078079597065248 ], [ -102.242394451977432, 22.07816482498329 ], [ -102.243403200502101, 22.078254528550328 ], [ -102.244700322723062, 22.078394990402458 ], [ -102.246795655237705, 22.07846935462241 ], [ -102.249942011022398, 22.078690811252681 ], [ -102.253143986977776, 22.078853663681127 ], [ -102.255219528419104, 22.078990975795325 ], [ -102.25975015719672, 22.079214763077164 ], [ -102.260129507173076, 22.079296704939903 ], [ -102.260598674576485, 22.079473875449672 ], [ -102.261233073532566, 22.079490294999903 ], [ -102.262155854261451, 22.079581684211867 ], [ -102.262501243188595, 22.079592171354204 ], [ -102.263534043472859, 22.079623526209058 ], [ -102.265168511991718, 22.079739873547634 ], [ -102.2683991104429, 22.079969790837517 ], [ -102.268548840046464, 22.079980445333636 ], [ -102.270586446521492, 22.083125869230599 ], [ -102.270711527829476, 22.083318950603026 ], [ -102.271245308406151, 22.084107988079314 ], [ -102.271478800935341, 22.084462849852336 ], [ -102.271969184222854, 22.085208127802016 ], [ -102.272354413183223, 22.085843019728994 ], [ -102.272483261955358, 22.086112053605138 ], [ -102.272612111168741, 22.086381087421469 ], [ -102.272806958220741, 22.086823401992802 ], [ -102.272856050362819, 22.086956530582949 ], [ -102.272982650169098, 22.087299844250357 ], [ -102.273130309620484, 22.087793024234223 ], [ -102.273213620008292, 22.088098457880029 ], [ -102.273633600524391, 22.088139335376617 ], [ -102.274409524239047, 22.088247413924883 ], [ -102.274958756367042, 22.08824670763941 ], [ -102.275469177860202, 22.088308165036928 ], [ -102.276135376072787, 22.088398694873383 ], [ -102.276377600979757, 22.088426258106502 ], [ -102.276588444218746, 22.088440127222544 ], [ -102.276832815223685, 22.088444200790153 ], [ -102.2772660154275, 22.088451421167164 ], [ -102.277565322596843, 22.088487498758724 ], [ -102.277698023441019, 22.088520790610151 ], [ -102.2778753489916, 22.088544462739538 ], [ -102.278063383635825, 22.088589039483129 ], [ -102.278195280337641, 22.088663761272045 ], [ -102.278424366731656, 22.088794617171615 ], [ -102.278718154637346, 22.088984198070975 ], [ -102.279087028291599, 22.089016818905094 ], [ -102.279301149078975, 22.088967431633129 ], [ -102.279516528483285, 22.08885188681489 ], [ -102.279761088471787, 22.088697117027511 ], [ -102.28012082980301, 22.088464843385452 ], [ -102.280482335517917, 22.088139943242595 ], [ -102.280695849119411, 22.087863365835901 ], [ -102.28097195757374, 22.087803940601102 ], [ -102.281155637710398, 22.087859941935893 ], [ -102.281339561797552, 22.08790271328272 ], [ -102.281525007061475, 22.087866088565136 ], [ -102.281655153116716, 22.087749122333118 ], [ -102.281957554423897, 22.087754153671447 ], [ -102.282191716934577, 22.08793012555099 ], [ -102.282358141963641, 22.088144680963993 ], [ -102.282427402954411, 22.08823849268526 ], [ -102.282496664033062, 22.088332304385382 ], [ -102.283141273732383, 22.087323792170036 ], [ -102.283349282772065, 22.086850723502319 ], [ -102.284065902317963, 22.085049190547462 ], [ -102.284350254722341, 22.084299414249049 ], [ -102.284533989375831, 22.083687724232263 ], [ -102.284989861887297, 22.083629112166882 ], [ -102.284962927640095, 22.08334400014764 ], [ -102.284930979155533, 22.08299277179508 ], [ -102.284603728953897, 22.083013801659536 ], [ -102.28451390734449, 22.082509313061443 ], [ -102.287158235890871, 22.08287056057555 ], [ -102.287354337612015, 22.083019425262876 ], [ -102.287581134632035, 22.083049667034032 ], [ -102.287751103788651, 22.083078956209974 ], [ -102.287907626791252, 22.083068320307259 ], [ -102.28834651139276, 22.083155025757879 ], [ -102.289182660129072, 22.083274798054777 ], [ -102.29322189946447, 22.083844757891054 ], [ -102.294285122315031, 22.083981500130097 ], [ -102.294484008736589, 22.083984793412228 ], [ -102.294367255166307, 22.083400439515589 ], [ -102.294215689022522, 22.082405157043421 ], [ -102.294100724335237, 22.080980781913397 ], [ -102.294055473409784, 22.076644583451653 ], [ -102.293929483204849, 22.07505406033912 ], [ -102.293832225332451, 22.074192043591278 ], [ -102.293683448959982, 22.073051206351753 ], [ -102.293542673069624, 22.071450481162 ], [ -102.293546878169664, 22.070484254305988 ], [ -102.293539977738092, 22.070100273660763 ], [ -102.293557456874396, 22.069655635723223 ], [ -102.293285971725638, 22.069262138591721 ], [ -102.293174096095399, 22.069167625919786 ], [ -102.293062220615823, 22.06907311318529 ], [ -102.292795607992034, 22.06889662075854 ], [ -102.292513269685912, 22.06879928935972 ], [ -102.292031814929217, 22.0687118934325 ], [ -102.291082353763457, 22.068577031183157 ], [ -102.29028170577709, 22.068466882296917 ], [ -102.289219119042457, 22.068303666558833 ], [ -102.288553251870411, 22.068199959879557 ], [ -102.288113664044701, 22.068152957924447 ], [ -102.287702735516945, 22.068093196343831 ], [ -102.287462516987432, 22.06802302323398 ], [ -102.287152284401159, 22.067898743312828 ], [ -102.286790450255438, 22.067648805028934 ], [ -102.286522926413468, 22.067372058747381 ], [ -102.286316171753555, 22.06703770696711 ], [ -102.286195553548353, 22.066803399577534 ], [ -102.286160512962454, 22.066731550717702 ], [ -102.285645928644172, 22.06567641480914 ], [ -102.285359566684136, 22.065790792879145 ], [ -102.284412412034754, 22.065536809027293 ], [ -102.283724736077218, 22.06508856816485 ], [ -102.283699872783075, 22.064902835382455 ], [ -102.283716099683247, 22.064797206671358 ], [ -102.283733338519824, 22.064638650136821 ], [ -102.283750324179493, 22.064493332317024 ], [ -102.283724701855107, 22.064347297654955 ], [ -102.283656461654118, 22.064200564031669 ], [ -102.28351024236953, 22.064121674364529 ], [ -102.283477879940179, 22.063879911431723 ], [ -102.283439057650639, 22.063680712827811 ], [ -102.283364907414494, 22.063444998967167 ], [ -102.283348827778781, 22.062979216321885 ], [ -102.283312446695149, 22.062871160934385 ], [ -102.283316242020931, 22.062672670358737 ], [ -102.28330649052765, 22.062492830626848 ], [ -102.283310551171837, 22.062280460592117 ], [ -102.283232176692565, 22.062047411787642 ], [ -102.283133842220153, 22.061775403881654 ], [ -102.283034769682416, 22.061542011136805 ], [ -102.282979688241923, 22.061174166709595 ], [ -102.283030003427086, 22.06082070149656 ], [ -102.283093526581581, 22.060635309726823 ], [ -102.283182226362712, 22.060327781682009 ], [ -102.283207363827074, 22.060096452545316 ], [ -102.283214377065448, 22.059729630674909 ], [ -102.283343005322891, 22.059500029722912 ], [ -102.28351413691523, 22.059213188906149 ], [ -102.283787292303515, 22.05900528829228 ], [ -102.284060077990915, 22.058816690241439 ], [ -102.284208305085244, 22.058645341575435 ], [ -102.284380171707937, 22.058319884295106 ], [ -102.284614141137354, 22.057995466888766 ], [ -102.284882870050893, 22.057582112089325 ], [ -102.285051297199331, 22.057347320398527 ], [ -102.285166525380319, 22.057111212128213 ], [ -102.285218359852848, 22.05707239784136 ], [ -102.285435135126335, 22.056869705566321 ], [ -102.285652828277264, 22.056619427571828 ], [ -102.285905174242075, 22.056337993517534 ], [ -102.286124247179018, 22.055936757088574 ], [ -102.286361907660037, 22.055693994887495 ], [ -102.286570021388371, 22.055473562965972 ], [ -102.286890949821128, 22.055263911951997 ], [ -102.287226563924747, 22.055037722140717 ], [ -102.287602098300582, 22.05488945774162 ], [ -102.287978000458395, 22.054721880194744 ], [ -102.288208272276449, 22.054590505947338 ], [ -102.288604143715077, 22.054461885503983 ], [ -102.288941106431935, 22.054346044583522 ], [ -102.289270565827778, 22.054260492653015 ], [ -102.289522637708004, 22.05407154974024 ], [ -102.289691550878587, 22.053900528782837 ], [ -102.289965423338842, 22.053654009340857 ], [ -102.290161653105372, 22.053468026320029 ], [ -102.290357882356872, 22.053282043007592 ], [ -102.290626345693042, 22.053532067581603 ], [ -102.290958874574031, 22.05357955188104 ], [ -102.291403540453075, 22.053654087521746 ], [ -102.291736150012071, 22.05369737393718 ], [ -102.292011449395062, 22.053784526772429 ], [ -102.292236867865498, 22.053776907233374 ], [ -102.292492827172154, 22.053764117257241 ], [ -102.292769688176307, 22.05377995119159 ], [ -102.293122965587145, 22.053445358275713 ], [ -102.293525260165822, 22.053076471344632 ], [ -102.294064199454027, 22.052634104572199 ], [ -102.294731026696013, 22.052062602995726 ], [ -102.29535300657048, 22.05159792569685 ], [ -102.296206645079621, 22.050891227239315 ], [ -102.296960411285298, 22.050313413861851 ], [ -102.297297429853941, 22.050199792973697 ], [ -102.297614463067362, 22.050176652013 ], [ -102.298020312354666, 22.0502855179591 ], [ -102.298904080199833, 22.050555518073427 ], [ -102.300133163876296, 22.050916348411814 ], [ -102.300143010031647, 22.050782777956641 ], [ -102.300165931330412, 22.050589348724113 ], [ -102.298483925930213, 22.04845899449386 ], [ -102.298692137104553, 22.045998301017722 ], [ -102.298639422107954, 22.04594012531517 ], [ -102.298556234528149, 22.04586712013997 ], [ -102.298357900298825, 22.045785046028673 ], [ -102.298135963424301, 22.045731243661223 ], [ -102.297929680889865, 22.045663373183604 ], [ -102.29763367465722, 22.045622411502453 ], [ -102.297493712916278, 22.045543882284971 ], [ -102.297496570707253, 22.045393507454953 ], [ -102.297498339942464, 22.04530041096745 ], [ -102.297539492342338, 22.045157827275435 ], [ -102.297557177940973, 22.045036350009173 ], [ -102.297622195318354, 22.044851181414174 ], [ -102.297625189037632, 22.044693641120723 ], [ -102.297701303780642, 22.044329571970046 ], [ -102.297696475100054, 22.044179070158922 ], [ -102.297652263644736, 22.044078055629193 ], [ -102.29752828384315, 22.043897953419211 ], [ -102.297483885339545, 22.043670228456126 ], [ -102.297582477973492, 22.043173467987796 ], [ -102.297874133172428, 22.042921285806511 ], [ -102.298273739569296, 22.042648470526185 ], [ -102.299230180003136, 22.043579665075335 ], [ -102.300885810383022, 22.045396519773497 ], [ -102.303127597154884, 22.047873059378723 ], [ -102.303483330878208, 22.048304566078393 ], [ -102.304411158679699, 22.049430010920908 ], [ -102.306195047323584, 22.049673082396634 ], [ -102.318000791613684, 22.051446825883094 ], [ -102.317379824827498, 22.051603299291589 ], [ -102.316137807696023, 22.058348717433564 ], [ -102.315316836503555, 22.062806953916809 ], [ -102.311019713176862, 22.073837294591744 ], [ -102.310982508270897, 22.073933524604733 ], [ -102.31050595394882, 22.075166111920883 ], [ -102.309083896286452, 22.078940677676375 ], [ -102.308875486756534, 22.082275244557643 ], [ -102.308753971193212, 22.08350326014568 ], [ -102.308492341836683, 22.092815548769583 ], [ -102.308401148059716, 22.095105416943507 ], [ -102.308172417752218, 22.100848014681464 ], [ -102.307922195194223, 22.103558049342276 ], [ -102.304117860174529, 22.103872252288436 ], [ -102.304048726539946, 22.103648869109737 ], [ -102.303286122321325, 22.101184718439207 ], [ -102.303133531754199, 22.100691654295403 ], [ -102.297973814492337, 22.100637992581543 ], [ -102.297827993354574, 22.100021543126193 ], [ -102.294964622432801, 22.10069496103938 ], [ -102.295597560444264, 22.101306131691469 ], [ -102.295390785974035, 22.102383943487766 ], [ -102.295533609374601, 22.103908049289132 ], [ -102.294980791355542, 22.104208313303957 ], [ -102.293560367750345, 22.10429439501176 ], [ -102.29377374505701, 22.10460141439032 ], [ -102.294065637485389, 22.104792553339365 ], [ -102.294299330274228, 22.104845026465146 ], [ -102.294472041291854, 22.104904588838131 ], [ -102.294593232679105, 22.104930897158759 ], [ -102.294791085868866, 22.105039476146551 ], [ -102.295238679278043, 22.105852058532765 ], [ -102.295892898180384, 22.106850691635362 ], [ -102.296214632287601, 22.107256478244743 ], [ -102.297381532491841, 22.107662909353927 ], [ -102.298434462882327, 22.108788271841256 ], [ -102.299595957590199, 22.110983314431614 ], [ -102.299891692356141, 22.114039048046678 ], [ -102.299306554447739, 22.119009015824894 ], [ -102.299185799372268, 22.120034603807312 ], [ -102.28987942002567, 22.118872819092278 ], [ -102.285292938761572, 22.118300058798162 ], [ -102.284868465590861, 22.121682675714599 ], [ -102.282123001404358, 22.120521270571491 ], [ -102.282118068336672, 22.122147376658791 ], [ -102.278713048284715, 22.121003148561204 ], [ -102.278429241824654, 22.121030771162946 ], [ -102.273469558781329, 22.120577657497069 ], [ -102.273386004840688, 22.121540440621448 ], [ -102.273127105717435, 22.121499591902328 ], [ -102.272407488979553, 22.121385660310501 ], [ -102.271674024696026, 22.121269706955797 ], [ -102.270677867542304, 22.121060188264174 ], [ -102.269977390661822, 22.120273868383617 ], [ -102.270040385663208, 22.119242387296932 ], [ -102.269458433090222, 22.11816757433871 ], [ -102.269583032269892, 22.11643474647618 ], [ -102.269059912453102, 22.115318854209498 ], [ -102.268476935542935, 22.114491640066319 ], [ -102.267662312101464, 22.11296214043767 ], [ -102.267193013516263, 22.113001897366729 ], [ -102.266605865271259, 22.113165078731921 ], [ -102.265960070833728, 22.113328068966013 ], [ -102.265255805132256, 22.113449600717374 ], [ -102.264727123474302, 22.113654230650504 ], [ -102.26408167624804, 22.113734679792348 ], [ -102.263494347015879, 22.113939115841873 ], [ -102.263400129330705, 22.1140099798757 ], [ -102.261823176429161, 22.114981756917317 ], [ -102.261878321777075, 22.113739447080299 ], [ -102.261957144815483, 22.112448130827847 ], [ -102.26202966355055, 22.111483005696456 ], [ -102.262251523417802, 22.11068995130675 ], [ -102.259493952351633, 22.113411736938701 ], [ -102.25814320296297, 22.113321538007302 ], [ -102.258254141377193, 22.112580752295621 ], [ -102.25480552117142, 22.112320246938591 ], [ -102.2522769912418, 22.111940134279759 ], [ -102.251648388886494, 22.111974560105033 ], [ -102.250173893168153, 22.112039743860553 ], [ -102.250966545830394, 22.108781007037418 ], [ -102.246626104617334, 22.108972917434336 ], [ -102.246571248845171, 22.108106134090889 ], [ -102.246694120473649, 22.106827276573348 ], [ -102.246590124360907, 22.106870758863582 ], [ -102.246106622944666, 22.107072916575046 ], [ -102.24546084308507, 22.107235826149438 ], [ -102.24452203450484, 22.107356485535462 ], [ -102.243876614357688, 22.107436856506482 ], [ -102.243554363864504, 22.107407418717088 ], [ -102.243407662372732, 22.107394017228899 ], [ -102.242680154634186, 22.107223657657283 ], [ -102.24240376495402, 22.107172077169025 ], [ -102.241650413670655, 22.106934180162032 ], [ -102.240693034710688, 22.106716378766389 ], [ -102.240361578995731, 22.106640971963685 ], [ -102.239659707636164, 22.106225938013392 ], [ -102.238432082186918, 22.105355191858798 ], [ -102.237612577093714, 22.105022285016538 ], [ -102.237028003021919, 22.104607638694958 ], [ -102.236737181523225, 22.104070188519106 ], [ -102.236507747631208, 22.102913950215342 ], [ -102.235808288644421, 22.101962447504597 ], [ -102.234934940535894, 22.100556420909882 ], [ -102.233535706299207, 22.098735935400612 ], [ -102.232717539972342, 22.09811414897213 ], [ -102.232545676322303, 22.097205703039162 ], [ -102.232021442653519, 22.096419852313613 ], [ -102.231555850713022, 22.095634200949732 ], [ -102.230681288024016, 22.094517018558044 ], [ -102.23015928826446, 22.093235976043264 ], [ -102.229808954397313, 22.092904645216084 ], [ -102.228874122482011, 22.092158645451462 ], [ -102.228137487768947, 22.091831961752401 ], [ -102.227529786589699, 22.091204901587837 ], [ -102.226946040108729, 22.090625165236258 ], [ -102.226420375492339, 22.090169425984953 ], [ -102.226012909473496, 22.089507762257242 ], [ -102.225547556770024, 22.088680833432605 ], [ -102.22543456266952, 22.087731321812313 ], [ -102.225027107200845, 22.087069656650208 ], [ -102.223362034533579, 22.086037340713236 ], [ -102.235423182021492, 22.077496374135329 ], [ -102.235603669714777, 22.077571976731651 ] ] ] ] } },
{ "type": "Feature", "properties": { "ID": 5, "ENTIDAD": 1, "MUNICIPIO": 6, "NOMBRE": "PABELLON DE ARTEAGA", "CONTROL": 6, "GEOMETRY1_": null, "ID_2": 410, "ENTIDAD_2": 1, "DISTRITO_F": 1, "DISTRITO_L": 3, "MUNICIPIO_2": 6, "SECCION": 429, "TIPO": 2, "CONTROL_2": 63, "GEOMETRY1__2": null }, "geometry": { "type": "MultiPolygon", "coordinates": [ [ [ [ -102.299891692356141, 22.114039048046678 ], [ -102.299595957590199, 22.110983314431614 ], [ -102.298434462882327, 22.108788271841256 ], [ -102.297381532491841, 22.107662909353927 ], [ -102.296214632287601, 22.107256478244743 ], [ -102.295892898180384, 22.106850691635362 ], [ -102.295238679278043, 22.105852058532765 ], [ -102.294791085868866, 22.105039476146551 ], [ -102.294593232679105, 22.104930897158759 ], [ -102.294472041291854, 22.104904588838131 ], [ -102.294299330274228, 22.104845026465146 ], [ -102.294065637485389, 22.104792553339365 ], [ -102.29377374505701, 22.10460141439032 ], [ -102.293560367750345, 22.10429439501176 ], [ -102.294980791355542, 22.104208313303957 ], [ -102.295533609374601, 22.103908049289132 ], [ -102.295390785974035, 22.102383943487766 ], [ -102.295597560444264, 22.101306131691469 ], [ -102.294964622432801, 22.10069496103938 ], [ -102.297827993354574, 22.100021543126193 ], [ -102.297973814492337, 22.100637992581543 ], [ -102.303133531754199, 22.100691654295403 ], [ -102.30328612232131, 22.101184718439207 ], [ -102.304048726539946, 22.103648869109737 ], [ -102.304117860174529, 22.103872252288436 ], [ -102.307922195194223, 22.103558049342276 ], [ -102.308172417752218, 22.100848014681464 ], [ -102.313959780581129, 22.100865147301249 ], [ -102.317875138027233, 22.101183544108494 ], [ -102.318125435444244, 22.106018103273328 ], [ -102.314783998326902, 22.105678243575486 ], [ -102.314253313265667, 22.106419530505647 ], [ -102.312671045407768, 22.106126022724812 ], [ -102.308504239401074, 22.106897864197716 ], [ -102.307665548939056, 22.10783884027212 ], [ -102.307379764278423, 22.109042767458234 ], [ -102.307581620516387, 22.109417171232359 ], [ -102.307881463990483, 22.109851342116855 ], [ -102.307933963486079, 22.110094186456354 ], [ -102.30771485049155, 22.111625222193211 ], [ -102.307431537620602, 22.112363822950666 ], [ -102.307325707989847, 22.114441470246497 ], [ -102.303785042418326, 22.113858193546506 ], [ -102.302080009921681, 22.114926062410824 ], [ -102.299891692356141, 22.114039048046678 ] ] ] ] } },
{ "type": "Feature", "properties": { "ID": 5, "ENTIDAD": 1, "MUNICIPIO": 6, "NOMBRE": "PABELLON DE ARTEAGA", "CONTROL": 6, "GEOMETRY1_": null, "ID_2": 411, "ENTIDAD_2": 1, "DISTRITO_F": 1, "DISTRITO_L": 3, "MUNICIPIO_2": 6, "SECCION": 430, "TIPO": 4, "CONTROL_2": 533, "GEOMETRY1__2": null }, "geometry": { "type": "MultiPolygon", "coordinates": [ [ [ [ -102.313352189097017, 22.07532576664558 ], [ -102.32505368223886, 22.076228816108099 ], [ -102.333025579983087, 22.076993333419768 ], [ -102.337467673184662, 22.077322611765634 ], [ -102.339014703347232, 22.07743725629128 ], [ -102.340074044177797, 22.073487027411893 ], [ -102.339876965845264, 22.072131192379874 ], [ -102.339931646789495, 22.07203361009455 ], [ -102.340773898704683, 22.072161666507476 ], [ -102.342181379112532, 22.072375652133111 ], [ -102.34398129555872, 22.07264927957053 ], [ -102.346150150997261, 22.07300889149904 ], [ -102.350605399847169, 22.073569697270152 ], [ -102.35203132923229, 22.070395109012473 ], [ -102.353144617463286, 22.067861003657519 ], [ -102.353030598866638, 22.066872153912076 ], [ -102.353289548536438, 22.066682469459813 ], [ -102.353639193338338, 22.066194626827542 ], [ -102.353970910993695, 22.065653618514627 ], [ -102.35413659500054, 22.065391926630642 ], [ -102.354381717278358, 22.06492882329097 ], [ -102.35446016179462, 22.064780279567636 ], [ -102.354472738053104, 22.064613048251751 ], [ -102.354486125000577, 22.064401757329389 ], [ -102.35450788418008, 22.063768399285941 ], [ -102.354564347286257, 22.063275810210087 ], [ -102.35464787538605, 22.062854155393072 ], [ -102.354688162863766, 22.062722625042625 ], [ -102.35478568818553, 22.062565569701743 ], [ -102.354948578506082, 22.062453644303233 ], [ -102.355036971898414, 22.062278828215153 ], [ -102.355079062883775, 22.062050379495179 ], [ -102.355194839947814, 22.061928871803804 ], [ -102.355273773482281, 22.061753902531926 ], [ -102.355324339177329, 22.061578465410118 ], [ -102.355461483557505, 22.061325120873672 ], [ -102.355634660471068, 22.06116929722732 ], [ -102.354652723899434, 22.059537431056739 ], [ -102.355517970834967, 22.058282422790729 ], [ -102.356018021133494, 22.055211514822663 ], [ -102.356060120006063, 22.055176572357606 ], [ -102.356176048716222, 22.055165762379627 ], [ -102.356298547609796, 22.055167742302864 ], [ -102.356400991929647, 22.055150367810469 ], [ -102.356457199278836, 22.055056143225737 ], [ -102.356505902580636, 22.054999857759523 ], [ -102.356521165523461, 22.054911308818085 ], [ -102.356535711147004, 22.054860808699523 ], [ -102.356590984719205, 22.054817304149037 ], [ -102.356693183284463, 22.054812609275519 ], [ -102.356808875906907, 22.05481447880285 ], [ -102.356794535092632, 22.054897716395775 ], [ -102.356812262704466, 22.054998462158558 ], [ -102.356934289954111, 22.055025801571428 ], [ -102.357017141175447, 22.054963721294101 ], [ -102.357067494949433, 22.054818657644397 ], [ -102.357117013507377, 22.054717987320906 ], [ -102.357145888047697, 22.054629658207812 ], [ -102.35716736706712, 22.054572923617759 ], [ -102.357283766773975, 22.054536752807792 ], [ -102.357359448344468, 22.054493577676297 ], [ -102.357454850212079, 22.054488781527198 ], [ -102.357563972522485, 22.054477851522062 ], [ -102.357659011054977, 22.054492079605389 ], [ -102.357727778413121, 22.054455129990629 ], [ -102.357804166915614, 22.05437391463569 ], [ -102.357887125640573, 22.054305489168417 ], [ -102.357976310682133, 22.054268878251971 ], [ -102.357998024988305, 22.05419946351023 ], [ -102.358013277192271, 22.054110914164895 ], [ -102.358089439353449, 22.054042378798766 ], [ -102.358151979621383, 22.053973632420064 ], [ -102.358256190432385, 22.053861152103803 ], [ -102.358299019707687, 22.05375402686596 ], [ -102.358308064548737, 22.053633663182147 ], [ -102.358291181455826, 22.053443124329775 ], [ -102.358238039591072, 22.053372500645214 ], [ -102.358165177189818, 22.05326350703055 ], [ -102.358056409566771, 22.053255403991731 ], [ -102.357961135945047, 22.05325386524374 ], [ -102.357832068266234, 22.053239096796521 ], [ -102.357750760016216, 22.053218762295156 ], [ -102.357724361225863, 22.05317393804803 ], [ -102.357636001879698, 22.05316616438029 ], [ -102.357493086747866, 22.053163855801081 ], [ -102.357411660832852, 22.053149856626398 ], [ -102.357303482628069, 22.053110057619385 ], [ -102.357189795182592, 22.053000404102974 ], [ -102.357143096771992, 22.052948905407838 ], [ -102.35707728679661, 22.052827341524672 ], [ -102.356925829206901, 22.052552179164621 ], [ -102.356887950109964, 22.052427410322085 ], [ -102.35686237695856, 22.052338201483909 ], [ -102.356897467431281, 22.052281686821161 ], [ -102.356925634020769, 22.052231406695647 ], [ -102.356927637968425, 22.052123622231484 ], [ -102.356929288367695, 22.0520348532452 ], [ -102.356858313785011, 22.051824410220622 ], [ -102.356864207832075, 22.051507392309944 ], [ -102.356985381223609, 22.050481907659684 ], [ -102.35947066579601, 22.0505846825044 ], [ -102.35976840676453, 22.04958105593397 ], [ -102.360025413936995, 22.048730159695086 ], [ -102.362014159503488, 22.048789663721912 ], [ -102.362658935729968, 22.048095778054336 ], [ -102.363096226430969, 22.047625168602899 ], [ -102.36326381418246, 22.047444808576774 ], [ -102.363354046652802, 22.047517481851244 ], [ -102.363414691101255, 22.047550155212619 ], [ -102.363489769461609, 22.047538690210796 ], [ -102.363551236567446, 22.04752699682016 ], [ -102.363687311986681, 22.047529189426005 ], [ -102.363836636625464, 22.047550616664378 ], [ -102.363986548903185, 22.047540348098639 ], [ -102.364054234136375, 22.047560459834742 ], [ -102.364142091796651, 22.04759358038535 ], [ -102.364229597019673, 22.047645716494458 ], [ -102.364303970462046, 22.047672282322754 ], [ -102.36432953873377, 22.047761463189381 ], [ -102.364381967791275, 22.047870098029406 ], [ -102.364326131267674, 22.047945292716978 ], [ -102.364331997009927, 22.047996113633012 ], [ -102.364399790270269, 22.048009889569073 ], [ -102.364486852096633, 22.04812201626099 ], [ -102.364548890248003, 22.048043996450659 ], [ -102.364623724313901, 22.048045201843827 ], [ -102.364663609182799, 22.048096570710872 ], [ -102.364737621017994, 22.048142142799236 ], [ -102.364736916169704, 22.048180174016117 ], [ -102.364783254275594, 22.048250677113018 ], [ -102.36484401682182, 22.048277014476373 ], [ -102.36499228518241, 22.048355496611769 ], [ -102.365156044832233, 22.048332766181197 ], [ -102.365279684314189, 22.048271346932328 ], [ -102.36538994697807, 22.048197037335104 ], [ -102.365473475787184, 22.048096929440153 ], [ -102.365604507916601, 22.048003923785476 ], [ -102.365653303181077, 22.047941299108963 ], [ -102.365729086429354, 22.047891792808297 ], [ -102.365962635093169, 22.047775078638125 ], [ -102.366037478784023, 22.047776283527046 ], [ -102.366132612475809, 22.047784161461987 ], [ -102.366232663794307, 22.04789356243732 ], [ -102.366231489615501, 22.04795695389376 ], [ -102.366305981207205, 22.047977174302108 ], [ -102.366372140752787, 22.048079692226043 ], [ -102.366440178879486, 22.048080787396849 ], [ -102.366507855143183, 22.048100898019339 ], [ -102.366507150769507, 22.048138929290744 ], [ -102.366579881447166, 22.048254236794406 ], [ -102.366653081909547, 22.048344184076033 ], [ -102.366721110497124, 22.048345278986716 ], [ -102.366773668646758, 22.048447577871865 ], [ -102.366956427247288, 22.048501245657334 ], [ -102.366950443065647, 22.048456769307695 ], [ -102.367071499733953, 22.048534802705753 ], [ -102.367105049327378, 22.048560710368545 ], [ -102.367133657751921, 22.048601912640788 ], [ -102.367132366617554, 22.048671639677451 ], [ -102.367186216287806, 22.048704211429012 ], [ -102.367226209942999, 22.048749244080575 ], [ -102.367224449428747, 22.048844322306248 ], [ -102.367215657830926, 22.048951980297709 ], [ -102.367206269790444, 22.049091324854036 ], [ -102.367218345792978, 22.049173950878959 ], [ -102.367223977953785, 22.049237442870716 ], [ -102.367208380483717, 22.049344991334397 ], [ -102.367206913363304, 22.049424221678116 ], [ -102.367245792040535, 22.049529478067996 ], [ -102.367278520351149, 22.049599752546534 ], [ -102.367257173529339, 22.049650135535177 ], [ -102.367323686554087, 22.049733637555168 ], [ -102.367329074281585, 22.049809809495063 ], [ -102.367376001256389, 22.049848607248574 ], [ -102.367394531115977, 22.049950358431317 ], [ -102.367416775482255, 22.050039783414714 ], [ -102.36754010342689, 22.050174628184141 ], [ -102.367572245142838, 22.050276598381092 ], [ -102.367619289635059, 22.050309060543679 ], [ -102.367625391177413, 22.050347210372333 ], [ -102.367609549499562, 22.05046742980489 ], [ -102.367574004014031, 22.050549289561442 ], [ -102.367538223865466, 22.050643820385918 ], [ -102.367536698011392, 22.050726227533197 ], [ -102.367528366264622, 22.050808525165348 ], [ -102.367506784507285, 22.050871588275612 ], [ -102.367511947198153, 22.050960440474324 ], [ -102.3674085577168, 22.051070376873525 ], [ -102.367358392434923, 22.051167212922898 ], [ -102.367323316044704, 22.051223721407425 ], [ -102.367300550699113, 22.051350166776636 ], [ -102.367312049529332, 22.051464488696432 ], [ -102.36730289595441, 22.051591153111499 ], [ -102.367308645284652, 22.051648318583378 ], [ -102.367279083566203, 22.051774654563221 ], [ -102.367264884732563, 22.051806131243627 ], [ -102.367201772413111, 22.05190656852405 ], [ -102.3672003637665, 22.051982631073852 ], [ -102.367172327855272, 22.052026568929026 ], [ -102.367205729884049, 22.052138923243824 ], [ -102.367197280438404, 22.052227556356488 ], [ -102.367172558143551, 22.052358727760772 ], [ -102.367178395304791, 22.052512590034414 ], [ -102.36818101698924, 22.052763334680513 ], [ -102.368945397326343, 22.054487648667195 ], [ -102.371315662743868, 22.053767023893904 ], [ -102.373346168310917, 22.054181332090227 ], [ -102.374311148820397, 22.05259622981972 ], [ -102.374915069937956, 22.051458599098549 ], [ -102.376699515046397, 22.050055715162053 ], [ -102.376819288122789, 22.049763864456786 ], [ -102.37715742275094, 22.048888964960867 ], [ -102.37720538670095, 22.048045876078316 ], [ -102.377584184813685, 22.047783122748488 ], [ -102.378258721440176, 22.047315225520201 ], [ -102.378526810232486, 22.046986424651696 ], [ -102.379267477798876, 22.045980439076793 ], [ -102.379370844489571, 22.046058126249754 ], [ -102.379474211295943, 22.046135813367865 ], [ -102.379665969969167, 22.046261977597453 ], [ -102.379812087280513, 22.046336729012893 ], [ -102.379935055310668, 22.046403869379326 ], [ -102.380104189042925, 22.046493469610898 ], [ -102.380227033863918, 22.046567839029528 ], [ -102.380357633149629, 22.046642341544178 ], [ -102.380449564367382, 22.046708984653684 ], [ -102.380572399724826, 22.04678336271699 ], [ -102.380734046492904, 22.046858361996698 ], [ -102.38084269677465, 22.046860101237431 ], [ -102.380997903183555, 22.046862585609436 ], [ -102.381200361444229, 22.046829615811617 ], [ -102.381379517214327, 22.046796281850209 ], [ -102.381566446794125, 22.046763072088456 ], [ -102.381691815405489, 22.046699906955467 ], [ -102.381863492822205, 22.046651963226093 ], [ -102.382075841743259, 22.046591958963873 ], [ -102.382716799546245, 22.045006574570515 ], [ -102.383442013997936, 22.044578340027137 ], [ -102.386635777498043, 22.043904345141211 ], [ -102.416582402119914, 22.037581183424834 ], [ -102.416870848305621, 22.046708115363231 ], [ -102.417021202804563, 22.051002810697742 ], [ -102.417478527532197, 22.067886239812683 ], [ -102.418430244193075, 22.076937914523334 ], [ -102.418800711119644, 22.080461235685693 ], [ -102.418213634387001, 22.080575942588979 ], [ -102.414129334108779, 22.081731126951542 ], [ -102.409436145263925, 22.083185331994891 ], [ -102.407886336482534, 22.083689914219335 ], [ -102.403579314589976, 22.084997558249981 ], [ -102.400713436521855, 22.085857836585827 ], [ -102.400566028613724, 22.085901892410565 ], [ -102.399716206564634, 22.086155875630702 ], [ -102.399289213177099, 22.086337426954991 ], [ -102.394971593293604, 22.08769913511685 ], [ -102.391903141085251, 22.08857395763884 ], [ -102.391159813914911, 22.091770457639679 ], [ -102.390303362873695, 22.095341537362504 ], [ -102.389062615868994, 22.100597993024859 ], [ -102.388868371531487, 22.101359753784518 ], [ -102.388242256743069, 22.104019207172296 ], [ -102.387622852033303, 22.106602632062966 ], [ -102.386955639578929, 22.109413516836501 ], [ -102.386265038920143, 22.112300414027697 ], [ -102.385544409292862, 22.115348979964462 ], [ -102.384824760478452, 22.118326588204223 ], [ -102.384278402197438, 22.120489689954017 ], [ -102.383751920751948, 22.122464680659103 ], [ -102.383352768213598, 22.123971213765909 ], [ -102.382874789647261, 22.1259383281878 ], [ -102.382415835930843, 22.127805763377058 ], [ -102.380661217321133, 22.127093293121167 ], [ -102.377597822025507, 22.125849328433802 ], [ -102.376150077012525, 22.125278814510935 ], [ -102.374315552446916, 22.124438584092275 ], [ -102.371800928922553, 22.123372542165548 ], [ -102.354387361831499, 22.1158909455037 ], [ -102.354322230629791, 22.116387840314243 ], [ -102.354091366320262, 22.119047269071089 ], [ -102.354154012539937, 22.119654726238444 ], [ -102.354402060396822, 22.122059930932426 ], [ -102.353848204893453, 22.122165342681022 ], [ -102.352849588102174, 22.122613738431212 ], [ -102.352438509285406, 22.122776523586701 ], [ -102.351909563831654, 22.12306245295423 ], [ -102.350647860048383, 22.122934083802797 ], [ -102.349776815947166, 22.123322345818099 ], [ -102.348613126498321, 22.123557592434377 ], [ -102.347732828985656, 22.123225596033244 ], [ -102.346692277741951, 22.122954527267545 ], [ -102.344838134639474, 22.123644461571097 ], [ -102.344127333989107, 22.123971761429452 ], [ -102.343260240533439, 22.124148258352839 ], [ -102.341896391197679, 22.124147224613608 ], [ -102.340327230599456, 22.124185191256348 ], [ -102.339243630199093, 22.12378629853939 ], [ -102.338485731221922, 22.122990307545653 ], [ -102.337697556351458, 22.12259622414091 ], [ -102.337066027280954, 22.122766594919643 ], [ -102.33639298314128, 22.123223371705663 ], [ -102.33575903671165, 22.123563843227799 ], [ -102.334810955710495, 22.123727209841697 ], [ -102.333773785619186, 22.123524536157408 ], [ -102.333041948830171, 22.123436854551795 ], [ -102.332217973969222, 22.123455303806814 ], [ -102.331707764214116, 22.123455764161456 ], [ -102.331335917405326, 22.123634549192229 ], [ -102.330988929971383, 22.123496826226443 ], [ -102.330352624807176, 22.122977091876336 ], [ -102.330050052893483, 22.123393480585584 ], [ -102.329197050898586, 22.123347359080391 ], [ -102.327823538686488, 22.12333953126009 ], [ -102.318771927640185, 22.120835446338493 ], [ -102.314584367639156, 22.119412181871038 ], [ -102.314061510286862, 22.119234464295744 ], [ -102.307276700875775, 22.116682334897728 ], [ -102.307189097318755, 22.119141305950276 ], [ -102.299306554447739, 22.119009015824894 ], [ -102.299891692356141, 22.114039048046678 ], [ -102.302080009921681, 22.114926062410824 ], [ -102.303785042418326, 22.113858193546506 ], [ -102.307325707989847, 22.114441470246497 ], [ -102.307431537620602, 22.112363822950666 ], [ -102.30771485049155, 22.111625222193211 ], [ -102.307933963486079, 22.110094186456354 ], [ -102.307881463990483, 22.109851342116855 ], [ -102.307581620516387, 22.109417171232359 ], [ -102.307379764278423, 22.109042767458234 ], [ -102.307665548939056, 22.107838840272027 ], [ -102.308504239401074, 22.106897864197716 ], [ -102.312671045407768, 22.106126022724812 ], [ -102.314253313265667, 22.106419530505647 ], [ -102.314783998326902, 22.105678243575486 ], [ -102.318125435444244, 22.106018103273328 ], [ -102.317875138027233, 22.101183544108494 ], [ -102.313959780581129, 22.100865147301249 ], [ -102.308172417752218, 22.100848014681464 ], [ -102.308401148059716, 22.095105416943507 ], [ -102.308492341836683, 22.092815548769583 ], [ -102.308753971193212, 22.08350326014568 ], [ -102.308875486756534, 22.082275244557643 ], [ -102.309083896286452, 22.078940677676375 ], [ -102.31050595394882, 22.075166111920883 ], [ -102.313352189097017, 22.07532576664558 ] ] ] ] } },
{ "type": "Feature", "properties": { "ID": 5, "ENTIDAD": 1, "MUNICIPIO": 6, "NOMBRE": "PABELLON DE ARTEAGA", "CONTROL": 6, "GEOMETRY1_": null, "ID_2": 447, "ENTIDAD_2": 1, "DISTRITO_F": 1, "DISTRITO_L": 3, "MUNICIPIO_2": 9, "SECCION": 468, "TIPO": 4, "CONTROL_2": 27, "GEOMETRY1__2": null }, "geometry": { "type": "MultiPolygon", "coordinates": [ [ [ [ -102.252790253903186, 22.174894203334969 ], [ -102.252964969236046, 22.174848608833866 ], [ -102.252790253903186, 22.174894203335064 ], [ -102.252595693030983, 22.174968367162791 ], [ -102.252790253903186, 22.174894203334969 ] ] ] ] } },
{ "type": "Feature", "properties": { "ID": 5, "ENTIDAD": 1, "MUNICIPIO": 6, "NOMBRE": "PABELLON DE ARTEAGA", "CONTROL": 6, "GEOMETRY1_": null, "ID_2": 465, "ENTIDAD_2": 1, "DISTRITO_F": 1, "DISTRITO_L": 3, "MUNICIPIO_2": 6, "SECCION": 488, "TIPO": 4, "CONTROL_2": 521, "GEOMETRY1__2": null }, "geometry": { "type": "MultiPolygon", "coordinates": [ [ [ [ -102.331291020141407, 22.142767962973366 ], [ -102.330428080648872, 22.142711874308706 ], [ -102.329985082707765, 22.142670413608222 ], [ -102.329914059332197, 22.142663766333484 ], [ -102.329855850661005, 22.142658318399164 ], [ -102.328595765748247, 22.142540377903693 ], [ -102.32689676920927, 22.142381340901391 ], [ -102.326428488857061, 22.14233750370353 ], [ -102.324211210206627, 22.142214021776375 ], [ -102.322926554500881, 22.142173794172631 ], [ -102.320740120397616, 22.142039816407447 ], [ -102.320633062590758, 22.141083921987768 ], [ -102.322068146495667, 22.136016486115956 ], [ -102.321894555845617, 22.135847469623286 ], [ -102.32180996638759, 22.134874876539499 ], [ -102.321779110895918, 22.134520104960597 ], [ -102.323396616543477, 22.1329758326277 ], [ -102.331335917405326, 22.123634549192229 ], [ -102.331707764214116, 22.123455764161456 ], [ -102.332217973969222, 22.123455303806814 ], [ -102.333041948830171, 22.123436854551795 ], [ -102.333773785619186, 22.123524536157408 ], [ -102.334810955710495, 22.123727209841697 ], [ -102.33575903671165, 22.123563843227799 ], [ -102.33639298314128, 22.123223371705663 ], [ -102.337066027280954, 22.122766594919643 ], [ -102.337697556351458, 22.12259622414091 ], [ -102.338485731221922, 22.122990307545653 ], [ -102.339243630199093, 22.12378629853939 ], [ -102.340327230599456, 22.124185191256348 ], [ -102.341896391197679, 22.124147224613608 ], [ -102.343260240533439, 22.124148258352839 ], [ -102.344127333989107, 22.123971761429452 ], [ -102.344838134639474, 22.123644461571097 ], [ -102.346692277741951, 22.122954527267545 ], [ -102.347732828985656, 22.123225596033244 ], [ -102.348613126498321, 22.123557592434377 ], [ -102.349776815947166, 22.123322345818099 ], [ -102.350647860048383, 22.122934083802797 ], [ -102.351909563831654, 22.12306245295423 ], [ -102.352438509285406, 22.122776523586701 ], [ -102.352849588102174, 22.122613738431212 ], [ -102.353848204893453, 22.122165342681022 ], [ -102.354402060396822, 22.122059930932426 ], [ -102.354906467754105, 22.126950819102092 ], [ -102.353114816752097, 22.128657323090621 ], [ -102.352857506582282, 22.131033355485787 ], [ -102.352705061611914, 22.132797496321395 ], [ -102.352569245658344, 22.134234775940481 ], [ -102.352434792991744, 22.135587525380494 ], [ -102.352271238954316, 22.137114782291537 ], [ -102.351933864327279, 22.139064971911676 ], [ -102.351695985200323, 22.139818594906149 ], [ -102.351546298361328, 22.140318966170618 ], [ -102.351075590363791, 22.142976171434849 ], [ -102.350987631088884, 22.144407133000954 ], [ -102.350524254547508, 22.146294484536206 ], [ -102.346237446845791, 22.145045477508894 ], [ -102.345991262021386, 22.144965133096175 ], [ -102.344853839088216, 22.144593920077952 ], [ -102.344727121184576, 22.144552563421112 ], [ -102.343787473125857, 22.144245330799329 ], [ -102.343658604674815, 22.144203829198059 ], [ -102.342874124887004, 22.143947791321064 ], [ -102.342305050737068, 22.143853165509466 ], [ -102.341711304743043, 22.143755892267119 ], [ -102.3404566112102, 22.143550328744837 ], [ -102.336155193668887, 22.143052649554541 ], [ -102.332444682194449, 22.142842940635965 ], [ -102.331291020141407, 22.142767962973366 ] ] ] ] } }
]
}
