{
"type": "FeatureCollection",
"name": "SANMATEOTENCOSECCIONES",
"crs": { "type": "name", "properties": { "name": "urn:ogc:def:crs:OGC:1.3:CRS84" } },
"features": [
{ "type": "Feature", "properties": { "ID": 62, "ENTIDAD": 15, "MUNICIPIO": 77, "NOMBRE": "SAN MATEO ATENCO", "CONTROL": 259, "GEOMETRY1_": null, "ID_2": 2323, "ENTIDAD_2": 15, "DISTRITO_F": 23, "DISTRITO_L": 4, "MUNICIPIO_2": 52, "SECCION": 2386, "TIPO": 2, "CONTROL_2": 41466, "GEOMETRY1__2": null }, "geometry": { "type": "MultiPolygon", "coordinates": [ [ [ [ -99.525680732907546, 19.284223871542352 ], [ -99.52887091346372, 19.285253816237677 ], [ -99.528870913452124, 19.28525381663837 ], [ -99.525680732907546, 19.284223871542352 ] ] ] ] } },
{ "type": "Feature", "properties": { "ID": 62, "ENTIDAD": 15, "MUNICIPIO": 77, "NOMBRE": "SAN MATEO ATENCO", "CONTROL": 259, "GEOMETRY1_": null, "ID_2": 2326, "ENTIDAD_2": 15, "DISTRITO_F": 23, "DISTRITO_L": 4, "MUNICIPIO_2": 52, "SECCION": 2390, "TIPO": 2, "CONTROL_2": 41419, "GEOMETRY1__2": null }, "geometry": { "type": "MultiPolygon", "coordinates": [ [ [ [ -99.522384860052426, 19.280045076463193 ], [ -99.522411000963729, 19.279223311435441 ], [ -99.522384860053691, 19.280045076867971 ], [ -99.522384860052426, 19.280045076463193 ] ] ] ] } },
{ "type": "Feature", "properties": { "ID": 62, "ENTIDAD": 15, "MUNICIPIO": 77, "NOMBRE": "SAN MATEO ATENCO", "CONTROL": 259, "GEOMETRY1_": null, "ID_2": 4023, "ENTIDAD_2": 15, "DISTRITO_F": 27, "DISTRITO_L": 35, "MUNICIPIO_2": 77, "SECCION": 4126, "TIPO": 2, "CONTROL_2": 40673, "GEOMETRY1__2": null }, "geometry": { "type": "MultiPolygon", "coordinates": [ [ [ [ -99.528860251619477, 19.285622128566519 ], [ -99.528870913465013, 19.285253816642534 ], [ -99.528885381077515, 19.284643618931504 ], [ -99.528898280889976, 19.284448053454824 ], [ -99.528952511015305, 19.283766768327759 ], [ -99.528966853255014, 19.283312305102445 ], [ -99.52900494442396, 19.282105301244229 ], [ -99.529010596563907, 19.28148622055884 ], [ -99.529014102490663, 19.281102216306927 ], [ -99.529017909524001, 19.281003123240428 ], [ -99.529037461777207, 19.28049419743769 ], [ -99.529053507642018, 19.280076537890746 ], [ -99.529058379644269, 19.279949724179186 ], [ -99.529069901211699, 19.279649823064098 ], [ -99.529078838164494, 19.279417201923113 ], [ -99.531880039877294, 19.279264093685406 ], [ -99.531884227097066, 19.279177104764994 ], [ -99.531949586714035, 19.277800444741292 ], [ -99.531976882263635, 19.277308631537792 ], [ -99.532008563087061, 19.276897128590701 ], [ -99.532054876092403, 19.275905689759458 ], [ -99.533552706888486, 19.275920914248733 ], [ -99.534760229413479, 19.275967569911948 ], [ -99.535025254621459, 19.275956116980915 ], [ -99.535436664615361, 19.275966233469312 ], [ -99.535848074635055, 19.275976349030255 ], [ -99.536229529175856, 19.275985727230545 ], [ -99.536386550740303, 19.275989587431756 ], [ -99.536871534985764, 19.276001509378574 ], [ -99.537189240219121, 19.276005160712074 ], [ -99.538244417106469, 19.276016866909714 ], [ -99.539837160787556, 19.276035678506378 ], [ -99.542589242193742, 19.276023610728057 ], [ -99.542579908244079, 19.276948332229772 ], [ -99.540993643891284, 19.27770930804677 ], [ -99.540849620481254, 19.27776845280799 ], [ -99.538249978536058, 19.278982931564546 ], [ -99.538162412242599, 19.280134817864777 ], [ -99.538117943273662, 19.280430597329801 ], [ -99.53807347415902, 19.280726376778262 ], [ -99.538134994108475, 19.281073217747075 ], [ -99.538148332298348, 19.2812007864067 ], [ -99.538324604248899, 19.282117885233582 ], [ -99.53848747699675, 19.283012873850812 ], [ -99.53856755806234, 19.283378549370319 ], [ -99.53867612950971, 19.283973801935925 ], [ -99.538842202212408, 19.284890493978036 ], [ -99.538924986000723, 19.285271416212186 ], [ -99.539014196599169, 19.285724744383895 ], [ -99.528860251619477, 19.285622128566519 ] ] ] ] } },
{ "type": "Feature", "properties": { "ID": 62, "ENTIDAD": 15, "MUNICIPIO": 77, "NOMBRE": "SAN MATEO ATENCO", "CONTROL": 259, "GEOMETRY1_": null, "ID_2": 4024, "ENTIDAD_2": 15, "DISTRITO_F": 27, "DISTRITO_L": 35, "MUNICIPIO_2": 77, "SECCION": 4128, "TIPO": 2, "CONTROL_2": 36919, "GEOMETRY1__2": null }, "geometry": { "type": "MultiPolygon", "coordinates": [ [ [ [ -99.522651531529448, 19.276074391015442 ], [ -99.522126828722037, 19.274656521602477 ], [ -99.521725109727328, 19.273821080195503 ], [ -99.521352994588113, 19.272721600389218 ], [ -99.520988054752792, 19.271690897132927 ], [ -99.52031228142063, 19.270020945092948 ], [ -99.520173959875379, 19.269634998563788 ], [ -99.519769549762501, 19.268506596862959 ], [ -99.519522585273023, 19.267817497993335 ], [ -99.519517191367171, 19.267441705467569 ], [ -99.519512938283071, 19.267145393771447 ], [ -99.523977477179045, 19.267360737953574 ], [ -99.526412759905512, 19.267478156009929 ], [ -99.527270830027973, 19.267474473497082 ], [ -99.527924282488925, 19.267471666424928 ], [ -99.529445868206707, 19.267494178328622 ], [ -99.530877640539686, 19.267517555371548 ], [ -99.530826761778272, 19.269034114560167 ], [ -99.530791105691833, 19.270555443309902 ], [ -99.530775638291388, 19.272045889689782 ], [ -99.529317676324254, 19.272064882055286 ], [ -99.529280771741554, 19.273018581722283 ], [ -99.529259546374504, 19.273567086342858 ], [ -99.52924414235882, 19.274109900194173 ], [ -99.529238338278759, 19.274314417065206 ], [ -99.529223034285181, 19.275222869325091 ], [ -99.529146308636669, 19.27521550593185 ], [ -99.528321369881823, 19.275181664607487 ], [ -99.528329479031228, 19.274141043585757 ], [ -99.52733155395201, 19.274075788031961 ], [ -99.527313059204928, 19.275140295359822 ], [ -99.524424551611332, 19.275021755502618 ], [ -99.523110039688376, 19.27492224189605 ], [ -99.522704228967314, 19.276277995608684 ], [ -99.522651531529448, 19.276074391015442 ] ] ] ] } },
{ "type": "Feature", "properties": { "ID": 62, "ENTIDAD": 15, "MUNICIPIO": 77, "NOMBRE": "SAN MATEO ATENCO", "CONTROL": 259, "GEOMETRY1_": null, "ID_2": 4018, "ENTIDAD_2": 15, "DISTRITO_F": 27, "DISTRITO_L": 35, "MUNICIPIO_2": 77, "SECCION": 4121, "TIPO": 2, "CONTROL_2": 40595, "GEOMETRY1__2": null }, "geometry": { "type": "MultiPolygon", "coordinates": [ [ [ [ -99.564098429314214, 19.267061523361772 ], [ -99.568103102082816, 19.265217598228947 ], [ -99.568081291803495, 19.26678394470002 ], [ -99.568009334713565, 19.266956279333822 ], [ -99.567979397867489, 19.267944183737551 ], [ -99.567936045539142, 19.269374782540165 ], [ -99.568173426305819, 19.277253653994258 ], [ -99.563739522509621, 19.277508349327647 ], [ -99.563814559966431, 19.27898477478038 ], [ -99.563756926817078, 19.278984961624719 ], [ -99.563755293689184, 19.280390092958957 ], [ -99.563375101734792, 19.280405881498751 ], [ -99.56242042709377, 19.280458458782022 ], [ -99.561812995650442, 19.280473868586633 ], [ -99.561360442035323, 19.280485348013549 ], [ -99.56100017060578, 19.280510205276528 ], [ -99.559084683986924, 19.280642354028039 ], [ -99.558583876745089, 19.280676901204124 ], [ -99.558598337756322, 19.281677900956229 ], [ -99.556075821446967, 19.281642940858482 ], [ -99.556082091223374, 19.280795044622078 ], [ -99.5561572646466, 19.280439102763349 ], [ -99.556305104722185, 19.28006221850713 ], [ -99.556620401959961, 19.279733173478238 ], [ -99.557023121961336, 19.279445303760177 ], [ -99.557520655045167, 19.279233121483752 ], [ -99.555782601276832, 19.279342021621719 ], [ -99.555726004327937, 19.279342519476856 ], [ -99.555182535978943, 19.279347299204591 ], [ -99.555068870959602, 19.277993862224868 ], [ -99.555023238740091, 19.277513453703165 ], [ -99.555616988351005, 19.277471736675871 ], [ -99.55529581795895, 19.274762735258751 ], [ -99.555181382659015, 19.273347312348772 ], [ -99.555102070779526, 19.272366305751163 ], [ -99.555080814729649, 19.272104240923504 ], [ -99.555038013616738, 19.27140053145343 ], [ -99.554980865137452, 19.271362933076251 ], [ -99.554923716683973, 19.271325334680299 ], [ -99.55603588947902, 19.270773478545845 ], [ -99.564098429314214, 19.267061523361772 ] ] ] ] } },
{ "type": "Feature", "properties": { "ID": 62, "ENTIDAD": 15, "MUNICIPIO": 77, "NOMBRE": "SAN MATEO ATENCO", "CONTROL": 259, "GEOMETRY1_": null, "ID_2": 4019, "ENTIDAD_2": 15, "DISTRITO_F": 27, "DISTRITO_L": 35, "MUNICIPIO_2": 77, "SECCION": 4122, "TIPO": 2, "CONTROL_2": 40594, "GEOMETRY1__2": null }, "geometry": { "type": "MultiPolygon", "coordinates": [ [ [ [ -99.563753015681087, 19.282350518661708 ], [ -99.563750839965081, 19.284223396432896 ], [ -99.56377189038075, 19.285960661073879 ], [ -99.563782355916572, 19.286220184299324 ], [ -99.562274970598295, 19.286199165857475 ], [ -99.558565759669222, 19.286114951750751 ], [ -99.556016209233434, 19.286058454261692 ], [ -99.55544909200141, 19.286033877433603 ], [ -99.552918807221516, 19.285999019441057 ], [ -99.552696127433791, 19.282960317827811 ], [ -99.552706852789669, 19.282905028972255 ], [ -99.552680525504627, 19.282646094179135 ], [ -99.552633442162076, 19.281620539363569 ], [ -99.552596806867598, 19.280456811747367 ], [ -99.552581946731081, 19.280363611464853 ], [ -99.552543482048563, 19.279738639419527 ], [ -99.552425333198826, 19.278126199373201 ], [ -99.553767081945864, 19.278053067972174 ], [ -99.555068870959602, 19.277993862224868 ], [ -99.555182535978943, 19.279347299204591 ], [ -99.555726004327937, 19.279342519476856 ], [ -99.555782601276832, 19.279342021621719 ], [ -99.557520655045167, 19.279233121483752 ], [ -99.557023121961336, 19.279445303760177 ], [ -99.556620401959961, 19.279733173478238 ], [ -99.556305104722185, 19.28006221850713 ], [ -99.5561572646466, 19.280439102763349 ], [ -99.556082091223374, 19.280795044622078 ], [ -99.556075821446967, 19.281642940858482 ], [ -99.558598337756322, 19.281677900956229 ], [ -99.558583876745089, 19.280676901204124 ], [ -99.559084683986924, 19.280642354028039 ], [ -99.56100017060578, 19.280510205276528 ], [ -99.561360442035323, 19.280485348013549 ], [ -99.561812995650442, 19.280473868586633 ], [ -99.56242042709377, 19.280458458782022 ], [ -99.563375101734792, 19.280405881498751 ], [ -99.563755293689184, 19.280390092958957 ], [ -99.563753015681087, 19.282350518661708 ] ] ] ] } },
{ "type": "Feature", "properties": { "ID": 62, "ENTIDAD": 15, "MUNICIPIO": 77, "NOMBRE": "SAN MATEO ATENCO", "CONTROL": 259, "GEOMETRY1_": null, "ID_2": 4020, "ENTIDAD_2": 15, "DISTRITO_F": 27, "DISTRITO_L": 35, "MUNICIPIO_2": 77, "SECCION": 4123, "TIPO": 2, "CONTROL_2": 40596, "GEOMETRY1__2": null }, "geometry": { "type": "MultiPolygon", "coordinates": [ [ [ [ -99.546297718653264, 19.285877219673665 ], [ -99.546311879688886, 19.28550586131654 ], [ -99.546484012315631, 19.282928164833269 ], [ -99.546494510559498, 19.282770950893124 ], [ -99.546507566445072, 19.282549414596801 ], [ -99.546610524749823, 19.280802370048864 ], [ -99.54662295349776, 19.280418005344163 ], [ -99.546579223824139, 19.28002858644069 ], [ -99.546468028923314, 19.278475830298611 ], [ -99.548123588309011, 19.278366300107042 ], [ -99.550692682692116, 19.278234639204584 ], [ -99.552425333198826, 19.278126199373201 ], [ -99.552543482048563, 19.279738639419527 ], [ -99.552581946731081, 19.280363611464853 ], [ -99.552596806867598, 19.280456811747367 ], [ -99.552633442162076, 19.281620539363569 ], [ -99.552680525504627, 19.282646094179135 ], [ -99.552706852789669, 19.282905028972255 ], [ -99.552696127433791, 19.282960317827811 ], [ -99.552918807221516, 19.285999019441057 ], [ -99.546297718653264, 19.285877219673665 ] ] ] ] } },
{ "type": "Feature", "properties": { "ID": 62, "ENTIDAD": 15, "MUNICIPIO": 77, "NOMBRE": "SAN MATEO ATENCO", "CONTROL": 259, "GEOMETRY1_": null, "ID_2": 4021, "ENTIDAD_2": 15, "DISTRITO_F": 27, "DISTRITO_L": 35, "MUNICIPIO_2": 77, "SECCION": 4124, "TIPO": 2, "CONTROL_2": 40597, "GEOMETRY1__2": null }, "geometry": { "type": "MultiPolygon", "coordinates": [ [ [ [ -99.546252662000072, 19.285876277028894 ], [ -99.542790275716825, 19.285808754077095 ], [ -99.542790446324844, 19.285491801365719 ], [ -99.542872378795323, 19.284130385421264 ], [ -99.542954070594234, 19.282696261508004 ], [ -99.542616618735508, 19.282669749194788 ], [ -99.54255092242586, 19.282664587611144 ], [ -99.542212506346303, 19.282637998783226 ], [ -99.542212258946961, 19.282562827579696 ], [ -99.542208753960082, 19.281497814986064 ], [ -99.541803905533939, 19.281481740202437 ], [ -99.541789917346748, 19.280645767549004 ], [ -99.54178692348539, 19.280466844133709 ], [ -99.541839065288215, 19.2803873828971 ], [ -99.541931741179567, 19.280246149718955 ], [ -99.543423631412637, 19.28026763261844 ], [ -99.543605444834512, 19.280232540472682 ], [ -99.543824007932116, 19.280187386152175 ], [ -99.543859972082856, 19.28017995606552 ], [ -99.546354478187979, 19.280041098653587 ], [ -99.546579223824139, 19.28002858644069 ], [ -99.54662295349776, 19.280418005344163 ], [ -99.546610524749823, 19.280802370048864 ], [ -99.546507566445072, 19.282549414596801 ], [ -99.546494510559498, 19.282770950893124 ], [ -99.546484012315631, 19.282928164833269 ], [ -99.546311879688886, 19.28550586131654 ], [ -99.546297718653264, 19.285877219673665 ], [ -99.546252662000072, 19.285876277028894 ] ] ] ] } },
{ "type": "Feature", "properties": { "ID": 62, "ENTIDAD": 15, "MUNICIPIO": 77, "NOMBRE": "SAN MATEO ATENCO", "CONTROL": 259, "GEOMETRY1_": null, "ID_2": 4022, "ENTIDAD_2": 15, "DISTRITO_F": 27, "DISTRITO_L": 35, "MUNICIPIO_2": 77, "SECCION": 4125, "TIPO": 2, "CONTROL_2": 40598, "GEOMETRY1__2": null }, "geometry": { "type": "MultiPolygon", "coordinates": [ [ [ [ -99.539014196599169, 19.285724744383895 ], [ -99.538924986000723, 19.285271416212186 ], [ -99.538842202212408, 19.284890493978036 ], [ -99.53867612950971, 19.283973801935925 ], [ -99.53856755806234, 19.283378549370319 ], [ -99.53848747699675, 19.283012873850812 ], [ -99.538324604248899, 19.282117885233582 ], [ -99.538148332298348, 19.2812007864067 ], [ -99.538134994108475, 19.281073217747075 ], [ -99.53807347415902, 19.280726376778262 ], [ -99.538117943273662, 19.280430597329801 ], [ -99.538162412242599, 19.280134817864777 ], [ -99.540187140845873, 19.280109528592948 ], [ -99.541044984632777, 19.280061336865561 ], [ -99.541203787009067, 19.280054654464731 ], [ -99.541852947685513, 19.280027336356742 ], [ -99.541931741179567, 19.280246149718955 ], [ -99.541839065288215, 19.2803873828971 ], [ -99.54178692348539, 19.280466844133709 ], [ -99.541789917346748, 19.280645767549004 ], [ -99.541803905533939, 19.281481740202437 ], [ -99.542208753960082, 19.281497814986064 ], [ -99.542212258946961, 19.282562827579696 ], [ -99.542212506346303, 19.282637998783226 ], [ -99.54255092242586, 19.282664587611144 ], [ -99.542616618735508, 19.282669749194788 ], [ -99.542954070594234, 19.282696261508004 ], [ -99.542872378795323, 19.284130385421264 ], [ -99.542790446324844, 19.285491801365719 ], [ -99.542790275716825, 19.285808754077095 ], [ -99.539014196599169, 19.285724744383895 ] ] ] ] } },
{ "type": "Feature", "properties": { "ID": 62, "ENTIDAD": 15, "MUNICIPIO": 77, "NOMBRE": "SAN MATEO ATENCO", "CONTROL": 259, "GEOMETRY1_": null, "ID_2": 4025, "ENTIDAD_2": 15, "DISTRITO_F": 27, "DISTRITO_L": 35, "MUNICIPIO_2": 77, "SECCION": 4129, "TIPO": 2, "CONTROL_2": 40261, "GEOMETRY1__2": null }, "geometry": { "type": "MultiPolygon", "coordinates": [ [ [ [ -99.52924414235882, 19.274109900194173 ], [ -99.529259546374504, 19.273567086342858 ], [ -99.529280771741554, 19.273018581722283 ], [ -99.529317676324254, 19.272064882055286 ], [ -99.530775638291388, 19.272045889689782 ], [ -99.531009699668871, 19.272046411374419 ], [ -99.532197730841801, 19.272049054680515 ], [ -99.533661473478858, 19.272074678373698 ], [ -99.535105507214269, 19.272089138868729 ], [ -99.537978945233505, 19.272121541061964 ], [ -99.540251450572157, 19.272157081534544 ], [ -99.540730348397062, 19.272164567570272 ], [ -99.541209246231602, 19.272172052350314 ], [ -99.542714872419538, 19.272195575870423 ], [ -99.543505561470766, 19.272207924423295 ], [ -99.545430301579458, 19.27223796966015 ], [ -99.545512784482312, 19.272194755132958 ], [ -99.545595267341213, 19.272151540569315 ], [ -99.546704877958121, 19.272170643618416 ], [ -99.546732407654787, 19.274539426861082 ], [ -99.546726273619683, 19.275062538473723 ], [ -99.545535337852186, 19.275604199912863 ], [ -99.545407860439383, 19.275662178527647 ], [ -99.543041689396787, 19.27673832478245 ], [ -99.542579908244079, 19.276948332229772 ], [ -99.542589242193742, 19.276023610728057 ], [ -99.539837160787556, 19.276035678506378 ], [ -99.538244417106469, 19.276016866909714 ], [ -99.537189240219121, 19.276005160712074 ], [ -99.536871534985764, 19.276001509378574 ], [ -99.536386550740303, 19.275989587431756 ], [ -99.536229529175856, 19.275985727230545 ], [ -99.535848074635055, 19.275976349030255 ], [ -99.535436664615361, 19.275966233469312 ], [ -99.535025254621459, 19.275956116980915 ], [ -99.534760229413479, 19.275967569911948 ], [ -99.533552706888486, 19.275920914248733 ], [ -99.532054876092403, 19.275905689759458 ], [ -99.532008563087061, 19.276897128590701 ], [ -99.531976882263635, 19.277308631537792 ], [ -99.531949586714035, 19.277800444741292 ], [ -99.531884227097066, 19.279177104764994 ], [ -99.531880039877294, 19.279264093685406 ], [ -99.529078838164494, 19.279417201923113 ], [ -99.529119971054627, 19.278657302168334 ], [ -99.52915417961708, 19.278025326460352 ], [ -99.529170587357982, 19.277722201513189 ], [ -99.529178063338691, 19.277461694100886 ], [ -99.529184742304068, 19.277228957330809 ], [ -99.529202539548422, 19.276347431673386 ], [ -99.529211900277687, 19.275883776501864 ], [ -99.529223034285181, 19.275222869325091 ], [ -99.529238338278759, 19.274314417065206 ], [ -99.52924414235882, 19.274109900194173 ] ] ] ] } },
{ "type": "Feature", "properties": { "ID": 62, "ENTIDAD": 15, "MUNICIPIO": 77, "NOMBRE": "SAN MATEO ATENCO", "CONTROL": 259, "GEOMETRY1_": null, "ID_2": 4026, "ENTIDAD_2": 15, "DISTRITO_F": 27, "DISTRITO_L": 35, "MUNICIPIO_2": 77, "SECCION": 4130, "TIPO": 2, "CONTROL_2": 36914, "GEOMETRY1__2": null }, "geometry": { "type": "MultiPolygon", "coordinates": [ [ [ [ -99.543505561470766, 19.272207924423295 ], [ -99.542714872419538, 19.272195575870423 ], [ -99.541209246231602, 19.272172052350314 ], [ -99.540730348397062, 19.272164567570272 ], [ -99.540251450572157, 19.272157081534544 ], [ -99.537978945233505, 19.272121541061964 ], [ -99.535105507214269, 19.272089138868729 ], [ -99.533661473478858, 19.272074678373698 ], [ -99.532197730841801, 19.272049054680515 ], [ -99.531009699668871, 19.272046411374419 ], [ -99.530775638291388, 19.272045889689782 ], [ -99.530791105691833, 19.270555443309902 ], [ -99.530826761778272, 19.269034114560167 ], [ -99.530877640539686, 19.267517555371548 ], [ -99.532317373384117, 19.267542253307113 ], [ -99.53380275990726, 19.267576434615684 ], [ -99.535242430584475, 19.267581853666876 ], [ -99.536727786096478, 19.267606383276267 ], [ -99.538126934728055, 19.267621526557466 ], [ -99.538861993089256, 19.267628989601789 ], [ -99.543180684692416, 19.267672326050278 ], [ -99.543307827019717, 19.267673600329129 ], [ -99.546765160856722, 19.26771624770609 ], [ -99.54675437800843, 19.268422591535113 ], [ -99.54675266713754, 19.268534664187204 ], [ -99.546767568314934, 19.269438882305394 ], [ -99.546771706131864, 19.269689965877937 ], [ -99.546808084694433, 19.269959440730268 ], [ -99.546777645247005, 19.270784020007067 ], [ -99.546704877958121, 19.272170643618416 ], [ -99.545595267341213, 19.272151540569315 ], [ -99.545512784482312, 19.272194755132958 ], [ -99.545430301579458, 19.27223796966015 ], [ -99.543505561470766, 19.272207924423295 ] ] ] ] } },
{ "type": "Feature", "properties": { "ID": 62, "ENTIDAD": 15, "MUNICIPIO": 77, "NOMBRE": "SAN MATEO ATENCO", "CONTROL": 259, "GEOMETRY1_": null, "ID_2": 4027, "ENTIDAD_2": 15, "DISTRITO_F": 27, "DISTRITO_L": 35, "MUNICIPIO_2": 77, "SECCION": 4131, "TIPO": 2, "CONTROL_2": 36918, "GEOMETRY1__2": null }, "geometry": { "type": "MultiPolygon", "coordinates": [ [ [ [ -99.543180684692416, 19.267672326050278 ], [ -99.538861993089256, 19.267628989601789 ], [ -99.538126934728055, 19.267621526557466 ], [ -99.536727786096478, 19.267606383276267 ], [ -99.536738535104789, 19.26686299231638 ], [ -99.536749284105966, 19.266119601298008 ], [ -99.536795200926335, 19.264627962947195 ], [ -99.536861258222302, 19.263084834065427 ], [ -99.536885386630686, 19.262147697672908 ], [ -99.536897030299627, 19.261596439467205 ], [ -99.536946194263265, 19.260063003032514 ], [ -99.537002399004891, 19.258613121367681 ], [ -99.537028795097996, 19.258079861020143 ], [ -99.537030875872432, 19.258037824596023 ], [ -99.537040799248047, 19.257837349393743 ], [ -99.537050722606068, 19.257636874187142 ], [ -99.53705696568727, 19.257510749056859 ], [ -99.537064847206594, 19.257351523365113 ], [ -99.537075442405907, 19.257137474437947 ], [ -99.535579270299039, 19.257087215680009 ], [ -99.535215112054246, 19.257082754539418 ], [ -99.535086415898903, 19.25708117776659 ], [ -99.534842787976515, 19.257078192612727 ], [ -99.534096741245534, 19.257069049340807 ], [ -99.533904978950218, 19.257060205296408 ], [ -99.533713216670094, 19.257051361050561 ], [ -99.533542386538315, 19.257043482043567 ], [ -99.532654671775845, 19.257002536384714 ], [ -99.532720060532171, 19.255479092168049 ], [ -99.532726386691195, 19.255309328005254 ], [ -99.532833176180887, 19.253407027963462 ], [ -99.532865617091261, 19.252879999328844 ], [ -99.532895143577377, 19.252400315533688 ], [ -99.53528311742275, 19.252322631763718 ], [ -99.53531004427586, 19.252360651796021 ], [ -99.535336971141518, 19.252398671823808 ], [ -99.535704921301303, 19.252104431128238 ], [ -99.535712821268163, 19.252218813336381 ], [ -99.535720721248083, 19.252333195542402 ], [ -99.541313721265809, 19.252087922386714 ], [ -99.54084225572916, 19.2529545064749 ], [ -99.540852345319934, 19.253569867462225 ], [ -99.540856128830114, 19.253800620396905 ], [ -99.54309238183788, 19.253793995442191 ], [ -99.543102163295842, 19.255636334006613 ], [ -99.543076920115922, 19.257116525945879 ], [ -99.544763090858211, 19.257025708101814 ], [ -99.548451658661023, 19.256850228334475 ], [ -99.548461136571945, 19.257436525993445 ], [ -99.54621809170429, 19.257607695283795 ], [ -99.546191526966609, 19.260954123664501 ], [ -99.544723374663931, 19.260958502429308 ], [ -99.54471978910739, 19.262152616233042 ], [ -99.543522553533151, 19.26212042683326 ], [ -99.543480969005373, 19.262928276055483 ], [ -99.543458868081615, 19.263357621177978 ], [ -99.543418400266233, 19.264677118147549 ], [ -99.54337053121246, 19.266253762008891 ], [ -99.543339179209696, 19.266963681195811 ], [ -99.543307827019717, 19.267673600329129 ], [ -99.543180684692416, 19.267672326050278 ] ] ] ] } },
{ "type": "Feature", "properties": { "ID": 62, "ENTIDAD": 15, "MUNICIPIO": 77, "NOMBRE": "SAN MATEO ATENCO", "CONTROL": 259, "GEOMETRY1_": null, "ID_2": 4028, "ENTIDAD_2": 15, "DISTRITO_F": 27, "DISTRITO_L": 35, "MUNICIPIO_2": 77, "SECCION": 4132, "TIPO": 2, "CONTROL_2": 36917, "GEOMETRY1__2": null }, "geometry": { "type": "MultiPolygon", "coordinates": [ [ [ [ -99.535346451773734, 19.264609709026235 ], [ -99.534672832932159, 19.264595607683191 ], [ -99.533877362871166, 19.2645818596583 ], [ -99.533444061907403, 19.264567051983409 ], [ -99.532411596643854, 19.264534702104768 ], [ -99.530959525207336, 19.264535709767998 ], [ -99.530969580244573, 19.263820257359274 ], [ -99.53099525740339, 19.263018385487371 ], [ -99.532440577151263, 19.263027040829318 ], [ -99.532473528145488, 19.262090431914931 ], [ -99.532493281494695, 19.261528953590851 ], [ -99.532532944362217, 19.260324186855264 ], [ -99.532542600577358, 19.260030875971445 ], [ -99.53259522074022, 19.258507072890975 ], [ -99.532654671775845, 19.257002536384714 ], [ -99.533542386538315, 19.257043482043567 ], [ -99.533713216670094, 19.257051361050561 ], [ -99.533904978950218, 19.257060205296408 ], [ -99.534096741245534, 19.257069049340807 ], [ -99.534842787976515, 19.257078192612727 ], [ -99.535086415898903, 19.25708117776659 ], [ -99.535215112054246, 19.257082754539418 ], [ -99.535579270299039, 19.257087215680009 ], [ -99.537075442405907, 19.257137474437947 ], [ -99.537064847206594, 19.257351523365113 ], [ -99.53705696568727, 19.257510749056859 ], [ -99.537050722606068, 19.257636874187142 ], [ -99.537040799248047, 19.257837349393743 ], [ -99.537030875872432, 19.258037824596023 ], [ -99.537028795097996, 19.258079861020143 ], [ -99.537002399004891, 19.258613121367681 ], [ -99.536946194263265, 19.260063003032514 ], [ -99.536897030299627, 19.261596439467205 ], [ -99.536885386630686, 19.262147697672908 ], [ -99.536861258222302, 19.263084834065427 ], [ -99.536795200926335, 19.264627962947195 ], [ -99.535874557438845, 19.264633877723249 ], [ -99.535346451773734, 19.264609709026235 ] ] ] ] } },
{ "type": "Feature", "properties": { "ID": 62, "ENTIDAD": 15, "MUNICIPIO": 77, "NOMBRE": "SAN MATEO ATENCO", "CONTROL": 259, "GEOMETRY1_": null, "ID_2": 4029, "ENTIDAD_2": 15, "DISTRITO_F": 27, "DISTRITO_L": 35, "MUNICIPIO_2": 77, "SECCION": 4133, "TIPO": 2, "CONTROL_2": 36916, "GEOMETRY1__2": null }, "geometry": { "type": "MultiPolygon", "coordinates": [ [ [ [ -99.535242430584475, 19.267581853666876 ], [ -99.53380275990726, 19.267576434615684 ], [ -99.532317373384117, 19.267542253307113 ], [ -99.530877640539686, 19.267517555371548 ], [ -99.529445868206707, 19.267494178328622 ], [ -99.529470593447698, 19.266761212193035 ], [ -99.529495318554893, 19.266028246000804 ], [ -99.529544506149236, 19.264520138561537 ], [ -99.52953615250135, 19.263808962876858 ], [ -99.529547194936242, 19.263440282285593 ], [ -99.529560091687244, 19.263009689313559 ], [ -99.53099525740339, 19.263018385487371 ], [ -99.530969580244573, 19.263820257359274 ], [ -99.530959525207336, 19.264535709767998 ], [ -99.532411596643854, 19.264534702104768 ], [ -99.533444061907403, 19.264567051983409 ], [ -99.533877362871166, 19.2645818596583 ], [ -99.534672832932159, 19.264595607683191 ], [ -99.535346451773734, 19.264609709026235 ], [ -99.535874557438845, 19.264633877723249 ], [ -99.536795200926335, 19.264627962947195 ], [ -99.536749284105966, 19.266119601298008 ], [ -99.536738535104789, 19.26686299231638 ], [ -99.536727786096478, 19.267606383276267 ], [ -99.535242430584475, 19.267581853666876 ] ] ] ] } },
{ "type": "Feature", "properties": { "ID": 62, "ENTIDAD": 15, "MUNICIPIO": 77, "NOMBRE": "SAN MATEO ATENCO", "CONTROL": 259, "GEOMETRY1_": null, "ID_2": 4030, "ENTIDAD_2": 15, "DISTRITO_F": 27, "DISTRITO_L": 35, "MUNICIPIO_2": 77, "SECCION": 4134, "TIPO": 2, "CONTROL_2": 37105, "GEOMETRY1__2": null }, "geometry": { "type": "MultiPolygon", "coordinates": [ [ [ [ -99.519578845685814, 19.266600658387794 ], [ -99.51961092954383, 19.266335478911188 ], [ -99.519702166452845, 19.265683786362512 ], [ -99.519758779560561, 19.265249791090206 ], [ -99.519828821430821, 19.264377505266786 ], [ -99.519933491090825, 19.262974589525907 ], [ -99.5199598318802, 19.26262153366244 ], [ -99.520004651611046, 19.262110646736847 ], [ -99.520084459953537, 19.26120092815551 ], [ -99.520204291570806, 19.260156941623986 ], [ -99.520266567451415, 19.259614382446816 ], [ -99.520435240255878, 19.258144857132301 ], [ -99.524112122019488, 19.258393810676399 ], [ -99.524600552116141, 19.25842500247817 ], [ -99.525729462929831, 19.258446463287257 ], [ -99.525565812049464, 19.259884892288273 ], [ -99.526702448910115, 19.259920111345668 ], [ -99.528138813435362, 19.259941513307876 ], [ -99.529623542849549, 19.259947437496347 ], [ -99.531092249184809, 19.259989157833523 ], [ -99.531808888108756, 19.260009772790724 ], [ -99.532542600577358, 19.260030875971445 ], [ -99.532532944362217, 19.260324186855264 ], [ -99.532493281494695, 19.261528953590851 ], [ -99.532473528145488, 19.262090431914931 ], [ -99.532440577151263, 19.263027040829318 ], [ -99.53099525740339, 19.263018385487371 ], [ -99.529560091687244, 19.263009689313559 ], [ -99.529547194936242, 19.263440282285593 ], [ -99.52953615250135, 19.263808962876858 ], [ -99.529544506149236, 19.264520138561537 ], [ -99.529495318554893, 19.266028246000804 ], [ -99.529470593447698, 19.266761212193035 ], [ -99.529445868206707, 19.267494178328622 ], [ -99.527924282488925, 19.267471666424928 ], [ -99.527270830027973, 19.267474473497082 ], [ -99.526412759905512, 19.267478156009929 ], [ -99.523977477179045, 19.267360737953574 ], [ -99.519512938283071, 19.267145393771447 ], [ -99.519578845685814, 19.266600658387794 ] ] ] ] } },
{ "type": "Feature", "properties": { "ID": 62, "ENTIDAD": 15, "MUNICIPIO": 77, "NOMBRE": "SAN MATEO ATENCO", "CONTROL": 259, "GEOMETRY1_": null, "ID_2": 4031, "ENTIDAD_2": 15, "DISTRITO_F": 27, "DISTRITO_L": 35, "MUNICIPIO_2": 77, "SECCION": 4135, "TIPO": 2, "CONTROL_2": 42276, "GEOMETRY1__2": null }, "geometry": { "type": "MultiPolygon", "coordinates": [ [ [ [ -99.520531638202556, 19.257410590578889 ], [ -99.520628035374799, 19.256676323936148 ], [ -99.520918150135742, 19.254302450514107 ], [ -99.520996554809145, 19.25399486887623 ], [ -99.521174718691199, 19.251584207586035 ], [ -99.521457369102549, 19.251483307452059 ], [ -99.522132285925892, 19.251499495024195 ], [ -99.524365618720395, 19.251552591733748 ], [ -99.524954679365166, 19.251540470388139 ], [ -99.524993884819779, 19.251540769673149 ], [ -99.526397683559495, 19.251549994453864 ], [ -99.526285545616858, 19.252740542928802 ], [ -99.527560654600094, 19.252684000682525 ], [ -99.52787345687527, 19.252671737971269 ], [ -99.528437416453997, 19.25264826289224 ], [ -99.529761645770577, 19.252586157002238 ], [ -99.529743847340768, 19.253301780222262 ], [ -99.531265846312593, 19.253355342501727 ], [ -99.531561578393564, 19.253363659220003 ], [ -99.531670207835219, 19.253366958968662 ], [ -99.531955430620101, 19.253375622642544 ], [ -99.532350214274459, 19.25339107802634 ], [ -99.532833176180887, 19.253407027963462 ], [ -99.532726386691195, 19.255309328005254 ], [ -99.532720060532171, 19.255479092168049 ], [ -99.532654671775845, 19.257002536384714 ], [ -99.53259522074022, 19.258507072890975 ], [ -99.532542600577358, 19.260030875971445 ], [ -99.531808888108756, 19.260009772790724 ], [ -99.531092249184809, 19.259989157833523 ], [ -99.529623542849549, 19.259947437496347 ], [ -99.528138813435362, 19.259941513307876 ], [ -99.526702448910115, 19.259920111345668 ], [ -99.525565812049464, 19.259884892288273 ], [ -99.525729462929831, 19.258446463287257 ], [ -99.524600552116141, 19.25842500247817 ], [ -99.524112122019488, 19.258393810676399 ], [ -99.520435240255878, 19.258144857132301 ], [ -99.520531638202556, 19.257410590578889 ] ] ] ] } },
{ "type": "Feature", "properties": { "ID": 62, "ENTIDAD": 15, "MUNICIPIO": 77, "NOMBRE": "SAN MATEO ATENCO", "CONTROL": 259, "GEOMETRY1_": null, "ID_2": 4032, "ENTIDAD_2": 15, "DISTRITO_F": 27, "DISTRITO_L": 35, "MUNICIPIO_2": 77, "SECCION": 4136, "TIPO": 2, "CONTROL_2": 42278, "GEOMETRY1__2": null }, "geometry": { "type": "MultiPolygon", "coordinates": [ [ [ [ -99.539811478872622, 19.243767996598812 ], [ -99.53984637019056, 19.245368613372158 ], [ -99.539168776129841, 19.24535402775367 ], [ -99.53911152065433, 19.247657362906821 ], [ -99.538344700226801, 19.247629870189705 ], [ -99.53832248651355, 19.248448003491202 ], [ -99.538964986930552, 19.248460987319785 ], [ -99.538150455506639, 19.249323617426445 ], [ -99.537670169794126, 19.249832258510779 ], [ -99.53690304354474, 19.250723829861027 ], [ -99.535780889730162, 19.251956557304052 ], [ -99.535704921301303, 19.252104431128238 ], [ -99.535336971141518, 19.252398671823808 ], [ -99.53531004427586, 19.252360651796021 ], [ -99.53528311742275, 19.252322631763718 ], [ -99.532895143577377, 19.252400315533688 ], [ -99.532939147611728, 19.251555525767969 ], [ -99.533123698491309, 19.249797623623 ], [ -99.533268280585617, 19.248385747914629 ], [ -99.53320484358558, 19.248386102514591 ], [ -99.532961518781164, 19.248378016968026 ], [ -99.532903923341351, 19.248323348075338 ], [ -99.53194847191736, 19.248335647284474 ], [ -99.531651392024088, 19.248415837301287 ], [ -99.531186813581328, 19.248418583861234 ], [ -99.53121310061222, 19.247723772310213 ], [ -99.53147763500597, 19.2477260627779 ], [ -99.531468871788064, 19.247290458634929 ], [ -99.531863584542535, 19.247288437976419 ], [ -99.532916623525907, 19.247286685187873 ], [ -99.533385334708015, 19.247284445735467 ], [ -99.533494892653749, 19.247284126369571 ], [ -99.533512181394727, 19.246796298981138 ], [ -99.533554100701863, 19.245613476176906 ], [ -99.532897601207551, 19.245601328183305 ], [ -99.532619184078882, 19.245597334616772 ], [ -99.532667027572813, 19.244794401913762 ], [ -99.532671591940627, 19.244283512791927 ], [ -99.532677796411136, 19.243589049620901 ], [ -99.532681342052499, 19.243192189083533 ], [ -99.533570411492178, 19.243228062966409 ], [ -99.533657228388705, 19.240701167434018 ], [ -99.534562093686006, 19.240715207681102 ], [ -99.535708091031267, 19.240747596705486 ], [ -99.535608964217246, 19.242884920626192 ], [ -99.537371807840913, 19.242930651521299 ], [ -99.537330255765085, 19.243742287805699 ], [ -99.538980959339071, 19.243753237554859 ], [ -99.539811478872622, 19.243767996598812 ] ] ] ] } },
{ "type": "Feature", "properties": { "ID": 62, "ENTIDAD": 15, "MUNICIPIO": 77, "NOMBRE": "SAN MATEO ATENCO", "CONTROL": 259, "GEOMETRY1_": null, "ID_2": 4033, "ENTIDAD_2": 15, "DISTRITO_F": 27, "DISTRITO_L": 35, "MUNICIPIO_2": 77, "SECCION": 4137, "TIPO": 2, "CONTROL_2": 42277, "GEOMETRY1__2": null }, "geometry": { "type": "MultiPolygon", "coordinates": [ [ [ [ -99.532350214274459, 19.25339107802634 ], [ -99.531955430620101, 19.253375622642544 ], [ -99.531670207835219, 19.253366958968662 ], [ -99.531561578393564, 19.253363659220003 ], [ -99.531265846312593, 19.253355342501727 ], [ -99.529743847340768, 19.253301780222262 ], [ -99.529761645770577, 19.252586157002238 ], [ -99.528437416453997, 19.25264826289224 ], [ -99.52787345687527, 19.252671737971269 ], [ -99.527560654600094, 19.252684000682525 ], [ -99.526285545616858, 19.252740542928802 ], [ -99.526397683559495, 19.251549994453864 ], [ -99.524993884819779, 19.251540769673149 ], [ -99.524954679365166, 19.251540470388139 ], [ -99.524365618720395, 19.251552591733748 ], [ -99.522132285925892, 19.251499495024195 ], [ -99.521457369102549, 19.251483307452059 ], [ -99.521174718691199, 19.251584207586035 ], [ -99.521772154918438, 19.247503093522784 ], [ -99.521722963372639, 19.246579199716923 ], [ -99.524950626822971, 19.246576960497606 ], [ -99.525278514505189, 19.246682633194446 ], [ -99.525234887747942, 19.247429927151963 ], [ -99.526102097152091, 19.247409685301317 ], [ -99.526186690599431, 19.247392401391618 ], [ -99.526204741543594, 19.246713646025182 ], [ -99.527539743527186, 19.246740858480194 ], [ -99.528138765731242, 19.246753065677474 ], [ -99.528711937403855, 19.246762482495146 ], [ -99.528804499067249, 19.243815131815904 ], [ -99.52999581003381, 19.243864235918164 ], [ -99.52992972836492, 19.24554189350804 ], [ -99.529889524085277, 19.246756658036748 ], [ -99.529888167658143, 19.247294605657562 ], [ -99.531149597372831, 19.247289637853481 ], [ -99.531468871788064, 19.247290458634929 ], [ -99.53147763500597, 19.2477260627779 ], [ -99.53121310061222, 19.247723772310213 ], [ -99.531186813581328, 19.248418583861234 ], [ -99.531651392024088, 19.248415837301287 ], [ -99.53194847191736, 19.248335647284474 ], [ -99.532903923341351, 19.248323348075338 ], [ -99.532961518781164, 19.248378016968026 ], [ -99.53320484358558, 19.248386102514591 ], [ -99.533268280585617, 19.248385747914629 ], [ -99.533123698491309, 19.249797623623 ], [ -99.532939147611728, 19.251555525767969 ], [ -99.532895143577377, 19.252400315533688 ], [ -99.532865617091261, 19.252879999328844 ], [ -99.532833176180887, 19.253407027963462 ], [ -99.532350214274459, 19.25339107802634 ] ] ] ] } },
{ "type": "Feature", "properties": { "ID": 62, "ENTIDAD": 15, "MUNICIPIO": 77, "NOMBRE": "SAN MATEO ATENCO", "CONTROL": 259, "GEOMETRY1_": null, "ID_2": 4034, "ENTIDAD_2": 15, "DISTRITO_F": 27, "DISTRITO_L": 35, "MUNICIPIO_2": 77, "SECCION": 4138, "TIPO": 2, "CONTROL_2": 42279, "GEOMETRY1__2": null }, "geometry": { "type": "MultiPolygon", "coordinates": [ [ [ [ -99.514882500900598, 19.25357514676811 ], [ -99.514876130119802, 19.251533206696173 ], [ -99.514868186224192, 19.248986694064271 ], [ -99.511929410226955, 19.248931855093144 ], [ -99.512474971778317, 19.247538665386863 ], [ -99.513162457118185, 19.245783012858013 ], [ -99.514332509192457, 19.241176348168047 ], [ -99.515167150840227, 19.240663342727572 ], [ -99.520099118923184, 19.240681237069367 ], [ -99.519827831000086, 19.238975231028398 ], [ -99.519817938000045, 19.238721077028352 ], [ -99.519927777818978, 19.238381316735644 ], [ -99.52087518863155, 19.23837911155999 ], [ -99.522318889637702, 19.238393090543486 ], [ -99.527523494302898, 19.23818863991773 ], [ -99.532215504680977, 19.238035064224846 ], [ -99.537816848784502, 19.237851567997865 ], [ -99.540024007825949, 19.23777921150219 ], [ -99.539854456648541, 19.242245827145879 ], [ -99.53899174194251, 19.242255762015905 ], [ -99.538987244893931, 19.242880304092342 ], [ -99.538980959337735, 19.243753237144574 ], [ -99.537330255765085, 19.243742287805699 ], [ -99.537371807840913, 19.242930651521299 ], [ -99.535608964217246, 19.242884920626192 ], [ -99.535708091031267, 19.240747596705486 ], [ -99.534562093686006, 19.240715207681102 ], [ -99.533657228388705, 19.240701167434018 ], [ -99.533570411492178, 19.243228062966409 ], [ -99.532681342052499, 19.243192189083533 ], [ -99.532677796411136, 19.243589049620901 ], [ -99.532671591940627, 19.244283512791927 ], [ -99.532667027572813, 19.244794401913762 ], [ -99.532619184078882, 19.245597334616772 ], [ -99.532897601207551, 19.245601328183305 ], [ -99.533554100701863, 19.245613476176906 ], [ -99.533512181394727, 19.246796298981138 ], [ -99.533494892653749, 19.247284126369571 ], [ -99.533385334708015, 19.247284445735467 ], [ -99.532916623525907, 19.247286685187873 ], [ -99.531863584542535, 19.247288437976419 ], [ -99.531468871788064, 19.247290458634929 ], [ -99.531149597372831, 19.247289637853481 ], [ -99.529888167658143, 19.247294605657562 ], [ -99.529889524085277, 19.246756658036748 ], [ -99.52992972836492, 19.24554189350804 ], [ -99.52999581003381, 19.243864235918164 ], [ -99.528804499067249, 19.243815131815904 ], [ -99.528711937403855, 19.246762482495146 ], [ -99.528138765731242, 19.246753065677474 ], [ -99.527539743527186, 19.246740858480194 ], [ -99.526204741543594, 19.246713646025182 ], [ -99.526186690599431, 19.247392401391618 ], [ -99.526102097152091, 19.247409685301317 ], [ -99.525234887747942, 19.247429927151963 ], [ -99.525278514505189, 19.246682633194446 ], [ -99.524950626822971, 19.246576960497606 ], [ -99.521722963372639, 19.246579199716923 ], [ -99.521772154918438, 19.247503093522784 ], [ -99.521174718691199, 19.251584207586035 ], [ -99.520996554809145, 19.25399486887623 ], [ -99.520918150135742, 19.254302450514107 ], [ -99.514882500900598, 19.25357514676811 ] ] ] ] } },
{ "type": "Feature", "properties": { "ID": 62, "ENTIDAD": 15, "MUNICIPIO": 77, "NOMBRE": "SAN MATEO ATENCO", "CONTROL": 259, "GEOMETRY1_": null, "ID_2": 4035, "ENTIDAD_2": 15, "DISTRITO_F": 27, "DISTRITO_L": 35, "MUNICIPIO_2": 77, "SECCION": 4139, "TIPO": 4, "CONTROL_2": 37111, "GEOMETRY1__2": null }, "geometry": { "type": "MultiPolygon", "coordinates": [ [ [ [ -99.541931741179567, 19.280246149718955 ], [ -99.541852947685513, 19.280027336356742 ], [ -99.541203787009067, 19.280054654464731 ], [ -99.541044984632777, 19.280061336865561 ], [ -99.540187140845873, 19.280109528592948 ], [ -99.538162412242599, 19.280134817864777 ], [ -99.538249978536058, 19.278982931564546 ], [ -99.540849620481254, 19.27776845280799 ], [ -99.540993643891284, 19.27770930804677 ], [ -99.542579908244079, 19.276948332229772 ], [ -99.543041689396787, 19.27673832478245 ], [ -99.545407860439383, 19.275662178527647 ], [ -99.545535337852186, 19.275604199912863 ], [ -99.546726273619683, 19.275062538473723 ], [ -99.546778434243507, 19.275040601708156 ], [ -99.547431352319805, 19.274766007570385 ], [ -99.54748001176155, 19.274745543009455 ], [ -99.547595511456464, 19.274696967564676 ], [ -99.547857968240166, 19.274586586335147 ], [ -99.548565160832183, 19.274261313068404 ], [ -99.550619774443703, 19.273316270808309 ], [ -99.551689325604258, 19.272817239936913 ], [ -99.552402970034848, 19.272484262803374 ], [ -99.552514641528759, 19.272432157977757 ], [ -99.552886277621482, 19.272258755492768 ], [ -99.553099329986949, 19.272161150910378 ], [ -99.553496167601878, 19.27197934877594 ], [ -99.553681706530284, 19.271894347902908 ], [ -99.554363101011134, 19.27158217552374 ], [ -99.554477193784095, 19.271529904982486 ], [ -99.554587008055975, 19.271479594744992 ], [ -99.554923716683973, 19.271325334680299 ], [ -99.554980865137452, 19.271362933076251 ], [ -99.555038013616738, 19.27140053145343 ], [ -99.555080814729649, 19.272104240923504 ], [ -99.555102070779526, 19.272366305751163 ], [ -99.555181382659015, 19.273347312348772 ], [ -99.55529581795895, 19.274762735258751 ], [ -99.555616988351005, 19.277471736675871 ], [ -99.555023238740091, 19.277513453703165 ], [ -99.555068870959602, 19.277993862224868 ], [ -99.553767081945864, 19.278053067972174 ], [ -99.552425333198826, 19.278126199373201 ], [ -99.550692682692116, 19.278234639204584 ], [ -99.548123588309011, 19.278366300107042 ], [ -99.546468028923314, 19.278475830298611 ], [ -99.546579223824139, 19.28002858644069 ], [ -99.546354478187979, 19.280041098653587 ], [ -99.543859972082856, 19.28017995606552 ], [ -99.543824007932116, 19.280187386152175 ], [ -99.543605444834512, 19.280232540472682 ], [ -99.543423631412637, 19.28026763261844 ], [ -99.541931741179567, 19.280246149718955 ] ] ] ] } },
{ "type": "Feature", "properties": { "ID": 62, "ENTIDAD": 15, "MUNICIPIO": 77, "NOMBRE": "SAN MATEO ATENCO", "CONTROL": 259, "GEOMETRY1_": null, "ID_2": 4036, "ENTIDAD_2": 15, "DISTRITO_F": 27, "DISTRITO_L": 35, "MUNICIPIO_2": 77, "SECCION": 4140, "TIPO": 2, "CONTROL_2": 40600, "GEOMETRY1__2": null }, "geometry": { "type": "MultiPolygon", "coordinates": [ [ [ [ -99.545496076327041, 19.250007043868195 ], [ -99.548539770809484, 19.250008590162963 ], [ -99.54853006665445, 19.25050428688148 ], [ -99.549458275168135, 19.250513584442867 ], [ -99.549435527093564, 19.249128091578708 ], [ -99.550337423132476, 19.249164448674048 ], [ -99.550446537290412, 19.249271354845529 ], [ -99.551484917768192, 19.249164961126883 ], [ -99.551495164470694, 19.24951776618121 ], [ -99.552555965404608, 19.249488746823189 ], [ -99.553334550358969, 19.256549370926244 ], [ -99.553858612146612, 19.261116481360016 ], [ -99.554561080860196, 19.267207567482888 ], [ -99.555621879894346, 19.267141710821132 ], [ -99.55603588947902, 19.270773478545845 ], [ -99.554923716683973, 19.271325334680299 ], [ -99.554587008055975, 19.271479594744992 ], [ -99.554477193784095, 19.271529904982486 ], [ -99.554363101011134, 19.27158217552374 ], [ -99.553681706530284, 19.271894347902908 ], [ -99.553496167601878, 19.27197934877594 ], [ -99.553099329986949, 19.272161150910378 ], [ -99.552886277621482, 19.272258755492768 ], [ -99.552514641528759, 19.272432157977757 ], [ -99.552402970034848, 19.272484262803374 ], [ -99.551689325604258, 19.272817239936913 ], [ -99.550619774443703, 19.273316270808309 ], [ -99.548565160832183, 19.274261313068404 ], [ -99.547857968240166, 19.274586586335147 ], [ -99.547595511456464, 19.274696967564676 ], [ -99.54748001176155, 19.274745543009455 ], [ -99.547431352319805, 19.274766007570385 ], [ -99.546778434243507, 19.275040601708156 ], [ -99.546726273619683, 19.275062538473723 ], [ -99.546732407654787, 19.274539426861082 ], [ -99.546704877958121, 19.272170643618416 ], [ -99.546777645247005, 19.270784020007067 ], [ -99.546808084694433, 19.269959440730268 ], [ -99.546771706131864, 19.269689965877937 ], [ -99.546767568314934, 19.269438882305394 ], [ -99.54675266713754, 19.268534664187204 ], [ -99.54675437800843, 19.268422591535113 ], [ -99.546765160856722, 19.26771624770609 ], [ -99.543307827019717, 19.267673600329129 ], [ -99.543339179209696, 19.266963681195811 ], [ -99.54337053121246, 19.266253762008891 ], [ -99.543418400266233, 19.264677118147549 ], [ -99.543458868081615, 19.263357621177978 ], [ -99.543480969005373, 19.262928276055483 ], [ -99.543522553533151, 19.26212042683326 ], [ -99.54471978910739, 19.262152616233042 ], [ -99.544723374663931, 19.260958502429308 ], [ -99.546191526966609, 19.260954123664501 ], [ -99.54621809170429, 19.257607695283795 ], [ -99.548461136571945, 19.257436525993445 ], [ -99.548451658661023, 19.256850228334475 ], [ -99.544763090858211, 19.257025708101814 ], [ -99.543076920115922, 19.257116525945879 ], [ -99.543102163295842, 19.255636334006613 ], [ -99.54309238183788, 19.253793995442191 ], [ -99.540856128830114, 19.253800620396905 ], [ -99.540852345319934, 19.253569867462225 ], [ -99.54084225572916, 19.2529545064749 ], [ -99.541313721265809, 19.252087922386714 ], [ -99.535720721248083, 19.252333195542402 ], [ -99.535712821268163, 19.252218813336381 ], [ -99.535704921301303, 19.252104431128238 ], [ -99.535780889730162, 19.251956557304052 ], [ -99.53690304354474, 19.250723829861027 ], [ -99.537670169794126, 19.249832258510779 ], [ -99.545496076327041, 19.250007043868195 ] ] ] ] } },
{ "type": "Feature", "properties": { "ID": 62, "ENTIDAD": 15, "MUNICIPIO": 77, "NOMBRE": "SAN MATEO ATENCO", "CONTROL": 259, "GEOMETRY1_": null, "ID_2": 4037, "ENTIDAD_2": 15, "DISTRITO_F": 27, "DISTRITO_L": 35, "MUNICIPIO_2": 77, "SECCION": 4141, "TIPO": 2, "CONTROL_2": 40601, "GEOMETRY1__2": null }, "geometry": { "type": "MultiPolygon", "coordinates": [ [ [ [ -99.563815860451967, 19.287051018670674 ], [ -99.566559017757527, 19.28717100235918 ], [ -99.566501967555396, 19.292719930085301 ], [ -99.56707062303667, 19.29541639307114 ], [ -99.567464643042399, 19.29748563761266 ], [ -99.569135269521411, 19.296649364392049 ], [ -99.569130415041201, 19.29699887814095 ], [ -99.569739060688775, 19.297028754306268 ], [ -99.569876255582315, 19.297335287391569 ], [ -99.570115560663766, 19.297213651858332 ], [ -99.571917105438942, 19.29951634878352 ], [ -99.572688900490945, 19.300550567920816 ], [ -99.572307202860145, 19.300789981106202 ], [ -99.572663571662531, 19.302702889404785 ], [ -99.572823369942014, 19.303060453368953 ], [ -99.573092641638851, 19.304170675142863 ], [ -99.571656076293749, 19.304240752358091 ], [ -99.571645272695136, 19.305703664842216 ], [ -99.570644692737602, 19.305686739465468 ], [ -99.569428016013774, 19.305666151290968 ], [ -99.5682102460121, 19.305998894367907 ], [ -99.56719661317311, 19.306387286869082 ], [ -99.564850437410598, 19.30790728155122 ], [ -99.56404780664738, 19.305460084361929 ], [ -99.563819161701559, 19.30484753711141 ], [ -99.563944184914817, 19.30479763694057 ], [ -99.56280665645852, 19.301514736011065 ], [ -99.562649614595003, 19.301346950264048 ], [ -99.562100613413051, 19.29984568991755 ], [ -99.559629826462455, 19.300991948600856 ], [ -99.556702864668594, 19.289016128587402 ], [ -99.55612380700768, 19.28649338748475 ], [ -99.555825276612623, 19.286495389519875 ], [ -99.55544909200141, 19.286033877433603 ], [ -99.556016209233434, 19.286058454261692 ], [ -99.558565759669222, 19.286114951750751 ], [ -99.562274970598295, 19.286199165857475 ], [ -99.563782355916572, 19.286220184299324 ], [ -99.563815860451967, 19.287051018670674 ] ] ] ] } },
{ "type": "Feature", "properties": { "ID": 62, "ENTIDAD": 15, "MUNICIPIO": 77, "NOMBRE": "SAN MATEO ATENCO", "CONTROL": 259, "GEOMETRY1_": null, "ID_2": 6484, "ENTIDAD_2": 15, "DISTRITO_F": 27, "DISTRITO_L": 35, "MUNICIPIO_2": 77, "SECCION": 6673, "TIPO": 2, "CONTROL_2": 41531, "GEOMETRY1__2": null }, "geometry": { "type": "MultiPolygon", "coordinates": [ [ [ [ -99.525680732907546, 19.284223871542352 ], [ -99.522678374639938, 19.283305385543557 ], [ -99.522289398694127, 19.283186394672441 ], [ -99.522386974797698, 19.280712104444589 ], [ -99.522384860052426, 19.280045076463193 ], [ -99.522411000963729, 19.279223311435441 ], [ -99.523313317276717, 19.279466156290788 ], [ -99.524634274922306, 19.279802054905812 ], [ -99.52495846658924, 19.279849755871012 ], [ -99.525176993277711, 19.279869872841399 ], [ -99.529069901211699, 19.279649823064098 ], [ -99.529058379644269, 19.279949724179186 ], [ -99.529053507642018, 19.280076537890746 ], [ -99.529037461777207, 19.28049419743769 ], [ -99.529017909524001, 19.281003123240428 ], [ -99.529014102490663, 19.281102216306927 ], [ -99.529010596563907, 19.28148622055884 ], [ -99.52900494442396, 19.282105301244229 ], [ -99.528966853255014, 19.283312305102445 ], [ -99.528952511015305, 19.283766768327759 ], [ -99.528898280889976, 19.284448053454824 ], [ -99.528885381077515, 19.284643618931504 ], [ -99.528870913465013, 19.285253816642534 ], [ -99.525680732907546, 19.284223871542352 ] ] ] ] } },
{ "type": "Feature", "properties": { "ID": 62, "ENTIDAD": 15, "MUNICIPIO": 77, "NOMBRE": "SAN MATEO ATENCO", "CONTROL": 259, "GEOMETRY1_": null, "ID_2": 6485, "ENTIDAD_2": 15, "DISTRITO_F": 27, "DISTRITO_L": 35, "MUNICIPIO_2": 77, "SECCION": 6674, "TIPO": 2, "CONTROL_2": 41529, "GEOMETRY1__2": null }, "geometry": { "type": "MultiPolygon", "coordinates": [ [ [ [ -99.522432792410299, 19.278538274397626 ], [ -99.522647120524695, 19.277264903585099 ], [ -99.522704228967314, 19.276277995608684 ], [ -99.522704228945628, 19.276277995524886 ], [ -99.522704228965935, 19.276277995173913 ], [ -99.523110039686998, 19.274922241461095 ], [ -99.52442455160994, 19.275021755067662 ], [ -99.52731305920355, 19.275140294924871 ], [ -99.527331553950603, 19.274075787596828 ], [ -99.528329479029836, 19.274141043150717 ], [ -99.528321369880445, 19.275181664172543 ], [ -99.529146308635291, 19.275215505496988 ], [ -99.529223034283802, 19.275222868890232 ], [ -99.529211900276295, 19.275883776067001 ], [ -99.529202539547043, 19.276347431238609 ], [ -99.529184742302689, 19.277228956896131 ], [ -99.529178063337298, 19.277461693666208 ], [ -99.529170587356589, 19.2777222010786 ], [ -99.529154179615688, 19.278025326025755 ], [ -99.529119971053234, 19.278657301733841 ], [ -99.529078838163116, 19.279417201488709 ], [ -99.529069901211699, 19.279649823064098 ], [ -99.525176993280297, 19.279869873652565 ], [ -99.524958466591784, 19.279849756682175 ], [ -99.524634274924892, 19.279802055716978 ], [ -99.523313317279303, 19.279466157102128 ], [ -99.522411000963729, 19.279223311435441 ], [ -99.522432792410299, 19.278538274397626 ] ] ] ] } }
]
}
