{
"type": "FeatureCollection",
"name": "SANTABARBARASECCIONES",
"crs": { "type": "name", "properties": { "name": "urn:ogc:def:crs:OGC:1.3:CRS84" } },
"features": [
{ "type": "Feature", "properties": { "ID": 2175, "ENTIDAD": 8, "DISTRITO_F": 9, "DISTRITO_L": 20, "MUNICIPIO": 44, "SECCION": 2283, "TIPO": 4, "CONTROL": 15480, "GEOMETRY1_": null }, "geometry": { "type": "MultiPolygon", "coordinates": [ [ [ [ -105.725388405900858, 26.747212855111119 ], [ -105.725633816727921, 26.747210993960699 ], [ -105.725879227536325, 26.747209132385755 ], [ -105.725633816727921, 26.747210993960792 ], [ -105.725388405900858, 26.747212855111119 ] ] ], [ [ [ -105.719544176319516, 26.751805504471875 ], [ -105.716133101010868, 26.754312164778927 ], [ -105.719544176319516, 26.751805504471786 ], [ -105.720153577606609, 26.751387411310336 ], [ -105.719544176319516, 26.751805504471875 ] ] ] ] } },
{ "type": "Feature", "properties": { "ID": 2172, "ENTIDAD": 8, "DISTRITO_F": 9, "DISTRITO_L": 20, "MUNICIPIO": 44, "SECCION": 2280, "TIPO": 4, "CONTROL": 15336, "GEOMETRY1_": null }, "geometry": { "type": "MultiPolygon", "coordinates": [ [ [ [ -105.66816051796765, 26.832319174532774 ], [ -105.665727535613954, 26.834734902157443 ], [ -105.66816051796765, 26.832319174532682 ], [ -105.67147050084543, 26.831716454187461 ], [ -105.66816051796765, 26.832319174532774 ] ] ], [ [ [ -105.676175569438996, 26.810304830877339 ], [ -105.676175569438996, 26.810304830877246 ], [ -105.676891661894231, 26.809507266451696 ], [ -105.676175569438996, 26.810304830877339 ] ] ] ] } },
{ "type": "Feature", "properties": { "ID": 2438, "ENTIDAD": 8, "DISTRITO_F": 9, "DISTRITO_L": 21, "MUNICIPIO": 59, "SECCION": 2575, "TIPO": 4, "CONTROL": 7102, "GEOMETRY1_": null }, "geometry": { "type": "MultiPolygon", "coordinates": [ [ [ [ -105.916576253213506, 26.788967349013895 ], [ -105.917057489842577, 26.788136080877287 ], [ -105.91753871959807, 26.787304811188182 ], [ -105.918141709026031, 26.786389753764166 ], [ -105.918501158490102, 26.785642267153111 ], [ -105.918859628296687, 26.784812091759747 ], [ -105.919455766131733, 26.783318213618131 ], [ -105.920055792290981, 26.782155084719466 ], [ -105.92152862905742, 26.782141878715159 ], [ -105.922883618235858, 26.782543198963925 ], [ -105.924115879449801, 26.782945609437647 ], [ -105.925343250465886, 26.782934570108381 ], [ -105.925835178778001, 26.783012839157049 ], [ -105.927798972253541, 26.782995147268021 ], [ -105.929389640168566, 26.782567314232548 ], [ -105.930601269266361, 26.781233226972958 ], [ -105.931202153881713, 26.78015274139117 ], [ -105.932516773812566, 26.777163775998439 ], [ -105.932757310537539, 26.776748116501633 ], [ -105.934319278523688, 26.773922288875024 ], [ -105.943097386318001, 26.77921775001461 ], [ -105.943097386045181, 26.779217750656805 ], [ -105.934319278531262, 26.773922289685533 ], [ -105.932757310545114, 26.776748117312579 ], [ -105.93251677382014, 26.777163776809388 ], [ -105.931202153889259, 26.78015274220266 ], [ -105.930601269273907, 26.781233227784728 ], [ -105.929389640176126, 26.782567315044496 ], [ -105.927798972261058, 26.782995148079966 ], [ -105.925835178785519, 26.783012839969171 ], [ -105.925343250473404, 26.782934570920414 ], [ -105.924115879457275, 26.78294561024968 ], [ -105.922883618243318, 26.782543199775866 ], [ -105.921528629064881, 26.782141879527011 ], [ -105.920055792298413, 26.782155085531318 ], [ -105.919455766139151, 26.783318214430174 ], [ -105.918859628304148, 26.784812092572146 ], [ -105.91850115849752, 26.785642267965599 ], [ -105.918141709033449, 26.786389754576831 ], [ -105.917538719605488, 26.787304812001036 ], [ -105.917057489850009, 26.788136081690226 ], [ -105.91657625322091, 26.788967349826926 ], [ -105.916466164643168, 26.790043389190764 ], [ -105.916466164578154, 26.790043388940454 ], [ -105.916576253213506, 26.788967349013895 ] ] ], [ [ [ -105.816160123503181, 26.912717036635577 ], [ -105.814285306882581, 26.909838106984957 ], [ -105.816160123503195, 26.912717036635577 ], [ -105.812722159333376, 26.912993426521425 ], [ -105.816160123503181, 26.912717036635577 ] ] ], [ [ [ -105.831090268620613, 26.873725851349942 ], [ -105.829053854081067, 26.872874515243861 ], [ -105.831090268620628, 26.873725851349942 ], [ -105.834152722750503, 26.874999860810828 ], [ -105.831090268620613, 26.873725851349942 ] ] ], [ [ [ -105.848169291314463, 26.841082522180429 ], [ -105.848904717025718, 26.840952252341527 ], [ -105.84964014094588, 26.840821978715883 ], [ -105.850620703386355, 26.840648274658111 ], [ -105.851601262642021, 26.840474563868728 ], [ -105.853687961318599, 26.840374144902302 ], [ -105.856634264664791, 26.840266373012447 ], [ -105.859457759532589, 26.840159588785664 ], [ -105.862152832800717, 26.839557667559781 ], [ -105.865217212737178, 26.839035223235072 ], [ -105.8671782498525, 26.838687594190333 ], [ -105.869262072991717, 26.838338880965726 ], [ -105.871344940229861, 26.837907448864485 ], [ -105.872572922379447, 26.837896852409532 ], [ -105.874535803560647, 26.837714499133682 ], [ -105.876008432595768, 26.837619060577676 ], [ -105.87723830300979, 26.837773800377661 ], [ -105.878227316646033, 26.838344101270593 ], [ -105.879463834498708, 26.839077639322472 ], [ -105.88070511361876, 26.840224607179405 ], [ -105.881823616172596, 26.841372631698921 ], [ -105.883062091507682, 26.842271512892946 ], [ -105.883437157226808, 26.842847121055517 ], [ -105.88405973757547, 26.843585963898875 ], [ -105.88505264490513, 26.84448696678912 ], [ -105.885300159756568, 26.844650200308187 ], [ -105.885790426846654, 26.844563225807601 ], [ -105.886762375964082, 26.843645079579474 ], [ -105.887120295071327, 26.842732292932759 ], [ -105.88772572091554, 26.841982734797075 ], [ -105.88857005735828, 26.840652210005526 ], [ -105.890022634853736, 26.838820176927182 ], [ -105.891602747219409, 26.837400492909147 ], [ -105.893188568487361, 26.836476919652306 ], [ -105.894044305053555, 26.836138619083638 ], [ -105.895513052235202, 26.835712226711259 ], [ -105.897227376971642, 26.8352836565359 ], [ -105.898944574790917, 26.835103129354188 ], [ -105.900049722604479, 26.835093378108301 ], [ -105.901765947782081, 26.834830129087752 ], [ -105.902989060180388, 26.834405830786302 ], [ -105.903844750404559, 26.834067471947414 ], [ -105.904454850331049, 26.83373128373205 ], [ -105.905180005429287, 26.832732503119651 ], [ -105.905529041972088, 26.831075483702449 ], [ -105.9058896740015, 26.830410715823696 ], [ -105.906617698834737, 26.829659991331685 ], [ -105.907828146993324, 26.828160712839431 ], [ -105.908556144813673, 26.827409978820967 ], [ -105.909408856886259, 26.826823524748782 ], [ -105.911114254484701, 26.825650601708549 ], [ -105.912089722934596, 26.825063038667025 ], [ -105.913187963451847, 26.824474374096027 ], [ -105.914408000937186, 26.823801917618944 ], [ -105.915263576370435, 26.82346349208709 ], [ -105.916480666769431, 26.822542955619834 ], [ -105.91684510767962, 26.822208911445852 ], [ -105.91720272111624, 26.821296053974791 ], [ -105.917202721226346, 26.821296054531629 ], [ -105.916845107687081, 26.822208912264834 ], [ -105.916480666776906, 26.822542956438909 ], [ -105.91526357637791, 26.823463492906345 ], [ -105.914408000944633, 26.823801918438203 ], [ -105.913187963459265, 26.824474374915372 ], [ -105.912089722942, 26.825063039486466 ], [ -105.911114254492119, 26.825650602528086 ], [ -105.909408856893634, 26.826823525568486 ], [ -105.908556144821063, 26.827409979640862 ], [ -105.907828147000728, 26.828160713659411 ], [ -105.906617698842126, 26.829659992151932 ], [ -105.905889674008876, 26.830410716644032 ], [ -105.905529041979435, 26.83107548452297 ], [ -105.905180005436634, 26.832732503940541 ], [ -105.904454850338382, 26.833731284553014 ], [ -105.903844750411906, 26.834067472768471 ], [ -105.902989060187721, 26.83440583160737 ], [ -105.901765947789414, 26.834830129908905 ], [ -105.900049722611783, 26.835093378929546 ], [ -105.898944574798207, 26.835103130175341 ], [ -105.897227376978961, 26.835283657357142 ], [ -105.895513052242478, 26.835712227532593 ], [ -105.894044305060788, 26.836138619905061 ], [ -105.893188568494608, 26.836476920473725 ], [ -105.891602747226642, 26.837400493730751 ], [ -105.890022634860969, 26.83882017774906 ], [ -105.88857005736547, 26.840652210827677 ], [ -105.887725720922759, 26.841982735619496 ], [ -105.88712029507856, 26.842732293755347 ], [ -105.886762375971273, 26.843645080402258 ], [ -105.885790426853845, 26.84456322663047 ], [ -105.885300159763759, 26.844650201131145 ], [ -105.885052644912292, 26.844486967611992 ], [ -105.884059737582632, 26.843585964721562 ], [ -105.883437157233956, 26.842847121878123 ], [ -105.88306209151483, 26.84227151371546 ], [ -105.881823616179716, 26.841372632521256 ], [ -105.880705113625879, 26.840224608001559 ], [ -105.879463834505813, 26.839077640144346 ], [ -105.878227316653152, 26.838344102092375 ], [ -105.877238303016881, 26.837773801199358 ], [ -105.876008432602845, 26.837619061399291 ], [ -105.874535803567696, 26.837714499955386 ], [ -105.872572922386439, 26.837896853231239 ], [ -105.871344940236881, 26.837907449686188 ], [ -105.869262072998708, 26.838338881787521 ], [ -105.867178249859464, 26.838687595012217 ], [ -105.865217212744142, 26.83903522405695 ], [ -105.862152832807624, 26.839557668381754 ], [ -105.859457759539495, 26.840159589607733 ], [ -105.856634264671655, 26.840266373834606 ], [ -105.853687961325448, 26.840374145724375 ], [ -105.851601262648856, 26.840474564690801 ], [ -105.850620703393162, 26.84064827548027 ], [ -105.849640140952701, 26.840821979538134 ], [ -105.848904717032497, 26.840952253163771 ], [ -105.848169291321256, 26.841082523002772 ], [ -105.845477794679539, 26.842014935585542 ], [ -105.848169291314463, 26.841082522180429 ] ] ], [ [ [ -105.91680611868415, 26.818901409664274 ], [ -105.917150074796808, 26.816830926278065 ], [ -105.917150074876858, 26.816830926659076 ], [ -105.916806118784265, 26.818901409924855 ], [ -105.91680611868415, 26.818901409664274 ] ] ], [ [ [ -105.916372513548097, 26.813364633655933 ], [ -105.916731079795539, 26.812534464242646 ], [ -105.916968821738763, 26.811870767293112 ], [ -105.917574864405651, 26.811203774909966 ], [ -105.918550176789623, 26.810616170145838 ], [ -105.91953133716666, 26.810524684450328 ], [ -105.920273800445756, 26.811014206854964 ], [ -105.922739914884346, 26.811901731232432 ], [ -105.924943862156042, 26.811385735239131 ], [ -105.925542989356202, 26.810139898029732 ], [ -105.925542989456389, 26.81013989865389 ], [ -105.924943862163602, 26.811385736056138 ], [ -105.922739914891864, 26.811901732049613 ], [ -105.920273800453231, 26.811014207671967 ], [ -105.919531337174149, 26.810524685267232 ], [ -105.918550176797112, 26.810616170962753 ], [ -105.917574864413098, 26.811203775726973 ], [ -105.916968821746224, 26.811870768110293 ], [ -105.916731079803, 26.812534465059915 ], [ -105.91637251364574, 26.813364634264442 ], [ -105.916372513548097, 26.813364633655933 ] ] ], [ [ [ -105.916852901874762, 26.791611168119577 ], [ -105.916852901926262, 26.79161116834922 ], [ -105.916746709320392, 26.793017959557215 ], [ -105.916746709311099, 26.793017958768225 ], [ -105.916852901874762, 26.791611168119577 ] ] ] ] } },
{ "type": "Feature", "properties": { "ID": 2457, "ENTIDAD": 8, "DISTRITO_F": 9, "DISTRITO_L": 21, "MUNICIPIO": 60, "SECCION": 2595, "TIPO": 4, "CONTROL": 7106, "GEOMETRY1_": null }, "geometry": { "type": "MultiPolygon", "coordinates": [ [ [ [ -105.74831542752986, 26.910408512596035 ], [ -105.747516645815239, 26.909955295262776 ], [ -105.746164810918032, 26.90913110007499 ], [ -105.745180952512939, 26.907893217257811 ], [ -105.744197392250967, 26.906903199610312 ], [ -105.742845891093495, 26.906326843812359 ], [ -105.74186308829961, 26.905997803199405 ], [ -105.741862002952388, 26.905006311854684 ], [ -105.74198453508528, 26.904758257348 ], [ -105.742229960546226, 26.904592645164733 ], [ -105.742474113257472, 26.903270292527896 ], [ -105.742104802105175, 26.902444595275263 ], [ -105.74136790647438, 26.902363059563903 ], [ -105.741367096318783, 26.901619440618621 ], [ -105.741488995458596, 26.900793016124613 ], [ -105.741365116506145, 26.899801705090894 ], [ -105.740873207274078, 26.89914143353807 ], [ -105.740135799507883, 26.898564144605125 ], [ -105.738735925893991, 26.898100573011536 ], [ -105.741517419377047, 26.896194346952445 ], [ -105.745842984057759, 26.893516983463702 ], [ -105.746523335923342, 26.893095847633244 ], [ -105.749958336246252, 26.892573006328504 ], [ -105.751674110233139, 26.892146173487376 ], [ -105.752471847941862, 26.892057263729264 ], [ -105.753269584286585, 26.891968349490767 ], [ -105.754005889051584, 26.89187991002477 ], [ -105.754742192571953, 26.89179146674358 ], [ -105.756089355921446, 26.891367457687064 ], [ -105.756818770406085, 26.890617480013265 ], [ -105.757671033431663, 26.889866537129077 ], [ -105.759736332324536, 26.887617532885926 ], [ -105.762604340693088, 26.887561725451508 ], [ -105.763298711407586, 26.887548205209207 ], [ -105.766861083780412, 26.887478787793945 ], [ -105.780860853967468, 26.878950050392376 ], [ -105.786557514584999, 26.875478871781006 ], [ -105.787491166829412, 26.874909922385125 ], [ -105.788790646468982, 26.875250992015491 ], [ -105.795745490695978, 26.877076164572944 ], [ -105.807529407136514, 26.864823835956159 ], [ -105.809186257807326, 26.864686232809838 ], [ -105.810483762958157, 26.864578459915098 ], [ -105.810843103930736, 26.864548610330242 ], [ -105.81653794124253, 26.862971903271792 ], [ -105.816726246815463, 26.863342487481269 ], [ -105.817224786399294, 26.863999952847802 ], [ -105.818097244682917, 26.865150512548098 ], [ -105.818965195768627, 26.865887619420253 ], [ -105.819834063745873, 26.866707409975895 ], [ -105.820333542333088, 26.867447552653083 ], [ -105.822071334574446, 26.869087109871572 ], [ -105.824544370389674, 26.870555151949681 ], [ -105.827017469393127, 26.872023148991872 ], [ -105.829053854081067, 26.872874515243861 ], [ -105.831090268620613, 26.873725851349942 ], [ -105.834152722750503, 26.874999860810828 ], [ -105.833680973569443, 26.876168027841857 ], [ -105.833291569216627, 26.877132270122932 ], [ -105.834029937476231, 26.878906661163139 ], [ -105.835017995751613, 26.87998961506052 ], [ -105.837265785963069, 26.880774124872644 ], [ -105.837904009816512, 26.880996865223612 ], [ -105.837319908735566, 26.881571246501206 ], [ -105.836955502424928, 26.881946437497298 ], [ -105.836590634570143, 26.882280283203034 ], [ -105.834421352298918, 26.882920078347347 ], [ -105.83429457527825, 26.882963718942552 ], [ -105.828891402043681, 26.884823523336252 ], [ -105.826810899717131, 26.885637526338229 ], [ -105.825029972339408, 26.886663566945771 ], [ -105.823070178771843, 26.887690627631837 ], [ -105.823020417933108, 26.887950916460948 ], [ -105.822904298118402, 26.888558311208687 ], [ -105.820996534439615, 26.889466682385667 ], [ -105.82016698133306, 26.890166405656164 ], [ -105.819576641137516, 26.890971645030671 ], [ -105.819225902997971, 26.891935855376811 ], [ -105.819111687571223, 26.89263142249369 ], [ -105.817747652178042, 26.893759886517554 ], [ -105.816694803683575, 26.894188624709912 ], [ -105.814714899595828, 26.894132047328434 ], [ -105.812761410553506, 26.894621852278046 ], [ -105.810863788022886, 26.894632757943338 ], [ -105.811374869585947, 26.890841828438631 ], [ -105.811839284498035, 26.888357116510722 ], [ -105.811562067206552, 26.885465008340908 ], [ -105.811171015650487, 26.883400799651159 ], [ -105.809446630293422, 26.883001454018334 ], [ -105.805871462269167, 26.881872944212169 ], [ -105.805253640543683, 26.881547201578268 ], [ -105.803650360962038, 26.880981402103917 ], [ -105.802479739915356, 26.880660152178926 ], [ -105.801309125245496, 26.880338892393958 ], [ -105.7998314015977, 26.880020118195688 ], [ -105.797985148261219, 26.879704318123888 ], [ -105.795278985320422, 26.879395454816002 ], [ -105.793312568002136, 26.879328656528518 ], [ -105.79207702511026, 26.878677056205383 ], [ -105.79083884155628, 26.877777375108007 ], [ -105.789978049064075, 26.877701613835331 ], [ -105.771361469390612, 26.892371243843705 ], [ -105.764442808390285, 26.89782148613503 ], [ -105.764342227279101, 26.898071395009872 ], [ -105.76354389644743, 26.900054927411794 ], [ -105.74831542752986, 26.910408512596035 ] ] ] ] } },
{ "type": "Feature", "properties": { "ID": 2443, "ENTIDAD": 8, "DISTRITO_F": 9, "DISTRITO_L": 21, "MUNICIPIO": 60, "SECCION": 2581, "TIPO": 2, "CONTROL": 15486, "GEOMETRY1_": null }, "geometry": { "type": "MultiPolygon", "coordinates": [ [ [ [ -105.818222929913333, 26.809752413141823 ], [ -105.817950507300012, 26.809671699436958 ], [ -105.817855150316419, 26.809619350930998 ], [ -105.8177435445253, 26.809584730186636 ], [ -105.817587950581668, 26.809585001156009 ], [ -105.817315423718895, 26.809513871210243 ], [ -105.81713003824224, 26.809482777831583 ], [ -105.816949330745558, 26.809444934489694 ], [ -105.81689854703248, 26.809434303853131 ], [ -105.816751651306873, 26.809403536781641 ], [ -105.816465139582562, 26.809430248538568 ], [ -105.816236767592159, 26.809283539143479 ], [ -105.816057078513523, 26.809241199465884 ], [ -105.816027371705502, 26.809234737197727 ], [ -105.816955162308432, 26.807676715529578 ], [ -105.81703311661208, 26.807659187924841 ], [ -105.817146433943421, 26.807633709048286 ], [ -105.817216284585257, 26.807618003404748 ], [ -105.817342458083317, 26.807665302828909 ], [ -105.817412858507254, 26.80769169374188 ], [ -105.81755757537087, 26.807745329658239 ], [ -105.817632143490727, 26.807774711014972 ], [ -105.817717299722545, 26.8078058178498 ], [ -105.8177667319313, 26.80771020549335 ], [ -105.817811990034485, 26.807622665829467 ], [ -105.817874584532106, 26.807501593319866 ], [ -105.81791546945351, 26.807493804438529 ], [ -105.817969545734485, 26.807483502485617 ], [ -105.818074605633669, 26.807463487691976 ], [ -105.818372648797734, 26.807432364658023 ], [ -105.818567207481266, 26.807473905716641 ], [ -105.818683975565108, 26.807424725074569 ], [ -105.818935764173531, 26.807472148970593 ], [ -105.819167017881469, 26.807486790485214 ], [ -105.81929595878789, 26.807559028528239 ], [ -105.819402602336879, 26.807501701215266 ], [ -105.819226940066685, 26.807841807874233 ], [ -105.819057316778554, 26.80816853211843 ], [ -105.818914365807217, 26.808405120500677 ], [ -105.818832768034625, 26.808541144687808 ], [ -105.818625989970428, 26.808964719905177 ], [ -105.818465851530192, 26.809256841853326 ], [ -105.818315761703062, 26.809583903663331 ], [ -105.818222929913333, 26.809752413141823 ] ] ] ] } },
{ "type": "Feature", "properties": { "ID": 2444, "ENTIDAD": 8, "DISTRITO_F": 9, "DISTRITO_L": 21, "MUNICIPIO": 60, "SECCION": 2582, "TIPO": 2, "CONTROL": 15487, "GEOMETRY1_": null }, "geometry": { "type": "MultiPolygon", "coordinates": [ [ [ [ -105.819748629988212, 26.810172415321155 ], [ -105.819566473961927, 26.810117502274345 ], [ -105.819317467332141, 26.810040156214022 ], [ -105.81850030923006, 26.809824771768547 ], [ -105.818222929913333, 26.809752413141823 ], [ -105.818315761703062, 26.809583903663331 ], [ -105.818465851530192, 26.809256841853326 ], [ -105.818625989970428, 26.808964719905177 ], [ -105.818832768034625, 26.808541144687808 ], [ -105.818914365807217, 26.808405120500677 ], [ -105.819057316778554, 26.80816853211843 ], [ -105.819226940066685, 26.807841807874233 ], [ -105.819402602336879, 26.807501701215266 ], [ -105.81988259762096, 26.807827929504416 ], [ -105.820159854613763, 26.807245040861464 ], [ -105.820475517050269, 26.807253786243372 ], [ -105.82083485790092, 26.807341644928556 ], [ -105.820909531512612, 26.807379044075439 ], [ -105.82135710626649, 26.807920367206719 ], [ -105.820828654782048, 26.808712279593134 ], [ -105.820653262707239, 26.808974840364044 ], [ -105.820385109181657, 26.809250804194072 ], [ -105.819944984161339, 26.809786496428831 ], [ -105.819748629988212, 26.810172415321155 ] ] ] ] } },
{ "type": "Feature", "properties": { "ID": 2445, "ENTIDAD": 8, "DISTRITO_F": 9, "DISTRITO_L": 21, "MUNICIPIO": 60, "SECCION": 2583, "TIPO": 2, "CONTROL": 15488, "GEOMETRY1_": null }, "geometry": { "type": "MultiPolygon", "coordinates": [ [ [ [ -105.82135710626649, 26.807920367206719 ], [ -105.820909531519106, 26.807379044891825 ], [ -105.820834857907442, 26.807341645744852 ], [ -105.820475517056764, 26.807253787059665 ], [ -105.820159854613763, 26.807245040861464 ], [ -105.81988259762096, 26.807827929504416 ], [ -105.819402602336879, 26.807501701215266 ], [ -105.81929595878789, 26.807559028528239 ], [ -105.819167017881469, 26.807486790485214 ], [ -105.818935764173531, 26.807472148970593 ], [ -105.818683975565108, 26.807424725074569 ], [ -105.818567207481266, 26.807473905716641 ], [ -105.818372648797734, 26.807432364658023 ], [ -105.818074605633669, 26.807463487691976 ], [ -105.817969546351733, 26.807483502858801 ], [ -105.817915469719267, 26.807493804599233 ], [ -105.817874584532106, 26.807501593319866 ], [ -105.817811990034485, 26.807622665829467 ], [ -105.8177667319313, 26.80771020549335 ], [ -105.817717299728997, 26.807805818666186 ], [ -105.817632143490727, 26.807774711014972 ], [ -105.81755757537087, 26.807745329658239 ], [ -105.817412858507254, 26.80769169374188 ], [ -105.817342458083317, 26.807665302828909 ], [ -105.817216284591709, 26.807618004221137 ], [ -105.817146434143481, 26.807633709506579 ], [ -105.817033116616543, 26.807659187916872 ], [ -105.816955163013048, 26.807676715013152 ], [ -105.816909919297785, 26.807345118813036 ], [ -105.816898948913291, 26.8072380209573 ], [ -105.816872385511715, 26.807030718088384 ], [ -105.817045956112864, 26.806587976452864 ], [ -105.817285580125272, 26.80597674081557 ], [ -105.817397903697781, 26.80569022308778 ], [ -105.817697362571849, 26.80576788357963 ], [ -105.817892717315146, 26.805653019440442 ], [ -105.818377531276028, 26.805693092407175 ], [ -105.818671426844702, 26.80571736689939 ], [ -105.818807328388189, 26.805630751764404 ], [ -105.819235733091446, 26.805759476757377 ], [ -105.820057345180899, 26.806000045495608 ], [ -105.820408966219389, 26.806093771589744 ], [ -105.821231618598745, 26.806287212793098 ], [ -105.821232778983457, 26.805772902658308 ], [ -105.821217246540982, 26.805503058365279 ], [ -105.821246704193172, 26.80538271786985 ], [ -105.821293634664173, 26.805190996849085 ], [ -105.821779177465785, 26.805480693612406 ], [ -105.822340406994002, 26.805815537011298 ], [ -105.822708658007528, 26.806035232599708 ], [ -105.821321526820967, 26.807267913165564 ], [ -105.82175983654524, 26.807501067531042 ], [ -105.821532009139162, 26.807910116508655 ], [ -105.821404062602724, 26.807917615213672 ], [ -105.82135710626649, 26.807920367206719 ] ] ] ] } },
{ "type": "Feature", "properties": { "ID": 2446, "ENTIDAD": 8, "DISTRITO_F": 9, "DISTRITO_L": 21, "MUNICIPIO": 60, "SECCION": 2584, "TIPO": 2, "CONTROL": 17098, "GEOMETRY1_": null }, "geometry": { "type": "MultiPolygon", "coordinates": [ [ [ [ -105.821231618598745, 26.806287212793098 ], [ -105.820408966219389, 26.806093771589744 ], [ -105.820057345180899, 26.806000045495608 ], [ -105.819235733091446, 26.805759476757377 ], [ -105.818807328394655, 26.805630752580427 ], [ -105.818671426844702, 26.80571736689939 ], [ -105.818377531276028, 26.805693092407175 ], [ -105.817892717315146, 26.805653019440442 ], [ -105.817697362571849, 26.80576788357963 ], [ -105.817397903697781, 26.80569022308778 ], [ -105.817432860310774, 26.805550774404825 ], [ -105.81751717145039, 26.805214442783878 ], [ -105.817592687523188, 26.804913193382173 ], [ -105.817732952467168, 26.80435365330769 ], [ -105.817980945479263, 26.804360944068897 ], [ -105.818164876468771, 26.804357714572181 ], [ -105.818369216309165, 26.804329064258219 ], [ -105.81864757660675, 26.804290034286701 ], [ -105.819112048755713, 26.804224909654312 ], [ -105.819595918476821, 26.804239317507395 ], [ -105.819874811660924, 26.804265321029941 ], [ -105.820096687682422, 26.804423167457717 ], [ -105.820542743896368, 26.804762276139009 ], [ -105.82080082886192, 26.804876938487524 ], [ -105.821088431395268, 26.805078317885741 ], [ -105.821293634664173, 26.805190996849085 ], [ -105.821246704193172, 26.80538271786985 ], [ -105.821217246540982, 26.805503058365279 ], [ -105.821232778983457, 26.805772902658308 ], [ -105.821231618598745, 26.806287212793098 ] ] ] ] } },
{ "type": "Feature", "properties": { "ID": 2447, "ENTIDAD": 8, "DISTRITO_F": 9, "DISTRITO_L": 21, "MUNICIPIO": 60, "SECCION": 2585, "TIPO": 2, "CONTROL": 15491, "GEOMETRY1_": null }, "geometry": { "type": "MultiPolygon", "coordinates": [ [ [ [ -105.814521075367594, 26.804395140664163 ], [ -105.814219246950515, 26.804107820950048 ], [ -105.814132257577398, 26.804025013513936 ], [ -105.814045268317997, 26.803942204389141 ], [ -105.812227092877691, 26.802211374800244 ], [ -105.81304648356199, 26.800425839400727 ], [ -105.813065512104799, 26.80038437357398 ], [ -105.812007892082988, 26.799550260275311 ], [ -105.812283722606281, 26.798903805263379 ], [ -105.812677394045465, 26.798807174817249 ], [ -105.812754693396698, 26.798586530631102 ], [ -105.812849035706236, 26.798348724888356 ], [ -105.813321955204728, 26.79888225669967 ], [ -105.81366468309497, 26.799170963830157 ], [ -105.813881494441247, 26.799212256533337 ], [ -105.814176030937389, 26.799451960507547 ], [ -105.814273928158741, 26.799488517019011 ], [ -105.815188873103807, 26.799830170609603 ], [ -105.815330845334543, 26.799961741722004 ], [ -105.815603160450607, 26.800214077723002 ], [ -105.816104351089947, 26.800500949178126 ], [ -105.816033902061747, 26.800670037883343 ], [ -105.816405562579732, 26.800910476269845 ], [ -105.816872962524997, 26.801212847690916 ], [ -105.817344100341856, 26.801462072101355 ], [ -105.817635585235166, 26.801616261622268 ], [ -105.817267938785022, 26.802278932393538 ], [ -105.817273925139673, 26.802349484002118 ], [ -105.817148012944642, 26.802673770158414 ], [ -105.816984360945284, 26.803306735692711 ], [ -105.816692496241672, 26.803551525335269 ], [ -105.816569296529707, 26.803548286701865 ], [ -105.816310239485475, 26.803167804313379 ], [ -105.816142841702145, 26.803795800984034 ], [ -105.814890567545532, 26.804057608135661 ], [ -105.814521075367594, 26.804395140664163 ] ] ] ] } },
{ "type": "Feature", "properties": { "ID": 2448, "ENTIDAD": 8, "DISTRITO_F": 9, "DISTRITO_L": 21, "MUNICIPIO": 60, "SECCION": 2586, "TIPO": 2, "CONTROL": 15489, "GEOMETRY1_": null }, "geometry": { "type": "MultiPolygon", "coordinates": [ [ [ [ -105.817980945479263, 26.804360944068897 ], [ -105.817732952467168, 26.80435365330769 ], [ -105.817788374914699, 26.803873767570845 ], [ -105.817859059496612, 26.803261739883116 ], [ -105.817903901419669, 26.802873469739978 ], [ -105.817933482249387, 26.802601231516199 ], [ -105.817934266927864, 26.80222747564483 ], [ -105.818227297086565, 26.802270150029653 ], [ -105.818580222031926, 26.80235210266072 ], [ -105.819422286802805, 26.802410469652624 ], [ -105.819672405784814, 26.802427804640498 ], [ -105.819683519282208, 26.802557115796368 ], [ -105.819955892913015, 26.802701721438101 ], [ -105.820816562591233, 26.803158650300713 ], [ -105.820727592350963, 26.803310741534506 ], [ -105.820482968702265, 26.803550576045385 ], [ -105.820382929776258, 26.803668106613813 ], [ -105.819874811660924, 26.804265321029941 ], [ -105.819595918476821, 26.804239317507395 ], [ -105.819112048755713, 26.804224909654312 ], [ -105.81864757660675, 26.804290034286701 ], [ -105.818369216309165, 26.804329064258219 ], [ -105.818164876468771, 26.804357714572181 ], [ -105.817980945479263, 26.804360944068897 ] ] ] ] } },
{ "type": "Feature", "properties": { "ID": 2458, "ENTIDAD": 8, "DISTRITO_F": 9, "DISTRITO_L": 21, "MUNICIPIO": 60, "SECCION": 2597, "TIPO": 4, "CONTROL": 17607, "GEOMETRY1_": null }, "geometry": { "type": "MultiPolygon", "coordinates": [ [ [ [ -105.717780191038713, 26.891158899463541 ], [ -105.718146590739607, 26.888927547739605 ], [ -105.717777141229121, 26.887688656463336 ], [ -105.718144405268262, 26.886448802298773 ], [ -105.717897239047176, 26.884631375953546 ], [ -105.717772934199417, 26.882896413340823 ], [ -105.717772209390162, 26.882070164199583 ], [ -105.717892812700867, 26.879591256040463 ], [ -105.71654155266269, 26.878766762210265 ], [ -105.716662467365694, 26.87661835349056 ], [ -105.714942160418659, 26.874885444423018 ], [ -105.712485971128558, 26.87397969809831 ], [ -105.711872048839993, 26.873897848637863 ], [ -105.711135019221516, 26.873403025183386 ], [ -105.710397795160148, 26.872660322314971 ], [ -105.709414910975397, 26.871752670589736 ], [ -105.708968776420647, 26.87130320296292 ], [ -105.74512671749082, 26.861252289570114 ], [ -105.743210720314281, 26.857726950789868 ], [ -105.749469605334454, 26.857182300923867 ], [ -105.748383503124757, 26.850928411020888 ], [ -105.746988518056398, 26.842894835554752 ], [ -105.751660651319426, 26.842730289838421 ], [ -105.759862276988585, 26.842441066464737 ], [ -105.776015324577202, 26.841870049146422 ], [ -105.779728976267705, 26.841738508541887 ], [ -105.792168160527879, 26.841297190516887 ], [ -105.798128676024589, 26.835956358860052 ], [ -105.801436833451589, 26.857243368672041 ], [ -105.802351814295633, 26.863129440210773 ], [ -105.804411232976605, 26.863803424047141 ], [ -105.804940591996754, 26.863976662269788 ], [ -105.807529407136514, 26.864823835956159 ], [ -105.795745490695978, 26.877076164572944 ], [ -105.788790646468982, 26.875250992015491 ], [ -105.787491166829412, 26.874909922385125 ], [ -105.786557514584999, 26.875478871781006 ], [ -105.780860853967468, 26.878950050392376 ], [ -105.766861083780412, 26.887478787793945 ], [ -105.763298711407586, 26.887548205209207 ], [ -105.762604340693088, 26.887561725451508 ], [ -105.759736332324536, 26.887617532885926 ], [ -105.757671033431663, 26.889866537129077 ], [ -105.756818770406085, 26.890617480013265 ], [ -105.756089355921446, 26.891367457687064 ], [ -105.754742192571953, 26.89179146674358 ], [ -105.754005889051584, 26.89187991002477 ], [ -105.753269584286585, 26.891968349490767 ], [ -105.752471847941862, 26.892057263729264 ], [ -105.751674110233139, 26.892146173487376 ], [ -105.749958336246252, 26.892573006328504 ], [ -105.746523335923342, 26.893095847633244 ], [ -105.745842984057759, 26.893516983463702 ], [ -105.741517419377047, 26.896194346952445 ], [ -105.738735925893991, 26.898100573011536 ], [ -105.717780191038713, 26.891158899463541 ] ] ] ] } },
{ "type": "Feature", "properties": { "ID": 2459, "ENTIDAD": 8, "DISTRITO_F": 9, "DISTRITO_L": 21, "MUNICIPIO": 60, "SECCION": 2599, "TIPO": 4, "CONTROL": 15335, "GEOMETRY1_": null }, "geometry": { "type": "MultiPolygon", "coordinates": [ [ [ [ -105.751660651319426, 26.842730289838421 ], [ -105.748567068050448, 26.829237447013789 ], [ -105.74460029388753, 26.825629443583185 ], [ -105.745286307658262, 26.823592800609628 ], [ -105.746387659438213, 26.82032294479917 ], [ -105.743679630670698, 26.819682292314187 ], [ -105.74097163112387, 26.81904158732339 ], [ -105.745603335369452, 26.815697917739456 ], [ -105.747800567931506, 26.814440436767569 ], [ -105.750603090517401, 26.812351239907748 ], [ -105.751172278681139, 26.811569207423169 ], [ -105.752055868536232, 26.810355191546144 ], [ -105.752650914448026, 26.808531202408812 ], [ -105.75325022029287, 26.80712066829237 ], [ -105.755561397066174, 26.805035199619461 ], [ -105.75714792059901, 26.804113132125249 ], [ -105.758118877058038, 26.803030465963193 ], [ -105.759214298105803, 26.802112215342721 ], [ -105.759946576522722, 26.801692990383017 ], [ -105.76189699432868, 26.800354528653951 ], [ -105.763234860395031, 26.799144901168148 ], [ -105.764572698081139, 26.797935261439278 ], [ -105.765924773146637, 26.798090016884366 ], [ -105.766783219837635, 26.798000556012759 ], [ -105.767395282125776, 26.797830334807962 ], [ -105.768373884753544, 26.797491822406812 ], [ -105.770699344155403, 26.796811865676801 ], [ -105.772049674572969, 26.796801180288345 ], [ -105.772787087741591, 26.796878037685836 ], [ -105.774016401824014, 26.797033688494466 ], [ -105.775000203772635, 26.797191277868436 ], [ -105.775492105700167, 26.797270069968825 ], [ -105.775870840473331, 26.798259438217368 ], [ -105.775876943356693, 26.79883827612143 ], [ -105.775883046380727, 26.799417113977103 ], [ -105.775774235274667, 26.800741147107054 ], [ -105.776404615940933, 26.802307399834717 ], [ -105.776531741127343, 26.802719879237088 ], [ -105.776670210453887, 26.804207342154317 ], [ -105.776696388885, 26.806688073068152 ], [ -105.776715588045747, 26.808507275171742 ], [ -105.776970729572739, 26.809414923174312 ], [ -105.777228494778541, 26.810570643393326 ], [ -105.777731811865209, 26.811724408546624 ], [ -105.778350921650059, 26.812215666447958 ], [ -105.779723307408247, 26.814272175993402 ], [ -105.780230168719669, 26.815756694110558 ], [ -105.780248554172076, 26.817493201358459 ], [ -105.782095504417384, 26.817974640420339 ], [ -105.782588377915573, 26.818136096337518 ], [ -105.782838324894442, 26.818547586614191 ], [ -105.784319595489251, 26.819280013189164 ], [ -105.784933500923842, 26.819275096138874 ], [ -105.786648034394261, 26.818847860977808 ], [ -105.788362554484507, 26.818420605300663 ], [ -105.789829737143023, 26.817829923921455 ], [ -105.791175892482229, 26.817405597855569 ], [ -105.791788902814261, 26.817317960732286 ], [ -105.794740021436198, 26.817707632684364 ], [ -105.796833477884221, 26.818269583894303 ], [ -105.798438499895866, 26.819083557170313 ], [ -105.799178739633433, 26.819408344420708 ], [ -105.802558375336446, 26.820027261551807 ], [ -105.803484095017609, 26.820117630362468 ], [ -105.803502885576634, 26.82014942446666 ], [ -105.805673002294242, 26.823821176476219 ], [ -105.805139391643294, 26.824156318946315 ], [ -105.804605777823596, 26.824491459458592 ], [ -105.803538540677806, 26.825161734609416 ], [ -105.801638463883137, 26.825466636976678 ], [ -105.799738376232142, 26.825771514041879 ], [ -105.79864484619975, 26.826855453679986 ], [ -105.797312821040592, 26.828602897055944 ], [ -105.797090329623686, 26.830754833786617 ], [ -105.797528989718046, 26.831578255083084 ], [ -105.797967656283419, 26.83240167478397 ], [ -105.795775093535383, 26.834073378467355 ], [ -105.798128676024589, 26.835956358860052 ], [ -105.792168160527879, 26.841297190516887 ], [ -105.779728976267705, 26.841738508541887 ], [ -105.776015324577202, 26.841870049146422 ], [ -105.759862276988585, 26.842441066464737 ], [ -105.751660651319426, 26.842730289838421 ] ] ] ] } },
{ "type": "Feature", "properties": { "ID": 2453, "ENTIDAD": 8, "DISTRITO_F": 9, "DISTRITO_L": 21, "MUNICIPIO": 60, "SECCION": 2591, "TIPO": 3, "CONTROL": 15333, "GEOMETRY1_": null }, "geometry": { "type": "MultiPolygon", "coordinates": [ [ [ [ -105.864244808032595, 26.742287826228928 ], [ -105.865103677247347, 26.742280470208403 ], [ -105.866457071669728, 26.742599659076124 ], [ -105.868298446400416, 26.742666550641847 ], [ -105.870137007057536, 26.742485349389245 ], [ -105.872336126637393, 26.741639435852175 ], [ -105.872823143505059, 26.741304446853938 ], [ -105.873793404278928, 26.740303705785255 ], [ -105.8741511291325, 26.739390944137639 ], [ -105.874384274397187, 26.738313861698462 ], [ -105.874749522251676, 26.738062615078437 ], [ -105.875965118313971, 26.737059740689929 ], [ -105.875831119406058, 26.736068526525965 ], [ -105.876068955769782, 26.735404889181392 ], [ -105.876060472722017, 26.734660683117916 ], [ -105.876906077700497, 26.733495603196225 ], [ -105.904873805476171, 26.753925248765061 ], [ -105.906230333114891, 26.754492117035873 ], [ -105.907219716258496, 26.755144925003627 ], [ -105.908942460848351, 26.755543124967282 ], [ -105.909432809613975, 26.755497422665609 ], [ -105.908229406768214, 26.75753418448927 ], [ -105.905783880264053, 26.758300139319207 ], [ -105.903712236289152, 26.759558929512792 ], [ -105.90114488194024, 26.760408579633921 ], [ -105.898077036278181, 26.760435618870897 ], [ -105.895256529608105, 26.760625813932176 ], [ -105.893343763806044, 26.765025552290602 ], [ -105.894075208527198, 26.768405237812011 ], [ -105.895412600330445, 26.77410407354088 ], [ -105.895569642289203, 26.774992549198839 ], [ -105.895806654066888, 26.776333430513681 ], [ -105.894745156398386, 26.780064121389582 ], [ -105.894428643852038, 26.784532536630032 ], [ -105.89458393897894, 26.787342868194976 ], [ -105.894733497390831, 26.789657067540876 ], [ -105.894160936892931, 26.793218060456024 ], [ -105.893588344003319, 26.796779050175704 ], [ -105.892514169753113, 26.799434771171196 ], [ -105.889242689481819, 26.803184777688866 ], [ -105.888022713718271, 26.803857017365505 ], [ -105.886454434677503, 26.806268919409696 ], [ -105.853544306024929, 26.805725338329601 ], [ -105.853167660690659, 26.804984262797852 ], [ -105.852179989219024, 26.804496463479552 ], [ -105.851563393932508, 26.804253602292142 ], [ -105.848974276709328, 26.803283168857224 ], [ -105.843216440803843, 26.804406839951625 ], [ -105.84041126396157, 26.806084382335293 ], [ -105.83931555916611, 26.806920557244478 ], [ -105.837607837390323, 26.807927249917171 ], [ -105.835893675554757, 26.808355094958955 ], [ -105.834294952551971, 26.808120375769686 ], [ -105.833184563521144, 26.807633469031522 ], [ -105.831566693809023, 26.805662233455397 ], [ -105.829825206590186, 26.803609309981347 ], [ -105.826881626693677, 26.803881882585657 ], [ -105.825806520300858, 26.802854083594507 ], [ -105.824927327371483, 26.801161480707709 ], [ -105.826003149184132, 26.795512680239412 ], [ -105.825667422622388, 26.794993120953638 ], [ -105.825438912547767, 26.795028300204503 ], [ -105.825150722707619, 26.795167577594142 ], [ -105.824922232888994, 26.79521418722004 ], [ -105.824731904579792, 26.795298111843273 ], [ -105.824557875276071, 26.795366461249287 ], [ -105.824470436869433, 26.795380655701269 ], [ -105.824356198024716, 26.79539920075856 ], [ -105.824203426406541, 26.795411781026591 ], [ -105.824138552656862, 26.79543410568705 ], [ -105.824073678881092, 26.795456430318399 ], [ -105.823904943082638, 26.795440851009833 ], [ -105.823771475018418, 26.795441000760533 ], [ -105.823709024275615, 26.79544107078685 ], [ -105.823485935959638, 26.795464709356636 ], [ -105.823186693370545, 26.795508964273345 ], [ -105.823144527496581, 26.795519675901161 ], [ -105.822941904546482, 26.795571149116402 ], [ -105.822664504211886, 26.795656864686592 ], [ -105.822376381869987, 26.795834240612759 ], [ -105.822169855802841, 26.79599088825794 ], [ -105.821941281828344, 26.796205381076728 ], [ -105.821718635409184, 26.796263058697296 ], [ -105.821523013594685, 26.796430912035063 ], [ -105.821354615287731, 26.796605825409191 ], [ -105.821164739217167, 26.796945010227141 ], [ -105.821132424699087, 26.797136174514986 ], [ -105.821025605627028, 26.797303348788454 ], [ -105.82099674589999, 26.797348514820563 ], [ -105.82080119158374, 26.797554466694844 ], [ -105.820627398524024, 26.797756160978697 ], [ -105.820437211961291, 26.797920092528592 ], [ -105.82025794315085, 26.798102849478443 ], [ -105.820204510306922, 26.79814318975226 ], [ -105.820029676076601, 26.798275184274893 ], [ -105.820029640961067, 26.79830615798673 ], [ -105.820029824579322, 26.798359001869972 ], [ -105.81976894789868, 26.798812721379925 ], [ -105.819617487920411, 26.799076140832842 ], [ -105.819695167230648, 26.799506459876305 ], [ -105.819632959437897, 26.799537579248209 ], [ -105.819428428681078, 26.799626753030385 ], [ -105.819298105201753, 26.799682740462185 ], [ -105.81924616129055, 26.799708968351581 ], [ -105.819092346551784, 26.79995607503254 ], [ -105.818766489320453, 26.80017173327666 ], [ -105.818623673833798, 26.80026625067535 ], [ -105.818319083632005, 26.799509893145629 ], [ -105.818157511371552, 26.79924954407424 ], [ -105.81808777923672, 26.798821855314632 ], [ -105.818288620308437, 26.798528164872131 ], [ -105.818163218027863, 26.798397394480546 ], [ -105.818026851019752, 26.798234993737061 ], [ -105.817924747132281, 26.79803831575266 ], [ -105.817862902215836, 26.797835882666252 ], [ -105.81780002595552, 26.796971113745048 ], [ -105.817772259453363, 26.796561682017806 ], [ -105.81769283708833, 26.795209218800206 ], [ -105.817663621277262, 26.791718897862868 ], [ -105.817893786277509, 26.790311140122959 ], [ -105.81849038299103, 26.788734965623355 ], [ -105.818959704630288, 26.786746349593336 ], [ -105.818318912273057, 26.78427070025036 ], [ -105.817161954763264, 26.779483758656077 ], [ -105.817508531151176, 26.777496155762197 ], [ -105.818336106360761, 26.774594911210354 ], [ -105.819170861249248, 26.772355185388104 ], [ -105.821345637551389, 26.769194711440615 ], [ -105.823768456930864, 26.766280244890641 ], [ -105.825468438150509, 26.764612201519274 ], [ -105.826070248461846, 26.763532137436052 ], [ -105.82654025373013, 26.761626185123173 ], [ -105.827979250084937, 26.758554412159022 ], [ -105.828822796181271, 26.757141535857947 ], [ -105.830270777530345, 26.754896644748307 ], [ -105.830751604826176, 26.753982963728568 ], [ -105.833054809654868, 26.75140012855692 ], [ -105.835372527802178, 26.750140303262306 ], [ -105.836413234695783, 26.749924855088608 ], [ -105.837453937455351, 26.749709399360388 ], [ -105.838311953233244, 26.749619513986691 ], [ -105.839042682196265, 26.749117200981381 ], [ -105.839521582460506, 26.748038111111814 ], [ -105.84084103565705, 26.745298004169285 ], [ -105.84144168450014, 26.744135187382692 ], [ -105.841927887332901, 26.743717611928474 ], [ -105.84253678407083, 26.743299003184575 ], [ -105.843028492782494, 26.743377565652779 ], [ -105.843646577199607, 26.743785854707575 ], [ -105.844263746161303, 26.744111450723828 ], [ -105.844876317178816, 26.744023592948199 ], [ -105.846218626677882, 26.743350693571607 ], [ -105.848286027456879, 26.741679281753452 ], [ -105.850235294130826, 26.740422329806957 ], [ -105.852312763333686, 26.73966045232768 ], [ -105.853660535410526, 26.739483624715398 ], [ -105.854033248168406, 26.73989395064611 ], [ -105.854658769252893, 26.74096371154258 ], [ -105.854918997698206, 26.742284666918984 ], [ -105.855045403964823, 26.742614384371961 ], [ -105.85481485033155, 26.743939508878945 ], [ -105.855065811647947, 26.744433563686073 ], [ -105.85519500418053, 26.745011350691048 ], [ -105.855323270226734, 26.745506447561702 ], [ -105.855329765421985, 26.746085277111725 ], [ -105.855337188689148, 26.746746796537842 ], [ -105.855957190839533, 26.747320410072842 ], [ -105.856203522018333, 26.747401012862056 ], [ -105.857914832363889, 26.746807562172208 ], [ -105.858038462932214, 26.746889206849549 ], [ -105.858887132924323, 26.745972299312879 ], [ -105.860101091647863, 26.744804176955785 ], [ -105.8619257136139, 26.743382733925547 ], [ -105.863873919263057, 26.742042907896192 ], [ -105.864244808032595, 26.742287826228928 ] ] ] ] } },
{ "type": "Feature", "properties": { "ID": 2454, "ENTIDAD": 8, "DISTRITO_F": 9, "DISTRITO_L": 21, "MUNICIPIO": 60, "SECCION": 2592, "TIPO": 2, "CONTROL": 16262, "GEOMETRY1_": null }, "geometry": { "type": "MultiPolygon", "coordinates": [ [ [ [ -105.825473642635089, 26.803165815875595 ], [ -105.824777772762332, 26.802757134507562 ], [ -105.824789063449714, 26.802411934222278 ], [ -105.824803585555543, 26.801967935130197 ], [ -105.823916512297203, 26.801970940987616 ], [ -105.823383513383476, 26.802160973659468 ], [ -105.822817646465666, 26.802229762619458 ], [ -105.822715898624338, 26.802231248263368 ], [ -105.822675617543126, 26.802231835258254 ], [ -105.82265975416496, 26.802191099505219 ], [ -105.822637844412199, 26.802111540315206 ], [ -105.822594065405596, 26.801975281057111 ], [ -105.822577503156808, 26.801842271981812 ], [ -105.822555549508721, 26.801737948746016 ], [ -105.82254457270075, 26.801685787125891 ], [ -105.822533595903451, 26.801633625504294 ], [ -105.822473524641268, 26.801516751317045 ], [ -105.82240797087853, 26.801377129942097 ], [ -105.822347919865791, 26.801271685315868 ], [ -105.822206259078726, 26.801179349263297 ], [ -105.821972077514843, 26.801085106238268 ], [ -105.821938077266296, 26.801077665623261 ], [ -105.821765193706696, 26.801039831639741 ], [ -105.821634659916668, 26.801084426450331 ], [ -105.821422604100107, 26.801191657932161 ], [ -105.82133017107104, 26.801239279057185 ], [ -105.82115616876662, 26.801322867877779 ], [ -105.821026712885626, 26.801417641314504 ], [ -105.820902038722068, 26.801481673398047 ], [ -105.820743022134607, 26.801582825216919 ], [ -105.820677576369135, 26.801504161500425 ], [ -105.820682633630426, 26.801286887908031 ], [ -105.82068210039391, 26.800985909469322 ], [ -105.820681989021153, 26.800923046884304 ], [ -105.82068187764952, 26.800860184298823 ], [ -105.820643493395721, 26.800697144130964 ], [ -105.820610625391637, 26.800575900419165 ], [ -105.820545004130594, 26.800398180507614 ], [ -105.82039237834239, 26.80026035007964 ], [ -105.820245241804614, 26.800149076693014 ], [ -105.82014171552764, 26.800078816223095 ], [ -105.820021782247963, 26.799963173311866 ], [ -105.819836517949909, 26.799833634196233 ], [ -105.819767191108198, 26.799767227119489 ], [ -105.819764482000451, 26.799723770126864 ], [ -105.819758877343659, 26.799633865293693 ], [ -105.819727195015119, 26.799570508444639 ], [ -105.819695167599292, 26.799506460099337 ], [ -105.819617487926877, 26.799076141647699 ], [ -105.819768948042935, 26.79881272225845 ], [ -105.820029824579322, 26.798359001869972 ], [ -105.820389949750805, 26.798459980182649 ], [ -105.821028754119908, 26.798665439490204 ], [ -105.82117826202041, 26.798716141457295 ], [ -105.821555443343044, 26.798823906212636 ], [ -105.822138573708486, 26.799120768732021 ], [ -105.822305678390578, 26.799200677652244 ], [ -105.822753661323574, 26.799410578690388 ], [ -105.823228486343453, 26.799778062290653 ], [ -105.823597549019155, 26.800078606522415 ], [ -105.824927327371483, 26.801161480707709 ], [ -105.825806520300858, 26.802854083594507 ], [ -105.825473642635089, 26.803165815875595 ] ] ] ] } },
{ "type": "Feature", "properties": { "ID": 2455, "ENTIDAD": 8, "DISTRITO_F": 9, "DISTRITO_L": 21, "MUNICIPIO": 60, "SECCION": 2593, "TIPO": 2, "CONTROL": 15559, "GEOMETRY1_": null }, "geometry": { "type": "MultiPolygon", "coordinates": [ [ [ [ -105.824927327378006, 26.801161481522829 ], [ -105.823597549019155, 26.800078606522415 ], [ -105.823228486343453, 26.799778062290653 ], [ -105.822753661323574, 26.799410578690388 ], [ -105.822305678384083, 26.799200676837387 ], [ -105.822138573701992, 26.799120767917167 ], [ -105.821555443343044, 26.798823906212636 ], [ -105.82117826202041, 26.798716141457295 ], [ -105.821028754113456, 26.798665438675435 ], [ -105.820389949750805, 26.798459980182649 ], [ -105.820029824579322, 26.798359001869972 ], [ -105.820029640961067, 26.79830615798673 ], [ -105.820029676076601, 26.798275184274893 ], [ -105.820204510306922, 26.79814318975226 ], [ -105.820257943150835, 26.798102849478443 ], [ -105.820437211961291, 26.797920092528592 ], [ -105.820627398524024, 26.797756160978697 ], [ -105.82080119158374, 26.797554466694844 ], [ -105.82099674589999, 26.797348514820563 ], [ -105.821025605627, 26.797303348788454 ], [ -105.821132424699087, 26.797136174514986 ], [ -105.821164739217167, 26.796945010227141 ], [ -105.821354615287731, 26.796605825409191 ], [ -105.821523013594685, 26.796430912035063 ], [ -105.821718635409184, 26.796263058697296 ], [ -105.82194128182833, 26.796205381076728 ], [ -105.822169855802827, 26.79599088825794 ], [ -105.822376381869987, 26.795834240612759 ], [ -105.822664504211886, 26.795656864686592 ], [ -105.822941904546482, 26.795571149116402 ], [ -105.823144527496581, 26.795519675901161 ], [ -105.823186693370545, 26.795508964273345 ], [ -105.823485935959638, 26.795464709356636 ], [ -105.823709024275615, 26.79544107078685 ], [ -105.823771475018418, 26.795441000760533 ], [ -105.823904943082638, 26.795440851009833 ], [ -105.824073678881092, 26.795456430318399 ], [ -105.824138552656862, 26.79543410568705 ], [ -105.824203426406541, 26.795411781026591 ], [ -105.824356198024716, 26.79539920075856 ], [ -105.824470436869433, 26.795380655701269 ], [ -105.824557875276071, 26.795366461249287 ], [ -105.824731904579792, 26.795298111843273 ], [ -105.824922232888994, 26.79521418722004 ], [ -105.825150722707619, 26.795167577594142 ], [ -105.825438912547767, 26.795028300204503 ], [ -105.825667422622388, 26.794993120953638 ], [ -105.826003149184132, 26.795512680239412 ], [ -105.824927327378006, 26.801161481522829 ] ] ] ] } },
{ "type": "Feature", "properties": { "ID": 2440, "ENTIDAD": 8, "DISTRITO_F": 9, "DISTRITO_L": 21, "MUNICIPIO": 60, "SECCION": 2578, "TIPO": 2, "CONTROL": 15485, "GEOMETRY1_": null }, "geometry": { "type": "MultiPolygon", "coordinates": [ [ [ [ -105.817962942497189, 26.81436919237882 ], [ -105.817524000723665, 26.81422587279005 ], [ -105.817183797545951, 26.81411479130383 ], [ -105.816916969524925, 26.814027668001138 ], [ -105.816575039951005, 26.813915694897521 ], [ -105.816698832168115, 26.813511275061945 ], [ -105.816525138259067, 26.813309748769832 ], [ -105.816716542314893, 26.812817593983386 ], [ -105.816882679896963, 26.812509980534184 ], [ -105.816926508198975, 26.812440904224147 ], [ -105.816932918365879, 26.812422832442344 ], [ -105.816978836432185, 26.812293379181515 ], [ -105.817014618074325, 26.812192501065908 ], [ -105.817099243133256, 26.811953921417661 ], [ -105.817170929537653, 26.81174505995882 ], [ -105.817188829676709, 26.811677673172724 ], [ -105.817281433005334, 26.811409921675825 ], [ -105.817420495084448, 26.811007839430719 ], [ -105.817631774459613, 26.810396942729522 ], [ -105.817679126538749, 26.810280763864675 ], [ -105.817690301324518, 26.810253346364899 ], [ -105.817840305307655, 26.809885308083228 ], [ -105.817950507300012, 26.809671699436958 ], [ -105.818222929913333, 26.809752413141823 ], [ -105.81850030923006, 26.809824771768547 ], [ -105.819317467332141, 26.810040156214022 ], [ -105.819566473961927, 26.810117502274345 ], [ -105.819748629988212, 26.810172415321155 ], [ -105.819084850047162, 26.811405812949022 ], [ -105.817962942497189, 26.81436919237882 ] ] ] ] } },
{ "type": "Feature", "properties": { "ID": 2456, "ENTIDAD": 8, "DISTRITO_F": 9, "DISTRITO_L": 21, "MUNICIPIO": 60, "SECCION": 2594, "TIPO": 4, "CONTROL": 7105, "GEOMETRY1_": null }, "geometry": { "type": "MultiPolygon", "coordinates": [ [ [ [ -105.787347770227839, 26.937361479823661 ], [ -105.787223381129422, 26.93632891191184 ], [ -105.787099609198052, 26.935709432921023 ], [ -105.786975849404826, 26.93509000727629 ], [ -105.786237234785148, 26.934017232663326 ], [ -105.77911202898872, 26.933451499908031 ], [ -105.768304386643649, 26.919023600678372 ], [ -105.767063526056987, 26.917366790787948 ], [ -105.766443109487298, 26.916538381319871 ], [ -105.765822702066046, 26.915709968836868 ], [ -105.765809451551263, 26.915647972492646 ], [ -105.765699131378796, 26.915131804970329 ], [ -105.765575777808237, 26.914718888514411 ], [ -105.764346678347664, 26.913977293248816 ], [ -105.763363644002666, 26.913565781491908 ], [ -105.761461678615674, 26.91512932384143 ], [ -105.759994249519892, 26.915449247991106 ], [ -105.75894524465366, 26.91472685006655 ], [ -105.757836058476812, 26.912748456202365 ], [ -105.75623930406293, 26.91258574291755 ], [ -105.754643053214991, 26.912836131448447 ], [ -105.753168520059049, 26.912177446306952 ], [ -105.751571681386295, 26.911932055862493 ], [ -105.74985165291146, 26.911356339623939 ], [ -105.749114215555409, 26.910861725249369 ], [ -105.74831542752986, 26.910408512596035 ], [ -105.76354389644743, 26.900054927411794 ], [ -105.764342227279101, 26.898071395009872 ], [ -105.764442808390285, 26.89782148613503 ], [ -105.771361469390612, 26.892371243843705 ], [ -105.789978049064075, 26.877701613835331 ], [ -105.79083884155628, 26.877777375108007 ], [ -105.79207702511026, 26.878677056205383 ], [ -105.793312568002136, 26.879328656528518 ], [ -105.795278985320422, 26.879395454816002 ], [ -105.797985148261219, 26.879704318123888 ], [ -105.7998314015977, 26.880020118195688 ], [ -105.801309125245496, 26.880338892393958 ], [ -105.802479739915356, 26.880660152178926 ], [ -105.803650360962038, 26.880981402103917 ], [ -105.805253640543683, 26.881547201578268 ], [ -105.805871462269167, 26.881872944212169 ], [ -105.809446630293422, 26.883001454018334 ], [ -105.811171015650487, 26.883400799651159 ], [ -105.811562067206552, 26.885465008340908 ], [ -105.811839284498035, 26.888357116510722 ], [ -105.811374869585947, 26.890841828438631 ], [ -105.810863788022886, 26.894632757943338 ], [ -105.8089809370002, 26.896717278447404 ], [ -105.807695207332941, 26.899383257643166 ], [ -105.808417494909577, 26.901368539526572 ], [ -105.810050772934062, 26.90466301783378 ], [ -105.811049958863521, 26.906143357848769 ], [ -105.812541575087138, 26.90770234074726 ], [ -105.814285306882581, 26.909838106984957 ], [ -105.816160123503181, 26.912717036635577 ], [ -105.812722159333376, 26.912993426521425 ], [ -105.809537135593231, 26.913929230929568 ], [ -105.804519552996837, 26.915872290172828 ], [ -105.804575654228756, 26.916442869748749 ], [ -105.804795790847649, 26.91868171310319 ], [ -105.807154004297274, 26.920812545599219 ], [ -105.811384525989865, 26.925574255160335 ], [ -105.808691939154926, 26.937918074379066 ], [ -105.787347770227839, 26.937361479823661 ] ] ] ] } },
{ "type": "Feature", "properties": { "ID": 2441, "ENTIDAD": 8, "DISTRITO_F": 9, "DISTRITO_L": 21, "MUNICIPIO": 60, "SECCION": 2579, "TIPO": 3, "CONTROL": 15334, "GEOMETRY1_": null }, "geometry": { "type": "MultiPolygon", "coordinates": [ [ [ [ -105.707694787826853, 26.870019668489562 ], [ -105.707326293826128, 26.869772245810587 ], [ -105.705729377966577, 26.868534818797272 ], [ -105.704746441266337, 26.867461882091703 ], [ -105.702658535104533, 26.866225011980276 ], [ -105.7017984089169, 26.86515190674627 ], [ -105.699833809909052, 26.864575850224732 ], [ -105.699219301124742, 26.863585065113167 ], [ -105.698359053457381, 26.862264061237184 ], [ -105.697867327798562, 26.861273126525042 ], [ -105.697252625855711, 26.859951829825356 ], [ -105.697251825854963, 26.858795073043048 ], [ -105.69725131172666, 26.858051443583442 ], [ -105.696881969858666, 26.856481983818593 ], [ -105.69688140171462, 26.855655728536629 ], [ -105.696512356071054, 26.854499394799134 ], [ -105.695775183311042, 26.853508732741815 ], [ -105.694792527369415, 26.852518345826802 ], [ -105.693932908576983, 26.851940940962031 ], [ -105.692582579039453, 26.851777210266498 ], [ -105.691232410987837, 26.851861343576875 ], [ -105.68951363825073, 26.851367489671464 ], [ -105.688163270500311, 26.851121090799612 ], [ -105.686812809491101, 26.850709427445217 ], [ -105.686014885286056, 26.850586348572051 ], [ -105.685216962704075, 26.850463265161576 ], [ -105.67579126259831, 26.846736358573182 ], [ -105.674177896468535, 26.845011367917653 ], [ -105.672564579428922, 26.843286357525148 ], [ -105.671578110156361, 26.842879983877634 ], [ -105.669476813167407, 26.841489249924301 ], [ -105.668789190421748, 26.838920378786458 ], [ -105.667003330349729, 26.837542034760759 ], [ -105.665263276100234, 26.837549983785806 ], [ -105.665120660645172, 26.835483540370774 ], [ -105.665727535613954, 26.834734902157443 ], [ -105.66816051796765, 26.832319174532774 ], [ -105.67147050084543, 26.831716454187461 ], [ -105.67355726589777, 26.831618692382207 ], [ -105.674660846765661, 26.831445316609596 ], [ -105.6762500104861, 26.830689524978606 ], [ -105.678329534064716, 26.829847458213479 ], [ -105.678819112314557, 26.82967850616539 ], [ -105.679304676249657, 26.829096088664201 ], [ -105.678925059860134, 26.827941066112725 ], [ -105.678299866659501, 26.826787825085589 ], [ -105.677045514842604, 26.824067869172644 ], [ -105.676546352561104, 26.82324450031189 ], [ -105.676282370523012, 26.821344342942982 ], [ -105.676024797638021, 26.820105727864181 ], [ -105.675902012388477, 26.820106617033666 ], [ -105.675405274789213, 26.819531322044508 ], [ -105.675216701343771, 26.819077843694579 ], [ -105.675028129435745, 26.818624365036271 ], [ -105.675010547571546, 26.81680511957757 ], [ -105.67487578026136, 26.815565612860901 ], [ -105.67594721332226, 26.812084509212973 ], [ -105.676178368884536, 26.810594256511703 ], [ -105.676175569438996, 26.810304830877339 ], [ -105.676891661894231, 26.809507266451696 ], [ -105.677159850902285, 26.809124619491477 ], [ -105.677428038127758, 26.808741972036529 ], [ -105.677654083943906, 26.80777014439456 ], [ -105.677417736881154, 26.807008546512083 ], [ -105.675781892296953, 26.804797515398395 ], [ -105.674771642684391, 26.803831586975122 ], [ -105.672770956291089, 26.801025818893635 ], [ -105.67226714878926, 26.799706270404531 ], [ -105.671882133058375, 26.797972368190187 ], [ -105.671371981904016, 26.795991269155859 ], [ -105.670996542059797, 26.795249682983005 ], [ -105.669741932810723, 26.792446947184001 ], [ -105.669229462614354, 26.790217757525433 ], [ -105.668717013411637, 26.787988564941973 ], [ -105.668085010266225, 26.786091025063211 ], [ -105.667828011192867, 26.78489373254261 ], [ -105.667571017792369, 26.7836964392543 ], [ -105.667062826091367, 26.781532682077614 ], [ -105.666931134513291, 26.780971956755657 ], [ -105.666668218669741, 26.779154458960093 ], [ -105.66678303729671, 26.778326642707469 ], [ -105.666781452767651, 26.778161255514455 ], [ -105.667084737488437, 26.77778693308024 ], [ -105.667388020233176, 26.777412610014011 ], [ -105.679906628142874, 26.777239513692439 ], [ -105.681123985137575, 26.776196924421946 ], [ -105.682341319871227, 26.775154324961427 ], [ -105.685022196656604, 26.773149996857978 ], [ -105.687702171688485, 26.771062925990169 ], [ -105.68953425904003, 26.770139813102958 ], [ -105.69197672539245, 26.768881395367874 ], [ -105.694909237804097, 26.767536625949752 ], [ -105.699667894743968, 26.764689703646901 ], [ -105.701611064745819, 26.762607825585736 ], [ -105.704058147007501, 26.761845362496125 ], [ -105.705405626601404, 26.76158724145073 ], [ -105.707229203941168, 26.759836974067877 ], [ -105.708447357047802, 26.758918195512685 ], [ -105.70857007553397, 26.758917279402297 ], [ -105.709553468792066, 26.759075332664267 ], [ -105.710046812640741, 26.759319742658302 ], [ -105.713822191143322, 26.756396998765521 ], [ -105.714184555648771, 26.755815385845935 ], [ -105.716133101010868, 26.754312164778927 ], [ -105.719544176319516, 26.751805504471875 ], [ -105.720153577606609, 26.751387411310336 ], [ -105.722108621368236, 26.750545653018449 ], [ -105.723449262500154, 26.749625820991717 ], [ -105.724056138614586, 26.748959633021276 ], [ -105.725388405900858, 26.747212855111119 ], [ -105.725633816727921, 26.747210993960792 ], [ -105.725879227536325, 26.747209132385755 ], [ -105.77752296108271, 26.745402059905221 ], [ -105.775273439984787, 26.741533088340514 ], [ -105.774898389926832, 26.740874473781474 ], [ -105.774519867149849, 26.73988509069541 ], [ -105.773889879638602, 26.738318807900868 ], [ -105.773014524441408, 26.736754464679144 ], [ -105.7717702532115, 26.735110334688933 ], [ -105.77102024147591, 26.733793082932468 ], [ -105.76965507502031, 26.732315286016803 ], [ -105.76841868290235, 26.731415352205509 ], [ -105.765575313260257, 26.729370269175785 ], [ -105.763725564112818, 26.728475115462434 ], [ -105.761870684706182, 26.727083783291924 ], [ -105.761068951003139, 26.726676569865351 ], [ -105.760267222927212, 26.726269351763001 ], [ -105.75939729607407, 26.725201069973458 ], [ -105.758413278098715, 26.724960664659097 ], [ -105.75767034129241, 26.72430487488683 ], [ -105.758830258363147, 26.717845283103102 ], [ -105.75905802558502, 26.716148170203851 ], [ -105.759285786704197, 26.714451056679739 ], [ -105.759620340511347, 26.711223172091149 ], [ -105.760436944679128, 26.707164521549593 ], [ -105.761027068769721, 26.704927022335841 ], [ -105.761855611069294, 26.702026058149713 ], [ -105.762444823979834, 26.699705860007938 ], [ -105.76340368692351, 26.697548158141689 ], [ -105.765356625898676, 26.696623130838951 ], [ -105.767565187457066, 26.696688456010506 ], [ -105.769157043819689, 26.696427814145387 ], [ -105.773075760126133, 26.695817963518696 ], [ -105.776012377970019, 26.695133101194219 ], [ -105.778941118096483, 26.693703948237538 ], [ -105.780772960818993, 26.692945072549779 ], [ -105.78223771831162, 26.692271801518 ], [ -105.783456295858571, 26.691517782514175 ], [ -105.784917517008807, 26.690513715627546 ], [ -105.785648993873906, 26.690094368890904 ], [ -105.786381341801146, 26.689757710654455 ], [ -105.78758933696912, 26.688011351062098 ], [ -105.788427625639528, 26.686102548467051 ], [ -105.788659731396052, 26.684860198482944 ], [ -105.789008320361717, 26.683038018697875 ], [ -105.788996904128567, 26.681963020075067 ], [ -105.788750759108524, 26.681882295595553 ], [ -105.786903367254325, 26.681152809733021 ], [ -105.786410207553416, 26.680908660644604 ], [ -105.786030046495469, 26.679753913216398 ], [ -105.786017783446084, 26.678596220924998 ], [ -105.786134281524625, 26.678016393350365 ], [ -105.786855157502998, 26.676604733721657 ], [ -105.78744988238401, 26.674863283788323 ], [ -105.787572508355126, 26.674862301264451 ], [ -105.787926351470674, 26.67353627589598 ], [ -105.788037133555719, 26.672418946476316 ], [ -105.788147913777337, 26.671301616843703 ], [ -105.80695403261592, 26.681063684065169 ], [ -105.809482881764211, 26.682376062820214 ], [ -105.850661748793996, 26.701715983800426 ], [ -105.856684705815155, 26.702822674668461 ], [ -105.857428052297578, 26.703477938204138 ], [ -105.858297777423132, 26.704462914677343 ], [ -105.859041143814679, 26.705118169137588 ], [ -105.860527902112665, 26.706428665584042 ], [ -105.861021323799733, 26.706672550102581 ], [ -105.862634511958959, 26.708312737141746 ], [ -105.863502453481274, 26.709132298742613 ], [ -105.864253346174451, 26.710449045190707 ], [ -105.864885328760877, 26.712097597728498 ], [ -105.865021066644729, 26.713254208703088 ], [ -105.865519198786615, 26.71391152676556 ], [ -105.865897474679358, 26.714817964276349 ], [ -105.865779481198786, 26.715232465664752 ], [ -105.865298156889196, 26.716063569796592 ], [ -105.864453488738391, 26.717311273148098 ], [ -105.863974013006739, 26.718307753089672 ], [ -105.863250119958053, 26.719389019814898 ], [ -105.863257582697315, 26.720050540231064 ], [ -105.86364519431757, 26.721783883171817 ], [ -105.863778134182795, 26.722692423786761 ], [ -105.864285639082169, 26.724176644326338 ], [ -105.864663007659715, 26.725000393288489 ], [ -105.865172403947327, 26.7266499895109 ], [ -105.86555633074093, 26.728052564794865 ], [ -105.865812910749753, 26.729042740715517 ], [ -105.866317666354249, 26.730278881781775 ], [ -105.866578000858894, 26.731599815075967 ], [ -105.866104099439397, 26.733092440191218 ], [ -105.865747262995001, 26.734087873246885 ], [ -105.864538145127554, 26.735669490737806 ], [ -105.864301174843519, 26.736415800188674 ], [ -105.864196232247707, 26.73798795718734 ], [ -105.863962991062891, 26.739065025235391 ], [ -105.863731613371314, 26.740307472444087 ], [ -105.863741885374552, 26.741217060173305 ], [ -105.863873919263057, 26.742042907896192 ], [ -105.8619257136139, 26.743382733925547 ], [ -105.860101091647863, 26.744804176955785 ], [ -105.858887132924323, 26.745972299312879 ], [ -105.858038462932214, 26.746889206849549 ], [ -105.857914832363889, 26.746807562172208 ], [ -105.856203522018333, 26.747401012862056 ], [ -105.855957190839533, 26.747320410072842 ], [ -105.855337188689148, 26.746746796537842 ], [ -105.855329765421985, 26.746085277111725 ], [ -105.855323270226734, 26.745506447561702 ], [ -105.85519500418053, 26.745011350691048 ], [ -105.855065811647947, 26.744433563686073 ], [ -105.85481485033155, 26.743939508878945 ], [ -105.855045403964823, 26.742614384371961 ], [ -105.854918997698206, 26.742284666918984 ], [ -105.854658769252893, 26.74096371154258 ], [ -105.854033248168406, 26.73989395064611 ], [ -105.853660535410526, 26.739483624715398 ], [ -105.852312763333686, 26.73966045232768 ], [ -105.850235294130826, 26.740422329806957 ], [ -105.848286027456879, 26.741679281753452 ], [ -105.846218626677882, 26.743350693571607 ], [ -105.844876317178816, 26.744023592948199 ], [ -105.844263746161303, 26.744111450723828 ], [ -105.843646577199607, 26.743785854707575 ], [ -105.843028492782494, 26.743377565652779 ], [ -105.84253678407083, 26.743299003184575 ], [ -105.841927887332901, 26.743717611928474 ], [ -105.84144168450014, 26.744135187382692 ], [ -105.84084103565705, 26.745298004169285 ], [ -105.839521582460506, 26.748038111111814 ], [ -105.839042682196265, 26.749117200981381 ], [ -105.838311953233244, 26.749619513986691 ], [ -105.837453937455351, 26.749709399360388 ], [ -105.836413234695783, 26.749924855088608 ], [ -105.835372527802178, 26.750140303262306 ], [ -105.833054809654868, 26.75140012855692 ], [ -105.830751604826176, 26.753982963728568 ], [ -105.830270777530345, 26.754896644748307 ], [ -105.828822796181271, 26.757141535857947 ], [ -105.827979250084937, 26.758554412159022 ], [ -105.82654025373013, 26.761626185123173 ], [ -105.826070248461846, 26.763532137436052 ], [ -105.825468438150509, 26.764612201519274 ], [ -105.823768456930864, 26.766280244890641 ], [ -105.821345637551389, 26.769194711440615 ], [ -105.819170861249248, 26.772355185388104 ], [ -105.818336106360761, 26.774594911210354 ], [ -105.817508531151176, 26.777496155762197 ], [ -105.817161954763264, 26.779483758656077 ], [ -105.818318912273057, 26.78427070025036 ], [ -105.818959704630288, 26.786746349593336 ], [ -105.81849038299103, 26.788734965623355 ], [ -105.817893786277509, 26.790311140122959 ], [ -105.817663621277262, 26.791718897862868 ], [ -105.81769283708833, 26.795209218800206 ], [ -105.817038205061053, 26.795052900342416 ], [ -105.8168769105405, 26.795014385153191 ], [ -105.816769531242613, 26.795077435524547 ], [ -105.816304871683457, 26.795350273520224 ], [ -105.816478608713709, 26.796122013947546 ], [ -105.815188267786326, 26.797274645261599 ], [ -105.814999984147221, 26.797654740081597 ], [ -105.814962625109388, 26.797721164543656 ], [ -105.814634443827543, 26.798304675261821 ], [ -105.812849035706151, 26.798348724888356 ], [ -105.812754693390318, 26.798586529816237 ], [ -105.812677394045465, 26.798807174817249 ], [ -105.812283722606281, 26.798903805263379 ], [ -105.812007892082988, 26.799550260275311 ], [ -105.813065512104799, 26.80038437357398 ], [ -105.81304648356199, 26.800425839400727 ], [ -105.812227092877691, 26.802211374800244 ], [ -105.814045268317997, 26.803942204389141 ], [ -105.814132257577398, 26.804025013513936 ], [ -105.814219246960135, 26.804107820940789 ], [ -105.814521075367594, 26.804395140664163 ], [ -105.814488686756647, 26.804478231563643 ], [ -105.810932726470469, 26.813620865765383 ], [ -105.812470391639309, 26.812491848197759 ], [ -105.813710314768983, 26.811698114738935 ], [ -105.814158252089129, 26.811315236328934 ], [ -105.814966578141849, 26.810624302458233 ], [ -105.815504701713309, 26.810019004889732 ], [ -105.816027371705502, 26.809234737197727 ], [ -105.816057078513523, 26.809241199465884 ], [ -105.816236767592159, 26.809283539143479 ], [ -105.816465139582562, 26.809430248538568 ], [ -105.816751651306873, 26.809403536781641 ], [ -105.81689854703248, 26.809434303853131 ], [ -105.816949330745558, 26.809444934489694 ], [ -105.81713003824224, 26.809482777831583 ], [ -105.817315423718895, 26.809513871210243 ], [ -105.817587950581668, 26.809585001156009 ], [ -105.8177435445253, 26.809584730186636 ], [ -105.817855150316419, 26.809619350930998 ], [ -105.817950507300012, 26.809671699436958 ], [ -105.817840305307655, 26.809885308083228 ], [ -105.817690301324518, 26.810253346364899 ], [ -105.817679126538749, 26.810280763864675 ], [ -105.817631774459613, 26.810396942729522 ], [ -105.817420495084448, 26.811007839430719 ], [ -105.817281433005334, 26.811409921675825 ], [ -105.817188829683161, 26.811677673989657 ], [ -105.817170929537653, 26.81174505995882 ], [ -105.817099243133256, 26.811953921417661 ], [ -105.817014618074325, 26.812192501065908 ], [ -105.816978836432185, 26.812293379181515 ], [ -105.816932918365879, 26.812422832442344 ], [ -105.816926508198975, 26.812440904224147 ], [ -105.816882679896963, 26.812509980534184 ], [ -105.816716542314893, 26.812817593983386 ], [ -105.816525138259067, 26.813309748769832 ], [ -105.816698832168115, 26.813511275061945 ], [ -105.816575039951005, 26.813915694897521 ], [ -105.816916969524925, 26.814027668001138 ], [ -105.817183797545951, 26.81411479130383 ], [ -105.817524000723665, 26.81422587279005 ], [ -105.817962942497189, 26.81436919237882 ], [ -105.817175978481828, 26.815063559731655 ], [ -105.81646101511835, 26.816538075089486 ], [ -105.815014160067633, 26.817641702623749 ], [ -105.812076981640331, 26.819882004230582 ], [ -105.807807413210767, 26.822480587019449 ], [ -105.806740214089857, 26.823150885662908 ], [ -105.805673002294242, 26.823821176476219 ], [ -105.803502885576634, 26.82014942446666 ], [ -105.803484095017609, 26.820117630362468 ], [ -105.802558375336446, 26.820027261551807 ], [ -105.799178739633433, 26.819408344420708 ], [ -105.798438499895866, 26.819083557170313 ], [ -105.796833477884221, 26.818269583894303 ], [ -105.794740021436198, 26.817707632684364 ], [ -105.791788902814261, 26.817317960732286 ], [ -105.791175892482229, 26.817405597855569 ], [ -105.789829737143023, 26.817829923921455 ], [ -105.788362554484507, 26.818420605300663 ], [ -105.786648034394261, 26.818847860977808 ], [ -105.784933500923842, 26.819275096138874 ], [ -105.784319595489251, 26.819280013189164 ], [ -105.782838324894442, 26.818547586614191 ], [ -105.782588377915573, 26.818136096337518 ], [ -105.782095504417384, 26.817974640420339 ], [ -105.780248554172076, 26.817493201358459 ], [ -105.780230168719669, 26.815756694110558 ], [ -105.779723307408247, 26.814272175993402 ], [ -105.778350921650059, 26.812215666447958 ], [ -105.777731811865209, 26.811724408546624 ], [ -105.777228494778541, 26.810570643393326 ], [ -105.776970729572739, 26.809414923174312 ], [ -105.776715588045747, 26.808507275171742 ], [ -105.776696388885, 26.806688073068152 ], [ -105.776670210453887, 26.804207342154317 ], [ -105.776531741127343, 26.802719879237088 ], [ -105.776404615940933, 26.802307399834717 ], [ -105.775774235274667, 26.800741147107054 ], [ -105.775883046380727, 26.799417113977103 ], [ -105.775876943356693, 26.79883827612143 ], [ -105.775870840473331, 26.798259438217368 ], [ -105.775492105700167, 26.797270069968825 ], [ -105.775000203772635, 26.797191277868436 ], [ -105.774016401824014, 26.797033688494466 ], [ -105.772787087741591, 26.796878037685836 ], [ -105.772049674572969, 26.796801180288345 ], [ -105.770699344155403, 26.796811865676801 ], [ -105.768373884753544, 26.797491822406812 ], [ -105.767395282125776, 26.797830334807962 ], [ -105.766783219837635, 26.798000556012759 ], [ -105.765924773146637, 26.798090016884366 ], [ -105.764572698081139, 26.797935261439278 ], [ -105.763234860395031, 26.799144901168148 ], [ -105.76189699432868, 26.800354528653951 ], [ -105.759946576522722, 26.801692990383017 ], [ -105.759214298105803, 26.802112215342721 ], [ -105.758118877058038, 26.803030465963193 ], [ -105.75714792059901, 26.804113132125249 ], [ -105.755561397066174, 26.805035199619461 ], [ -105.75325022029287, 26.80712066829237 ], [ -105.752650914448026, 26.808531202408812 ], [ -105.752055868536232, 26.810355191546144 ], [ -105.751172278681139, 26.811569207423169 ], [ -105.750603090517401, 26.812351239907748 ], [ -105.747800567931506, 26.814440436767569 ], [ -105.745603335369452, 26.815697917739456 ], [ -105.74097163112387, 26.81904158732339 ], [ -105.743679630670698, 26.819682292314187 ], [ -105.746387659438213, 26.82032294479917 ], [ -105.745286307658262, 26.823592800609628 ], [ -105.74460029388753, 26.825629443583185 ], [ -105.748567068050448, 26.829237447013789 ], [ -105.751660651319426, 26.842730289838421 ], [ -105.746988518056398, 26.842894835554752 ], [ -105.748383503124757, 26.850928411020888 ], [ -105.749469605334454, 26.857182300923867 ], [ -105.743210720314281, 26.857726950789868 ], [ -105.74512671749082, 26.861252289570114 ], [ -105.708968776420647, 26.87130320296292 ], [ -105.707694787826853, 26.870019668489562 ] ] ] ] } },
{ "type": "Feature", "properties": { "ID": 2442, "ENTIDAD": 8, "DISTRITO_F": 9, "DISTRITO_L": 21, "MUNICIPIO": 60, "SECCION": 2580, "TIPO": 2, "CONTROL": 15490, "GEOMETRY1_": null }, "geometry": { "type": "MultiPolygon", "coordinates": [ [ [ [ -105.810932726470469, 26.813620865765383 ], [ -105.814488686756647, 26.804478231563643 ], [ -105.814521075367594, 26.804395140664163 ], [ -105.814890567539081, 26.804057607319994 ], [ -105.816142841695694, 26.803795800168363 ], [ -105.816310239251607, 26.803167805135214 ], [ -105.816569296529707, 26.803548286701865 ], [ -105.816692496241672, 26.803551525335269 ], [ -105.816984360945284, 26.803306735692711 ], [ -105.817148012944642, 26.802673770158414 ], [ -105.817273925139673, 26.802349484002118 ], [ -105.817267938785022, 26.802278932393538 ], [ -105.817635585241618, 26.80161626243758 ], [ -105.817697722709582, 26.801646342625958 ], [ -105.817804997626112, 26.801694844063228 ], [ -105.81784901698289, 26.80171593982417 ], [ -105.817918744919396, 26.801747653319755 ], [ -105.817934266927836, 26.80222747564483 ], [ -105.817933482249387, 26.802601231516199 ], [ -105.817903901419669, 26.802873469739978 ], [ -105.817859059496612, 26.803261739883116 ], [ -105.81778837492115, 26.803873768386516 ], [ -105.817732952467168, 26.80435365330769 ], [ -105.817592687523188, 26.804913193382173 ], [ -105.81751717145039, 26.805214442783878 ], [ -105.817432860310774, 26.805550774404825 ], [ -105.817397903691344, 26.805690222271743 ], [ -105.817285580125258, 26.80597674081557 ], [ -105.817045956112864, 26.806587976452864 ], [ -105.816872385518167, 26.807030718904684 ], [ -105.816898948913291, 26.8072380209573 ], [ -105.816909919297785, 26.807345118813036 ], [ -105.8169551630195, 26.807676715829452 ], [ -105.816027371705502, 26.809234737197727 ], [ -105.815504701713309, 26.810019004889732 ], [ -105.814966578141849, 26.810624302458233 ], [ -105.814158252089129, 26.811315236328934 ], [ -105.813710314768983, 26.811698114738935 ], [ -105.812470391639309, 26.812491848197759 ], [ -105.810932726470469, 26.813620865765383 ] ] ] ] } },
{ "type": "Feature", "properties": { "ID": 2449, "ENTIDAD": 8, "DISTRITO_F": 9, "DISTRITO_L": 21, "MUNICIPIO": 60, "SECCION": 2587, "TIPO": 3, "CONTROL": 17628, "GEOMETRY1_": null }, "geometry": { "type": "MultiPolygon", "coordinates": [ [ [ [ -105.9286150568294, 26.75926179748188 ], [ -105.940062174226128, 26.761507000831212 ], [ -105.939581708694192, 26.76237968638047 ], [ -105.9387464382323, 26.764372001051264 ], [ -105.939058175020833, 26.764782649989787 ], [ -105.939369914077247, 26.765193298160355 ], [ -105.941210675530513, 26.765176544428588 ], [ -105.942925742749807, 26.76491282347315 ], [ -105.945135641942983, 26.764975348327305 ], [ -105.947712698079243, 26.764951781716025 ], [ -105.950162049336939, 26.764515857075136 ], [ -105.952129504014906, 26.764828585553392 ], [ -105.952375935899283, 26.764909018311776 ], [ -105.953004506839434, 26.76614368898462 ], [ -105.953383655102073, 26.767049864234416 ], [ -105.953638090254216, 26.767791792375327 ], [ -105.954382410567675, 26.768446516712483 ], [ -105.955246457723376, 26.768852045456992 ], [ -105.955867071234252, 26.769425204262095 ], [ -105.956487690982044, 26.769998360136967 ], [ -105.956488692834142, 26.770081047248951 ], [ -105.955637648153527, 26.770750459236968 ], [ -105.954659867595922, 26.771090247322995 ], [ -105.953682081028049, 26.771430028800037 ], [ -105.953071461086623, 26.771683732458339 ], [ -105.952215389907465, 26.771939688622936 ], [ -105.950875401580973, 26.77277895626257 ], [ -105.949536390271689, 26.773700898904526 ], [ -105.948803022018012, 26.773955709767154 ], [ -105.947953894252322, 26.774790451750043 ], [ -105.946861287435411, 26.775792809477458 ], [ -105.945771644382091, 26.777043221081417 ], [ -105.94455626584012, 26.778046683760536 ], [ -105.94309738632569, 26.779217750826007 ], [ -105.934319278531262, 26.773922289685533 ], [ -105.932757310545114, 26.776748117312579 ], [ -105.93251677382014, 26.777163776809388 ], [ -105.931202153889259, 26.78015274220266 ], [ -105.930601269273907, 26.781233227784728 ], [ -105.929389640176126, 26.782567315044496 ], [ -105.927798972261058, 26.782995148079966 ], [ -105.925835178785519, 26.783012839969171 ], [ -105.925343250473404, 26.782934570920414 ], [ -105.924115879457275, 26.78294561024968 ], [ -105.922883618243318, 26.782543199775866 ], [ -105.921528629064881, 26.782141879527011 ], [ -105.920055792298413, 26.782155085531318 ], [ -105.919455766139151, 26.783318214430174 ], [ -105.918859628304148, 26.784812092572146 ], [ -105.91850115849752, 26.785642267965599 ], [ -105.918141709033449, 26.786389754576831 ], [ -105.917538719605488, 26.787304812001036 ], [ -105.917057489850009, 26.788136081690226 ], [ -105.91657625322091, 26.788967349826926 ], [ -105.916466164585572, 26.790043389753759 ], [ -105.916723339078345, 26.791033450407017 ], [ -105.916852901926262, 26.79161116834922 ], [ -105.916746709318517, 26.793017959582066 ], [ -105.916760342839353, 26.794175589669063 ], [ -105.917517302349594, 26.795905448111004 ], [ -105.918269410307744, 26.797221862603489 ], [ -105.919016657914369, 26.798124833664563 ], [ -105.919145265793787, 26.798619860690948 ], [ -105.919410292666186, 26.800271415975992 ], [ -105.92078405520563, 26.802243815852961 ], [ -105.922535929792417, 26.805039769157769 ], [ -105.922915956622873, 26.806028711555058 ], [ -105.923786063156868, 26.806930550835038 ], [ -105.924282993178281, 26.807422259952897 ], [ -105.924784828018502, 26.808327404622467 ], [ -105.925410416970777, 26.809314129458624 ], [ -105.925542989456389, 26.81013989865389 ], [ -105.924943862163602, 26.811385736056138 ], [ -105.922739914891864, 26.811901732049613 ], [ -105.920273800453231, 26.811014207671967 ], [ -105.919531337174149, 26.810524685267232 ], [ -105.918550176797112, 26.810616170962753 ], [ -105.917574864413098, 26.811203775726973 ], [ -105.916968821746224, 26.811870768110293 ], [ -105.916731079803, 26.812534465059915 ], [ -105.91637251355553, 26.813364634473292 ], [ -105.916505026461394, 26.814190413221624 ], [ -105.916761287902034, 26.815097781460565 ], [ -105.916889907540337, 26.815592809124642 ], [ -105.917150074876858, 26.816830926659076 ], [ -105.916806118691611, 26.818901410482624 ], [ -105.916932793812293, 26.819231062615998 ], [ -105.917059469692731, 26.819560714602051 ], [ -105.91706580637377, 26.820098183658057 ], [ -105.917072143194844, 26.820635652671882 ], [ -105.917202721226346, 26.821296054531629 ], [ -105.916845107687081, 26.822208912264834 ], [ -105.916480666776906, 26.822542956438909 ], [ -105.91526357637791, 26.823463492906345 ], [ -105.914408000944633, 26.823801918438203 ], [ -105.913187963459265, 26.824474374915372 ], [ -105.912089722942, 26.825063039486466 ], [ -105.911114254492119, 26.825650602528086 ], [ -105.909408856893634, 26.826823525568486 ], [ -105.908556144821063, 26.827409979640862 ], [ -105.907828147000728, 26.828160713659411 ], [ -105.906617698842126, 26.829659992151932 ], [ -105.905889674008876, 26.830410716644032 ], [ -105.905529041979435, 26.83107548452297 ], [ -105.905180005436634, 26.832732503940541 ], [ -105.904454850338382, 26.833731284553014 ], [ -105.903844750411906, 26.834067472768471 ], [ -105.902989060187721, 26.83440583160737 ], [ -105.901765947789414, 26.834830129908905 ], [ -105.900049722611783, 26.835093378929546 ], [ -105.898944574798207, 26.835103130175341 ], [ -105.897227376978961, 26.835283657357142 ], [ -105.895513052242478, 26.835712227532593 ], [ -105.894044305060788, 26.836138619905061 ], [ -105.893188568494608, 26.836476920473725 ], [ -105.891602747226642, 26.837400493730751 ], [ -105.890022634860969, 26.83882017774906 ], [ -105.88857005736547, 26.840652210827677 ], [ -105.887725720922759, 26.841982735619496 ], [ -105.887120295078546, 26.842732293755347 ], [ -105.886762375971273, 26.843645080402258 ], [ -105.885790426853845, 26.84456322663047 ], [ -105.885300159763759, 26.844650201131145 ], [ -105.885052644912292, 26.844486967611992 ], [ -105.884059737582632, 26.843585964721562 ], [ -105.883437157233956, 26.842847121878123 ], [ -105.88306209151483, 26.84227151371546 ], [ -105.881823616179716, 26.841372632521256 ], [ -105.880705113625879, 26.840224608001559 ], [ -105.879463834505813, 26.839077640144346 ], [ -105.878227316653152, 26.838344102092375 ], [ -105.877238303016881, 26.837773801199358 ], [ -105.876008432602845, 26.837619061399291 ], [ -105.876008432602845, 26.837619061399291 ], [ -105.876008432602845, 26.837619061399291 ], [ -105.874535803567696, 26.837714499955386 ], [ -105.872572922386439, 26.837896853231239 ], [ -105.871344940236881, 26.837907449686188 ], [ -105.869262072998708, 26.838338881787521 ], [ -105.867178249859464, 26.838687595012217 ], [ -105.865217212744142, 26.83903522405695 ], [ -105.862152832807624, 26.839557668381754 ], [ -105.859457759539495, 26.840159589607733 ], [ -105.856634264671655, 26.840266373834606 ], [ -105.853687961325448, 26.840374145724375 ], [ -105.851601262648856, 26.840474564690801 ], [ -105.850620703393162, 26.84064827548027 ], [ -105.849640140952701, 26.840821979538134 ], [ -105.848904717032497, 26.840952253163771 ], [ -105.848169290796434, 26.841082522359859 ], [ -105.845477794679539, 26.842014935585542 ], [ -105.842299640435314, 26.843364881137621 ], [ -105.840831499837151, 26.8438734167162 ], [ -105.839608039028292, 26.844297184928909 ], [ -105.837158336425119, 26.844896622567124 ], [ -105.835935766871842, 26.845403048739129 ], [ -105.833498829501508, 26.847160073393106 ], [ -105.832526410647347, 26.848077863969248 ], [ -105.832532811136872, 26.848656688838371 ], [ -105.833032288465489, 26.849396788445478 ], [ -105.833410789726841, 26.850303291054054 ], [ -105.833791127910814, 26.851375170801575 ], [ -105.834295204497465, 26.852528711114257 ], [ -105.833812181982935, 26.853277022191232 ], [ -105.832839714849754, 26.854194815285808 ], [ -105.831004764367862, 26.854871708570332 ], [ -105.829157022080921, 26.854390928734674 ], [ -105.82742937939102, 26.853661035056273 ], [ -105.826567841603548, 26.85350280344727 ], [ -105.82583458037665, 26.853839682760849 ], [ -105.825225950552053, 26.854340917660313 ], [ -105.824253403604061, 26.855258653361521 ], [ -105.822793192519086, 26.856511210727284 ], [ -105.82193980075192, 26.857097155998911 ], [ -105.820840757492988, 26.857685128006946 ], [ -105.819621596501634, 26.858522174789858 ], [ -105.818890995984063, 26.859107087417588 ], [ -105.818280498541242, 26.859442914465134 ], [ -105.81766909356449, 26.859696049466425 ], [ -105.816814747813623, 26.860199275198116 ], [ -105.816208752449171, 26.860948540987792 ], [ -105.816217781143578, 26.861775435888976 ], [ -105.81634963692396, 26.862601318764458 ], [ -105.81653794124253, 26.862971903271792 ], [ -105.810843103930736, 26.864548610330242 ], [ -105.810483762958157, 26.864578459915098 ], [ -105.809186257807326, 26.864686232809838 ], [ -105.807529407136514, 26.864823835956159 ], [ -105.804940591996754, 26.863976662269788 ], [ -105.804411232976605, 26.863803424047141 ], [ -105.802351814295633, 26.863129440210773 ], [ -105.801436833451589, 26.857243368672041 ], [ -105.798128676024589, 26.835956358860052 ], [ -105.795775093535383, 26.834073378467355 ], [ -105.797967656283419, 26.83240167478397 ], [ -105.797528989718046, 26.831578255083084 ], [ -105.797090329623686, 26.830754833786617 ], [ -105.797312821040592, 26.828602897055944 ], [ -105.79864484619975, 26.826855453679986 ], [ -105.799738376232142, 26.825771514041879 ], [ -105.801638463883137, 26.825466636976678 ], [ -105.803538540677806, 26.825161734609416 ], [ -105.804605777823596, 26.824491459458592 ], [ -105.805139391643294, 26.824156318946315 ], [ -105.805673002294242, 26.823821176476219 ], [ -105.806740214089857, 26.823150885662908 ], [ -105.807807413210767, 26.822480587019449 ], [ -105.812076981640331, 26.819882004230582 ], [ -105.815014160067633, 26.817641702623749 ], [ -105.816461015416152, 26.816538075306607 ], [ -105.817175978488294, 26.815063560549316 ], [ -105.817962942503684, 26.814369193196381 ], [ -105.819084850047162, 26.811405812949022 ], [ -105.819748629988212, 26.810172415321155 ], [ -105.819944984167833, 26.809786497245575 ], [ -105.820385109181657, 26.809250804194072 ], [ -105.820653262713734, 26.808974841180614 ], [ -105.820828654788571, 26.808712280409701 ], [ -105.82135710626649, 26.807920367206719 ], [ -105.821404062602724, 26.807917615213672 ], [ -105.821532009145656, 26.807910117325047 ], [ -105.82175983654524, 26.807501067531042 ], [ -105.821321526820967, 26.807267913165564 ], [ -105.822708658007528, 26.806035232599708 ], [ -105.822340406994002, 26.805815537011298 ], [ -105.821779177465785, 26.805480693612406 ], [ -105.821293634664173, 26.805190996849085 ], [ -105.821088431395268, 26.805078317885741 ], [ -105.82080082886192, 26.804876938487524 ], [ -105.820542743896368, 26.804762276139009 ], [ -105.820096687682422, 26.804423167457717 ], [ -105.819874811660924, 26.804265321029941 ], [ -105.820382929776258, 26.803668106613813 ], [ -105.820482968702265, 26.803550576045385 ], [ -105.820727592350963, 26.803310741534506 ], [ -105.820816562591233, 26.803158650300713 ], [ -105.821041345570805, 26.802858045030906 ], [ -105.821327441810581, 26.802520723801468 ], [ -105.822026203757787, 26.80272986309684 ], [ -105.82208716805691, 26.80273975939469 ], [ -105.822214506408713, 26.80273547931051 ], [ -105.822433140386138, 26.802728130339208 ], [ -105.822549631270746, 26.802724215021371 ], [ -105.823193803211197, 26.802673505435777 ], [ -105.82317715413086, 26.802458474439661 ], [ -105.822952602294464, 26.802386661113225 ], [ -105.822868800862608, 26.802359861497674 ], [ -105.822837129449809, 26.802279312628009 ], [ -105.822817646465666, 26.802229762619458 ], [ -105.823383513383476, 26.802160973659468 ], [ -105.823916512297203, 26.801970940987616 ], [ -105.824803585555543, 26.801967935130197 ], [ -105.824789063449714, 26.802411934222278 ], [ -105.824777772762332, 26.802757134507562 ], [ -105.825473642635089, 26.803165815875595 ], [ -105.825806520307367, 26.802854084409994 ], [ -105.826881626700242, 26.803881883401324 ], [ -105.829825206596752, 26.803609310796926 ], [ -105.831566693815603, 26.805662234271338 ], [ -105.833184563527766, 26.807633469847811 ], [ -105.834294952558579, 26.808120376586157 ], [ -105.835893675561394, 26.808355095775429 ], [ -105.837607837396973, 26.807927250733652 ], [ -105.839315559172761, 26.806920558060678 ], [ -105.840411263968264, 26.806084383151411 ], [ -105.843216440810536, 26.804406840767385 ], [ -105.848974276716078, 26.803283169672795 ], [ -105.851563393939301, 26.804253603107892 ], [ -105.852179989225803, 26.80449646429539 ], [ -105.853167660697451, 26.804984263613694 ], [ -105.853544306031722, 26.805725339145624 ], [ -105.886454434684595, 26.806268920225801 ], [ -105.888022713725377, 26.803857018181159 ], [ -105.889242689488967, 26.803184778504416 ], [ -105.89251416976029, 26.799434771986125 ], [ -105.893588344010496, 26.796779050990178 ], [ -105.894160936900107, 26.793218061269872 ], [ -105.894733497398022, 26.789657068354092 ], [ -105.894583938986116, 26.78734286900783 ], [ -105.8944286438592, 26.784532537442356 ], [ -105.894745156405548, 26.780064122201093 ], [ -105.89580665407405, 26.776333431324456 ], [ -105.895569642289203, 26.774992549198839 ], [ -105.895412600337608, 26.774104074351385 ], [ -105.894075208527198, 26.768405237812011 ], [ -105.893343763813178, 26.765025553099481 ], [ -105.895256529615224, 26.760625814740251 ], [ -105.898077036285329, 26.760435619678976 ], [ -105.901144881947431, 26.760408580441904 ], [ -105.903712236296357, 26.759558930320683 ], [ -105.905783880271301, 26.758300140126924 ], [ -105.90822940677549, 26.757534185296887 ], [ -105.909432810126361, 26.755497422617839 ], [ -105.9286150568294, 26.75926179748188 ] ] ] ] } },
{ "type": "Feature", "properties": { "ID": 2450, "ENTIDAD": 8, "DISTRITO_F": 9, "DISTRITO_L": 21, "MUNICIPIO": 60, "SECCION": 2588, "TIPO": 2, "CONTROL": 15560, "GEOMETRY1_": null }, "geometry": { "type": "MultiPolygon", "coordinates": [ [ [ [ -105.820816562591233, 26.803158650300713 ], [ -105.819955892913015, 26.802701721438101 ], [ -105.81968351928866, 26.802557116611762 ], [ -105.819672405791295, 26.802427805455896 ], [ -105.819422286802805, 26.802410469652624 ], [ -105.818580222031926, 26.80235210266072 ], [ -105.818227297086565, 26.802270150029653 ], [ -105.817934266927864, 26.80222747564483 ], [ -105.817918744919396, 26.801747653319755 ], [ -105.81784901698289, 26.80171593982417 ], [ -105.817804997626112, 26.801694844063228 ], [ -105.817697722709582, 26.801646342625958 ], [ -105.817635585241618, 26.80161626243758 ], [ -105.818230307059764, 26.800803706009301 ], [ -105.818623673833798, 26.80026625067535 ], [ -105.818766489320453, 26.80017173327666 ], [ -105.819092346551784, 26.79995607503254 ], [ -105.81924616129055, 26.799708968351581 ], [ -105.819298105201753, 26.799682740462185 ], [ -105.819428428681078, 26.799626753030385 ], [ -105.819632959437897, 26.799537579248209 ], [ -105.819695167599292, 26.799506460099337 ], [ -105.819727195015119, 26.799570508444639 ], [ -105.819758877343659, 26.799633865293693 ], [ -105.819764482000451, 26.799723770126864 ], [ -105.819767191108198, 26.799767227119489 ], [ -105.819836517949909, 26.799833634196233 ], [ -105.820021782247963, 26.799963173311866 ], [ -105.82014171552764, 26.800078816223095 ], [ -105.820245241804614, 26.800149076693014 ], [ -105.82039237834239, 26.80026035007964 ], [ -105.820545004130594, 26.800398180507614 ], [ -105.820610625391637, 26.800575900419165 ], [ -105.820643493395721, 26.800697144130964 ], [ -105.82068187764952, 26.800860184298823 ], [ -105.820681989021153, 26.800923046884304 ], [ -105.82068210039391, 26.800985909469322 ], [ -105.820682633630426, 26.801286887908031 ], [ -105.820677576369135, 26.801504161500425 ], [ -105.820743022134607, 26.801582825216919 ], [ -105.820902038722068, 26.801481673398047 ], [ -105.821026712885626, 26.801417641314504 ], [ -105.82115616876662, 26.801322867877779 ], [ -105.82133017107104, 26.801239279057185 ], [ -105.821422604100107, 26.801191657932161 ], [ -105.821634659916668, 26.801084426450331 ], [ -105.821765193706696, 26.801039831639741 ], [ -105.821938077266296, 26.801077665623261 ], [ -105.821972077514843, 26.801085106238268 ], [ -105.822206259078726, 26.801179349263297 ], [ -105.822347919865791, 26.801271685315868 ], [ -105.82240797087853, 26.801377129942097 ], [ -105.822473524641268, 26.801516751317045 ], [ -105.822533595903451, 26.801633625504294 ], [ -105.82254457270075, 26.801685787125891 ], [ -105.822555549508721, 26.801737948746016 ], [ -105.822577503156808, 26.801842271981812 ], [ -105.822594065405596, 26.801975281057111 ], [ -105.822637844412199, 26.802111540315206 ], [ -105.82265975416496, 26.802191099505219 ], [ -105.822675617543126, 26.802231835258254 ], [ -105.822715898624338, 26.802231248263368 ], [ -105.822817646465666, 26.802229762619458 ], [ -105.822837129449809, 26.802279312628009 ], [ -105.822868800862608, 26.802359861497674 ], [ -105.822952602294464, 26.802386661113225 ], [ -105.82317715413086, 26.802458474439661 ], [ -105.823193803204688, 26.802673504620284 ], [ -105.822549631270746, 26.802724215021371 ], [ -105.822433140386138, 26.802728130339208 ], [ -105.822214506415222, 26.802735480126003 ], [ -105.822087168050416, 26.802739758579207 ], [ -105.822026203751278, 26.802729862281353 ], [ -105.821327441810581, 26.802520723801468 ], [ -105.821041345570805, 26.802858045030906 ], [ -105.820816562591233, 26.803158650300713 ] ] ] ] } },
{ "type": "Feature", "properties": { "ID": 2451, "ENTIDAD": 8, "DISTRITO_F": 9, "DISTRITO_L": 21, "MUNICIPIO": 60, "SECCION": 2589, "TIPO": 2, "CONTROL": 15492, "GEOMETRY1_": null }, "geometry": { "type": "MultiPolygon", "coordinates": [ [ [ [ -105.817635585235166, 26.801616261622268 ], [ -105.817344100341856, 26.801462072101355 ], [ -105.816872962531434, 26.801212848506133 ], [ -105.816405562579732, 26.800910476269845 ], [ -105.816033902061747, 26.800670037883343 ], [ -105.816104351089947, 26.800500949178126 ], [ -105.816191211813944, 26.800341591633654 ], [ -105.816256059186287, 26.800222620190798 ], [ -105.816607028157506, 26.799578714517462 ], [ -105.816767568751857, 26.79928417585425 ], [ -105.81705365044499, 26.798759306844079 ], [ -105.817376333363754, 26.798901651725203 ], [ -105.818157511371552, 26.799249544074328 ], [ -105.818319083632005, 26.799509893145629 ], [ -105.818623673827346, 26.800266249860314 ], [ -105.818230307059764, 26.800803706009301 ], [ -105.817635585235166, 26.801616261622268 ] ] ] ] } },
{ "type": "Feature", "properties": { "ID": 2452, "ENTIDAD": 8, "DISTRITO_F": 9, "DISTRITO_L": 21, "MUNICIPIO": 60, "SECCION": 2590, "TIPO": 2, "CONTROL": 16250, "GEOMETRY1_": null }, "geometry": { "type": "MultiPolygon", "coordinates": [ [ [ [ -105.816104351089919, 26.800500949178126 ], [ -105.815603160457044, 26.80021407853804 ], [ -105.815330845334543, 26.799961741722004 ], [ -105.81518887311023, 26.799830171424635 ], [ -105.814273928158784, 26.799488517019096 ], [ -105.814176030937446, 26.799451960507543 ], [ -105.813881494441318, 26.799212256533433 ], [ -105.81366468309497, 26.799170963830157 ], [ -105.813321955204728, 26.79888225669967 ], [ -105.812849035706236, 26.798348724888356 ], [ -105.814634443827558, 26.798304675261821 ], [ -105.814962625109388, 26.797721164543656 ], [ -105.814999984140798, 26.797654739267006 ], [ -105.815188267786326, 26.797274645261599 ], [ -105.816478608713709, 26.796122013947546 ], [ -105.816304871683457, 26.795350273520224 ], [ -105.816769531242613, 26.795077435524547 ], [ -105.8168769105405, 26.795014385153191 ], [ -105.817038205061053, 26.795052900342416 ], [ -105.81769283708833, 26.795209218800206 ], [ -105.817772259453363, 26.796561682017806 ], [ -105.81780002595552, 26.796971113745048 ], [ -105.817862902215836, 26.797835882666252 ], [ -105.817924747132281, 26.79803831575266 ], [ -105.818026851019752, 26.798234993737061 ], [ -105.818163218027863, 26.798397394480546 ], [ -105.818288620308437, 26.798528164872131 ], [ -105.81808777923672, 26.798821855314632 ], [ -105.818157511371524, 26.79924954407424 ], [ -105.817376333363754, 26.798901651725203 ], [ -105.817053650438567, 26.798759306029314 ], [ -105.816767568751857, 26.79928417585425 ], [ -105.816607028157506, 26.799578714517462 ], [ -105.816256059186287, 26.800222620190798 ], [ -105.816191211813944, 26.800341591633654 ], [ -105.816104351089919, 26.800500949178126 ] ] ] ] } }
]
}
